,Date,Time,Temp,Windchill,Dew Point,Humidity,Pressure,Visibility,Wind Dir,Wind Speed,Gust Speed,Precip,Events,Conditions
0,2016-01-01,12:51 AM,43.0,36.4,27.0,53%,30.07,10.0,NW,12.7,,N/A,,Mostly Cloudy
1,2016-01-01,1:51 AM,43.0,36.0,27.0,53%,30.07,10.0,NW,13.8,,N/A,,Mostly Cloudy
2,2016-01-01,2:51 AM,42.1,36.6,27.0,55%,30.07,10.0,NW,9.2,,N/A,,Mostly Cloudy
3,2016-01-01,3:51 AM,43.0,38.2,27.0,53%,30.07,10.0,West,8.1,,N/A,,Overcast
4,2016-01-01,4:51 AM,42.1,35.2,28.0,58%,30.06,10.0,West,12.7,,N/A,,Overcast
5,2016-01-01,5:51 AM,41.0,34.3,27.0,57%,30.06,10.0,West,11.5,,N/A,,Overcast
6,2016-01-01,6:51 AM,41.0,34.3,27.0,57%,30.07,10.0,WNW,11.5,,N/A,,Mostly Cloudy
7,2016-01-01,7:51 AM,41.0,35.2,27.0,57%,30.07,10.0,West,9.2,,N/A,,Mostly Cloudy
8,2016-01-01,8:51 AM,39.9,32.9,26.1,58%,30.08,10.0,West,11.5,,N/A,,Mostly Cloudy
9,2016-01-01,9:51 AM,41.0,34.3,26.1,55%,30.08,10.0,West,11.5,,N/A,,Mostly Cloudy
10,2016-01-01,10:51 AM,41.0,33.1,25.0,53%,30.06,10.0,West,15.0,,N/A,,Mostly Cloudy
11,2016-01-01,11:51 AM,42.1,34.5,25.0,51%,30.03,10.0,West,15.0,,N/A,,Mostly Cloudy
12,2016-01-01,12:51 PM,42.1,33.9,25.0,51%,30.01,10.0,West,17.3,23.0,N/A,,Mostly Cloudy
13,2016-01-01,1:51 PM,42.1,33.6,25.0,51%,29.99,10.0,West,18.4,28.8,N/A,,Mostly Cloudy
14,2016-01-01,2:51 PM,41.0,32.2,26.1,55%,29.99,10.0,West,18.4,,N/A,,Mostly Cloudy
15,2016-01-01,3:51 PM,39.9,31.1,21.0,47%,30.00,10.0,West,17.3,26.5,N/A,,Mostly Cloudy
16,2016-01-01,4:51 PM,39.9,31.8,21.0,47%,29.99,10.0,West,15.0,,N/A,,Mostly Cloudy
17,2016-01-01,5:51 PM,39.9,31.4,21.0,47%,30.01,10.0,West,16.1,23.0,N/A,,Scattered Clouds
18,2016-01-01,6:51 PM,39.0,29.0,19.0,45%,30.02,10.0,WNW,20.7,31.1,N/A,,Scattered Clouds
19,2016-01-01,7:51 PM,39.0,29.0,18.0,43%,30.04,10.0,WNW,20.7,28.8,N/A,,Partly Cloudy
20,2016-01-01,8:51 PM,37.9,29.6,19.0,47%,30.05,10.0,West,13.8,21.9,N/A,,Clear
21,2016-01-01,9:51 PM,37.9,29.2,19.9,48%,30.05,10.0,West,15.0,23.0,N/A,,Clear
22,2016-01-01,10:51 PM,37.0,27.7,19.0,48%,30.05,10.0,West,16.1,24.2,N/A,,Partly Cloudy
23,2016-01-01,11:51 PM,36.0,25.3,18.0,48%,30.05,10.0,West,19.6,27.6,N/A,,Partly Cloudy
24,2016-01-02,12:51 AM,36.0,25.6,17.1,46%,30.05,10.0,West,18.4,,N/A,,Scattered Clouds
25,2016-01-02,1:51 AM,36.0,25.0,17.1,46%,30.05,10.0,West,20.7,27.6,N/A,,Partly Cloudy
26,2016-01-02,2:51 AM,36.0,26.0,18.0,48%,30.06,10.0,West,17.3,26.5,N/A,,Mostly Cloudy
27,2016-01-02,3:51 AM,35.1,26.9,18.0,50%,30.04,10.0,WNW,11.5,,N/A,,Mostly Cloudy
28,2016-01-02,4:51 AM,35.1,27.9,18.0,50%,30.05,10.0,West,9.2,,N/A,,Scattered Clouds
29,2016-01-02,5:51 AM,35.1,27.4,19.0,52%,30.07,10.0,West,10.4,,N/A,,Partly Cloudy
30,2016-01-02,6:51 AM,35.1,26.9,18.0,50%,30.08,10.0,West,11.5,,N/A,,Scattered Clouds
31,2016-01-02,7:51 AM,35.1,26.9,18.0,50%,30.10,10.0,West,11.5,,N/A,,Mostly Cloudy
32,2016-01-02,8:51 AM,36.0,28.5,17.1,46%,30.11,10.0,West,10.4,,N/A,,Mostly Cloudy
33,2016-01-02,9:51 AM,37.0,29.3,18.0,46%,30.12,10.0,West,11.5,,N/A,,Mostly Cloudy
34,2016-01-02,10:51 AM,37.9,30.5,17.1,43%,30.09,10.0,WNW,11.5,19.6,N/A,,Mostly Cloudy
35,2016-01-02,11:51 AM,39.9,32.1,19.0,43%,30.07,10.0,West,13.8,21.9,N/A,,Scattered Clouds
36,2016-01-02,12:51 PM,39.9,32.1,19.0,43%,30.03,10.0,WNW,13.8,,N/A,,Scattered Clouds
37,2016-01-02,1:51 PM,39.9,31.4,19.0,43%,30.01,10.0,West,16.1,,N/A,,Mostly Cloudy
38,2016-01-02,2:51 PM,41.0,33.1,19.9,43%,30.00,10.0,West,15.0,,N/A,,Mostly Cloudy
39,2016-01-02,3:51 PM,41.0,32.2,19.9,43%,30.01,10.0,West,18.4,,N/A,,Scattered Clouds
40,2016-01-02,4:51 PM,41.0,33.5,19.9,43%,30.01,10.0,West,13.8,19.6,N/A,,Mostly Cloudy
41,2016-01-02,5:51 PM,39.0,31.0,19.0,45%,30.02,10.0,WNW,13.8,20.7,N/A,,Mostly Cloudy
42,2016-01-02,6:51 PM,37.0,29.3,18.0,46%,30.03,10.0,NW,11.5,,N/A,,Partly Cloudy
43,2016-01-02,7:51 PM,37.0,32.4,18.0,46%,30.03,10.0,West,5.8,,N/A,,Partly Cloudy
44,2016-01-02,8:51 PM,37.0,29.8,19.0,48%,30.02,10.0,WNW,10.4,,N/A,,Clear
45,2016-01-02,9:51 PM,36.0,29.0,19.9,52%,30.01,10.0,West,9.2,,N/A,,Clear
46,2016-01-02,10:51 PM,36.0,28.0,19.9,52%,29.99,10.0,WSW,11.5,,N/A,,Clear
47,2016-01-02,11:51 PM,36.0,27.5,21.9,57%,29.98,10.0,WSW,12.7,,N/A,,Clear
48,2016-01-03,12:51 AM,36.0,27.5,21.9,57%,29.96,10.0,WSW,12.7,,N/A,,Clear
49,2016-01-03,1:51 AM,36.0,28.0,24.1,62%,29.96,10.0,WSW,11.5,,N/A,,Clear
50,2016-01-03,2:51 AM,36.0,28.0,25.0,64%,29.92,10.0,SW,11.5,,N/A,,Clear
51,2016-01-03,3:51 AM,37.0,28.9,24.1,59%,29.89,10.0,SW,12.7,,N/A,,Clear
52,2016-01-03,4:51 AM,37.0,28.1,25.0,62%,29.88,10.0,SW,15.0,,N/A,,Partly Cloudy
53,2016-01-03,5:51 AM,37.0,29.3,26.1,65%,29.87,10.0,SW,11.5,,N/A,,Clear
54,2016-01-03,6:51 AM,37.9,29.2,26.1,62%,29.88,10.0,SW,15.0,,N/A,,Clear
55,2016-01-03,7:51 AM,39.9,32.5,27.0,60%,29.87,10.0,WSW,12.7,,N/A,,Clear
56,2016-01-03,8:51 AM,42.1,34.2,23.0,47%,29.88,10.0,WSW,16.1,,N/A,,Clear
57,2016-01-03,9:51 AM,45.0,37.6,23.0,42%,29.88,10.0,WSW,17.3,,N/A,,Partly Cloudy
58,2016-01-03,10:51 AM,46.9,,23.0,39%,29.86,10.0,WSW,17.3,,N/A,,Partly Cloudy
59,2016-01-03,11:51 AM,48.0,,21.0,34%,29.83,10.0,WSW,20.7,27.6,N/A,,Scattered Clouds
60,2016-01-03,12:51 PM,48.0,,21.9,36%,29.80,10.0,WNW,18.4,23.0,N/A,,Scattered Clouds
61,2016-01-03,1:51 PM,46.9,,21.0,36%,29.82,10.0,West,17.3,,N/A,,Scattered Clouds
62,2016-01-03,2:51 PM,45.0,37.6,21.9,40%,29.82,10.0,WNW,17.3,23.0,N/A,,Scattered Clouds
63,2016-01-03,3:51 PM,44.1,36.2,21.9,42%,29.83,10.0,WNW,18.4,,N/A,,Scattered Clouds
64,2016-01-03,4:51 PM,42.1,35.7,21.9,45%,29.86,10.0,WNW,11.5,,N/A,,Mostly Cloudy
65,2016-01-03,5:51 PM,43.0,35.4,21.9,43%,29.87,10.0,West,16.1,23.0,N/A,,Mostly Cloudy
66,2016-01-03,6:51 PM,42.1,34.9,21.0,43%,29.90,10.0,West,13.8,20.7,N/A,,Scattered Clouds
67,2016-01-03,7:51 PM,41.0,34.3,21.9,47%,29.90,10.0,West,11.5,,N/A,,Partly Cloudy
68,2016-01-03,8:51 PM,39.0,32.3,23.0,53%,29.89,10.0,West,10.4,,N/A,,Partly Cloudy
69,2016-01-03,9:51 PM,39.0,32.3,24.1,55%,29.90,10.0,West,10.4,,N/A,,Partly Cloudy
70,2016-01-03,10:51 PM,37.9,31.5,24.1,57%,29.91,10.0,West,9.2,,N/A,,Partly Cloudy
71,2016-01-03,11:51 PM,37.9,30.9,24.1,57%,29.91,10.0,West,10.4,,N/A,,Scattered Clouds
72,2016-01-04,12:51 AM,37.9,31.5,25.0,60%,29.89,10.0,WNW,9.2,,N/A,,Mostly Cloudy
73,2016-01-04,1:51 AM,37.9,29.6,23.0,55%,29.90,10.0,NW,13.8,23.0,N/A,,Mostly Cloudy
74,2016-01-04,2:51 AM,37.0,26.7,19.0,48%,29.90,10.0,NNW,19.6,,N/A,,Mostly Cloudy
75,2016-01-04,3:51 AM,35.1,23.5,17.1,48%,29.89,10.0,NNW,21.9,26.5,N/A,,Mostly Cloudy
76,2016-01-04,4:51 AM,34.0,22.4,14.0,44%,29.90,10.0,NNW,20.7,25.3,N/A,,Mostly Cloudy
77,2016-01-04,5:51 AM,33.1,22.2,16.0,50%,29.94,10.0,NNW,17.3,,N/A,,Scattered Clouds
78,2016-01-04,6:51 AM,32.0,21.6,16.0,52%,29.97,10.0,NNW,15.0,,N/A,,Scattered Clouds
79,2016-01-04,7:51 AM,30.9,19.4,16.0,54%,29.98,10.0,NNW,17.3,,N/A,,Scattered Clouds
80,2016-01-04,8:51 AM,30.9,18.7,15.1,52%,30.01,10.0,NNW,19.6,,N/A,,Mostly Cloudy
81,2016-01-04,9:51 AM,30.9,18.7,15.1,52%,30.04,10.0,North,19.6,,N/A,,Mostly Cloudy
82,2016-01-04,10:51 AM,33.1,21.9,12.9,43%,30.04,10.0,NNW,18.4,25.3,N/A,,Scattered Clouds
83,2016-01-04,11:51 AM,33.1,22.6,10.0,38%,30.02,10.0,NW,16.1,23.0,N/A,,Partly Cloudy
84,2016-01-04,12:51 PM,33.1,21.9,7.0,34%,30.01,10.0,NW,18.4,24.2,N/A,,Partly Cloudy
85,2016-01-04,1:51 PM,32.0,21.2,3.9,31%,30.02,10.0,NW,16.1,27.6,N/A,,Partly Cloudy
86,2016-01-04,2:51 PM,30.9,18.7,6.1,35%,30.05,10.0,North,19.6,,N/A,,Partly Cloudy
87,2016-01-04,3:51 PM,27.0,12.2,5.0,39%,30.09,10.0,North,24.2,31.1,N/A,,Partly Cloudy
88,2016-01-04,4:51 PM,24.1,8.7,3.0,40%,30.14,10.0,North,23.0,31.1,N/A,,Partly Cloudy
89,2016-01-04,5:51 PM,21.9,5.8,1.9,42%,30.19,10.0,North,23.0,31.1,N/A,,Partly Cloudy
90,2016-01-04,6:51 PM,19.9,3.2,0.9,40%,30.23,10.0,NNW,23.0,36.8,N/A,,Partly Cloudy
91,2016-01-04,7:51 PM,19.9,2.2,0.0,42%,30.27,10.0,North,26.5,39.1,N/A,,Mostly Cloudy
92,2016-01-04,8:51 PM,18.0,1.1,0.9,44%,30.29,10.0,North,28.8,36.8,N/A,,Scattered Clouds
93,2016-01-04,9:51 PM,16.0,0.4,0.0,49%,30.32,10.0,North,18.4,29.9,N/A,,Partly Cloudy
94,2016-01-05,2:51 AM,12.9,6.5,2.0,51%,30.45,10.0,North,24.2,33.4,N/A,,Partly Cloudy
95,2016-01-05,3:51 AM,12.9,5.3,0.9,54%,30.47,10.0,NNW,20.7,29.9,N/A,,Clear
96,2016-01-05,4:51 AM,12.0,6.0,2.9,51%,30.48,10.0,North,19.6,27.6,N/A,,Clear
97,2016-01-05,5:51 AM,12.9,6.1,4.0,47%,30.52,10.0,North,23.0,29.9,N/A,,Clear
98,2016-01-05,6:51 AM,12.9,3.9,2.9,49%,30.54,10.0,North,17.3,25.3,N/A,,Partly Cloudy
99,2016-01-05,7:51 AM,14.0,1.4,2.9,47%,30.55,10.0,North,15.0,,N/A,,Partly Cloudy
100,2016-01-05,8:51 AM,16.0,0.4,4.0,41%,30.60,10.0,North,18.4,25.3,N/A,,Partly Cloudy
101,2016-01-05,9:51 AM,19.0,5.0,2.9,38%,30.61,10.0,North,15.0,,N/A,,Partly Cloudy
102,2016-01-05,10:51 AM,21.9,9.2,2.9,34%,30.62,10.0,NNW,13.8,21.9,N/A,,Partly Cloudy
103,2016-01-05,11:51 AM,25.0,14.8,4.0,28%,30.61,10.0,North,10.4,17.3,N/A,,Partly Cloudy
104,2016-01-05,12:51 PM,27.0,16.7,4.0,26%,30.59,10.0,NNW,11.5,,N/A,,Clear
105,2016-01-05,1:51 PM,28.0,18.6,6.0,23%,30.58,10.0,NNW,10.4,,N/A,,Clear
106,2016-01-05,2:51 PM,28.9,19.8,7.1,21%,30.59,10.0,North,10.4,,N/A,,Clear
107,2016-01-05,3:51 PM,28.9,19.8,7.1,21%,30.61,10.0,North,10.4,,N/A,,Clear
108,2016-01-05,4:51 PM,26.1,17.6,2.9,28%,30.62,10.0,North,8.1,,N/A,,Clear
109,2016-01-05,5:51 PM,26.1,18.4,2.9,28%,30.63,10.0,North,6.9,,N/A,,Clear
110,2016-01-05,6:51 PM,25.0,19.3,0.9,33%,30.64,10.0,North,4.6,,N/A,,Clear
111,2016-01-05,7:51 PM,26.1,20.5,1.0,34%,30.64,10.0,North,4.6,,N/A,,Clear
112,2016-01-05,8:51 PM,27.0,,1.9,34%,30.64,10.0,Calm,Calm,,N/A,,Clear
113,2016-01-05,9:51 PM,26.1,21.9,3.9,39%,30.63,10.0,NNE,3.5,,N/A,,Clear
114,2016-01-05,10:51 PM,25.0,,3.9,41%,30.63,10.0,Calm,Calm,,N/A,,Clear
115,2016-01-05,11:51 PM,21.9,,10.0,60%,30.61,10.0,Calm,Calm,,N/A,,Clear
116,2016-01-06,12:51 AM,21.9,,10.9,63%,30.60,10.0,Calm,Calm,,N/A,,Clear
117,2016-01-06,1:51 AM,25.0,,12.0,58%,30.61,10.0,Calm,Calm,,N/A,,Clear
118,2016-01-06,2:51 AM,26.1,19.4,10.0,51%,30.60,10.0,West,5.8,,N/A,,Clear
119,2016-01-06,3:51 AM,25.0,18.1,8.1,49%,30.59,10.0,WSW,5.8,,N/A,,Clear
120,2016-01-06,4:51 AM,24.1,,9.0,53%,30.58,10.0,Calm,Calm,,N/A,,Clear
121,2016-01-06,5:51 AM,25.0,19.3,9.0,51%,30.59,10.0,West,4.6,,N/A,,Clear
122,2016-01-06,6:51 AM,26.1,17.6,10.9,53%,30.60,10.0,WSW,8.1,,N/A,,Clear
123,2016-01-06,7:51 AM,26.1,18.4,15.1,63%,30.61,10.0,WSW,6.9,,N/A,,Partly Cloudy
124,2016-01-06,8:51 AM,30.9,22.2,14.0,50%,30.61,10.0,WSW,10.4,,N/A,,Partly Cloudy
125,2016-01-06,9:51 AM,33.1,23.9,10.9,40%,30.61,10.0,WSW,12.7,,N/A,,Partly Cloudy
126,2016-01-06,10:51 AM,35.1,27.4,9.0,34%,30.60,10.0,SW,10.4,,N/A,,Partly Cloudy
127,2016-01-06,11:51 AM,37.0,31.0,7.0,29%,30.55,10.0,WSW,8.1,,N/A,,Partly Cloudy
128,2016-01-06,12:51 PM,37.9,33.5,5.0,25%,30.51,10.0,SW,5.8,,N/A,,Partly Cloudy
129,2016-01-06,1:51 PM,37.9,32.1,6.1,27%,30.48,10.0,SSW,8.1,,N/A,,Partly Cloudy
130,2016-01-06,2:51 PM,39.0,32.8,9.0,29%,30.48,10.0,SSW,9.2,,N/A,,Partly Cloudy
131,2016-01-06,3:51 PM,37.9,30.9,14.0,38%,30.47,10.0,South,10.4,,N/A,,Partly Cloudy
132,2016-01-06,4:51 PM,35.1,29.3,17.1,48%,30.46,10.0,SSW,6.9,,N/A,,Partly Cloudy
133,2016-01-06,5:51 PM,35.1,28.6,16.0,46%,30.46,10.0,SW,8.1,,N/A,,Partly Cloudy
134,2016-01-06,6:51 PM,37.0,29.8,12.0,36%,30.46,10.0,WSW,10.4,,N/A,,Clear
135,2016-01-06,7:51 PM,36.0,28.0,14.0,41%,30.46,10.0,SW,11.5,,N/A,,Clear
136,2016-01-06,8:51 PM,35.1,27.4,14.0,42%,30.46,10.0,SW,10.4,,N/A,,Clear
137,2016-01-06,9:51 PM,35.1,28.6,15.1,44%,30.45,10.0,WSW,8.1,,N/A,,Clear
138,2016-01-06,10:51 PM,33.1,26.1,19.0,56%,30.44,10.0,WSW,8.1,,N/A,,Clear
139,2016-01-06,11:51 PM,34.0,25.5,14.0,44%,30.43,10.0,West,11.5,,N/A,,Clear
140,2016-01-07,12:51 AM,33.1,26.1,14.0,46%,30.40,10.0,West,8.1,,N/A,,Clear
141,2016-01-07,1:51 AM,32.0,27.5,12.9,45%,30.39,10.0,WSW,4.6,,N/A,,Clear
142,2016-01-07,2:51 AM,28.0,19.3,15.1,58%,30.39,10.0,WSW,9.2,,N/A,,Clear
143,2016-01-07,3:51 AM,32.0,24.2,14.0,48%,30.38,10.0,West,9.2,,N/A,,Clear
144,2016-01-07,4:51 AM,30.9,26.2,12.0,46%,30.37,10.0,WNW,4.6,,N/A,,Clear
145,2016-01-07,5:51 AM,32.0,,12.9,45%,30.37,10.0,Calm,Calm,,N/A,,Partly Cloudy
146,2016-01-07,6:51 AM,30.9,,12.9,47%,30.36,10.0,Calm,Calm,,N/A,,Mostly Cloudy
147,2016-01-07,7:51 AM,28.9,,12.9,51%,30.36,10.0,Calm,Calm,,N/A,,Mostly Cloudy
148,2016-01-07,8:51 AM,36.0,,16.0,44%,30.35,10.0,Calm,Calm,,N/A,,Mostly Cloudy
149,2016-01-07,9:51 AM,39.0,,12.9,34%,30.36,10.0,Calm,Calm,,N/A,,Mostly Cloudy
150,2016-01-07,10:51 AM,42.1,40.2,10.0,27%,30.34,10.0,Variable,3.5,,N/A,,Mostly Cloudy
151,2016-01-07,11:51 AM,45.0,41.8,8.1,22%,30.30,10.0,SW,5.8,,N/A,,Mostly Cloudy
152,2016-01-07,12:19 PM,44.6,41.4,10.4,25%,30.28,10.0,WSW,5.8,,N/A,,Mostly Cloudy
153,2016-01-07,12:51 PM,45.0,41.8,10.9,25%,30.27,10.0,SW,5.8,,N/A,,Mostly Cloudy
154,2016-01-07,1:51 PM,44.1,39.5,9.0,24%,30.26,10.0,WSW,8.1,,N/A,,Mostly Cloudy
155,2016-01-07,2:51 PM,45.0,40.6,12.0,26%,30.25,10.0,SW,8.1,,N/A,,Mostly Cloudy
156,2016-01-07,3:51 PM,44.1,42.5,14.0,30%,30.25,10.0,SSW,3.5,,N/A,,Mostly Cloudy
157,2016-01-07,4:17 PM,44.6,,12.2,27%,30.24,10.0,Calm,Calm,,N/A,,Mostly Cloudy
158,2016-01-07,4:51 PM,45.0,,12.0,26%,30.25,10.0,Calm,Calm,,N/A,,Mostly Cloudy
159,2016-01-07,5:51 PM,43.0,,16.0,34%,30.26,10.0,Calm,Calm,,N/A,,Overcast
160,2016-01-07,6:48 PM,42.8,41.1,17.6,36%,30.25,10.0,South,3.5,,N/A,,Mostly Cloudy
161,2016-01-07,6:51 PM,42.1,40.2,17.1,37%,30.25,10.0,SSE,3.5,,N/A,,Mostly Cloudy
162,2016-01-07,7:51 PM,43.0,,16.0,34%,30.24,10.0,Calm,Calm,,N/A,,Scattered Clouds
163,2016-01-07,8:51 PM,42.1,,16.0,35%,30.23,10.0,Calm,Calm,,N/A,,Partly Cloudy
164,2016-01-07,9:51 PM,41.0,36.4,17.1,38%,30.22,10.0,NNE,6.9,,N/A,,Partly Cloudy
165,2016-01-07,10:51 PM,39.0,35.7,19.0,45%,30.21,10.0,North,4.6,,N/A,,Clear
166,2016-01-07,11:51 PM,37.0,32.4,19.9,50%,30.20,10.0,NNE,5.8,,N/A,,Clear
167,2016-01-08,12:51 AM,35.1,30.1,21.0,57%,30.19,10.0,NNE,5.8,,N/A,,Clear
168,2016-01-08,1:51 AM,34.0,28.0,23.0,64%,30.18,10.0,NNE,6.9,,N/A,,Partly Cloudy
169,2016-01-08,2:51 AM,34.0,28.0,23.0,64%,30.19,10.0,NNE,6.9,,N/A,,Mostly Cloudy
170,2016-01-08,3:51 AM,35.1,31.0,23.0,61%,30.21,10.0,North,4.6,,N/A,,Mostly Cloudy
171,2016-01-08,4:51 AM,34.0,27.2,23.0,64%,30.19,10.0,NNE,8.1,,N/A,,Scattered Clouds
172,2016-01-08,5:51 AM,33.1,24.9,21.0,61%,30.20,10.0,NNE,10.4,,N/A,,Partly Cloudy
173,2016-01-08,6:51 AM,33.1,26.1,21.0,61%,30.22,10.0,North,8.1,,N/A,,Scattered Clouds
174,2016-01-08,7:51 AM,34.0,27.2,23.0,64%,30.22,10.0,NNE,8.1,,N/A,,Scattered Clouds
175,2016-01-08,8:51 AM,37.9,30.9,27.0,65%,30.23,10.0,NNE,10.4,,N/A,,Scattered Clouds
176,2016-01-08,9:51 AM,41.0,34.3,30.0,65%,30.25,10.0,ENE,11.5,,N/A,,Mostly Cloudy
177,2016-01-08,10:51 AM,44.1,39.0,30.9,60%,30.24,10.0,NE,9.2,,N/A,,Mostly Cloudy
178,2016-01-08,11:19 AM,44.6,39.7,30.2,57%,30.23,10.0,NE,9.2,,N/A,,Mostly Cloudy
179,2016-01-08,11:51 AM,45.0,38.9,32.0,60%,30.22,10.0,NE,12.7,17.3,N/A,,Mostly Cloudy
180,2016-01-08,12:51 PM,46.0,41.4,32.0,58%,30.21,10.0,ENE,9.2,,N/A,,Mostly Cloudy
181,2016-01-08,1:51 PM,46.0,40.6,32.0,58%,30.18,10.0,NE,11.5,,N/A,,Overcast
182,2016-01-08,2:39 PM,44.6,39.2,32.0,61%,30.18,10.0,NNE,10.4,,N/A,,Mostly Cloudy
183,2016-01-08,2:51 PM,45.0,39.3,32.0,60%,30.18,10.0,NNE,11.5,,N/A,,Mostly Cloudy
184,2016-01-08,3:47 PM,44.6,40.7,33.8,66%,30.18,10.0,NE,6.9,,N/A,,Overcast
185,2016-01-08,3:51 PM,44.1,39.5,33.1,65%,30.18,10.0,NNE,8.1,,N/A,,Overcast
186,2016-01-08,4:51 PM,43.0,38.8,33.1,68%,30.18,10.0,NE,6.9,,N/A,,Overcast
187,2016-01-08,5:51 PM,45.0,39.3,33.1,63%,30.19,10.0,NE,11.5,,N/A,,Overcast
188,2016-01-08,6:51 PM,44.1,39.0,32.0,63%,30.21,10.0,ENE,9.2,,N/A,,Overcast
189,2016-01-08,7:51 PM,44.1,40.1,32.0,63%,30.22,10.0,NE,6.9,,N/A,,Overcast
190,2016-01-08,8:04 PM,44.6,40.7,32.0,61%,30.23,10.0,ENE,6.9,,N/A,,Overcast
191,2016-01-08,8:51 PM,44.1,39.5,32.0,63%,30.22,10.0,ENE,8.1,,N/A,,Overcast
192,2016-01-08,9:48 PM,44.6,38.8,33.8,66%,30.20,10.0,NE,11.5,,N/A,,Overcast
193,2016-01-08,9:51 PM,44.1,38.6,33.1,65%,30.21,10.0,NE,10.4,,N/A,,Overcast
194,2016-01-08,10:51 PM,43.0,38.2,33.1,68%,30.23,10.0,NNE,8.1,,N/A,,Overcast
195,2016-01-08,11:51 PM,42.1,35.7,34.0,73%,30.19,10.0,NE,11.5,,N/A,,Mostly Cloudy
196,2016-01-09,12:51 AM,42.1,34.9,34.0,73%,30.18,10.0,NE,13.8,,N/A,,Mostly Cloudy
197,2016-01-09,1:51 AM,42.1,36.6,34.0,73%,30.19,10.0,NNE,9.2,,N/A,,Mostly Cloudy
198,2016-01-09,2:51 AM,41.0,34.7,34.0,76%,30.18,10.0,NE,10.4,,N/A,,Mostly Cloudy
199,2016-01-09,3:51 AM,41.0,35.8,34.0,76%,30.18,10.0,NNE,8.1,,N/A,,Overcast
200,2016-01-09,4:51 AM,42.1,37.1,35.1,76%,30.18,10.0,NE,8.1,,N/A,,Overcast
201,2016-01-09,5:51 AM,41.0,35.2,35.1,79%,30.17,10.0,NE,9.2,,N/A,,Overcast
202,2016-01-09,6:51 AM,41.0,35.2,35.1,79%,30.18,10.0,NNE,9.2,,N/A,,Mostly Cloudy
203,2016-01-09,7:51 AM,41.0,36.4,36.0,82%,30.18,10.0,NE,6.9,,N/A,,Mostly Cloudy
204,2016-01-09,8:36 AM,42.8,37.5,37.4,81%,30.19,10.0,ENE,9.2,,N/A,,Mostly Cloudy
205,2016-01-09,8:51 AM,43.0,36.4,37.9,82%,30.19,10.0,ENE,12.7,,N/A,,Mostly Cloudy
206,2016-01-09,9:08 AM,44.6,38.1,37.4,76%,30.20,10.0,ENE,13.8,,N/A,,Mostly Cloudy
207,2016-01-09,9:51 AM,46.0,41.0,39.0,76%,30.22,10.0,ENE,10.4,,N/A,,Mostly Cloudy
208,2016-01-09,10:32 AM,48.2,,39.2,71%,30.21,10.0,ENE,10.4,,N/A,,Mostly Cloudy
209,2016-01-09,10:51 AM,50.0,,41.0,71%,30.20,10.0,East,10.4,,N/A,,Mostly Cloudy
210,2016-01-09,11:51 AM,50.0,,42.1,74%,30.18,10.0,East,12.7,,N/A,,Overcast
211,2016-01-09,12:51 PM,52.0,,42.1,69%,30.16,10.0,East,13.8,,0.01,,Mostly Cloudy
212,2016-01-09,1:51 PM,53.1,,42.1,66%,30.13,10.0,East,11.5,,N/A,,Mostly Cloudy
213,2016-01-09,2:51 PM,50.0,,42.1,74%,30.13,10.0,East,13.8,,N/A,,Overcast
214,2016-01-09,3:51 PM,48.9,,42.1,77%,30.14,10.0,East,9.2,,N/A,,Overcast
215,2016-01-09,4:43 PM,48.2,,42.8,82%,30.15,10.0,East,15.0,,N/A,,Overcast
216,2016-01-09,4:51 PM,48.0,,43.0,83%,30.15,10.0,East,15.0,20.7,N/A,,Overcast
217,2016-01-09,5:43 PM,48.2,,42.8,82%,30.15,10.0,East,13.8,,N/A,,Overcast
218,2016-01-09,5:51 PM,48.0,,43.0,83%,30.15,10.0,East,13.8,,N/A,,Overcast
219,2016-01-09,6:04 PM,48.2,,42.8,82%,30.15,10.0,East,12.7,,N/A,,Overcast
220,2016-01-09,6:51 PM,48.0,,43.0,83%,30.15,10.0,East,11.5,,N/A,,Overcast
221,2016-01-09,7:07 PM,48.2,,42.8,82%,30.15,10.0,East,11.5,,N/A,,Overcast
222,2016-01-09,7:51 PM,48.0,,43.0,83%,30.15,10.0,East,9.2,,N/A,,Overcast
223,2016-01-09,8:51 PM,48.9,,44.1,83%,30.14,10.0,East,13.8,,N/A,,Overcast
224,2016-01-09,9:25 PM,48.2,,44.6,87%,30.12,10.0,East,16.1,,N/A,,Overcast
225,2016-01-09,9:51 PM,48.9,,45.0,86%,30.11,10.0,ENE,15.0,,N/A,,Overcast
226,2016-01-09,10:51 PM,48.9,,46.0,90%,30.08,8.0,East,15.0,23.0,0.00,,Light Drizzle
227,2016-01-09,11:51 PM,50.0,,46.0,86%,30.06,9.0,East,19.6,,0.01,,Light Drizzle
228,2016-01-10,12:51 AM,48.9,,45.0,86%,30.01,10.0,East,18.4,,0.00,Ra,Light Ra
229,2016-01-10,1:51 AM,48.9,,46.0,90%,29.96,9.0,East,20.7,27.6,0.00,,Overcast
230,2016-01-10,2:51 AM,50.0,,46.0,86%,29.92,10.0,ENE,20.7,25.3,N/A,,Overcast
231,2016-01-10,3:51 AM,50.0,,48.0,93%,29.87,7.0,East,18.4,28.8,0.05,Ra,Ra
232,2016-01-10,4:51 AM,51.1,,48.0,89%,29.82,6.0,ENE,20.7,32.2,0.25,Ra,Heavy Ra
233,2016-01-10,5:51 AM,52.0,,50.0,93%,29.76,6.0,ENE,19.6,33.4,0.31,Ra,Ra
234,2016-01-10,6:33 AM,53.6,,50.0,88%,29.70,5.0,East,23.0,39.1,0.13,Ra,Heavy Ra
235,2016-01-10,6:51 AM,54.0,,51.1,90%,29.69,5.0,East,29.9,41.4,0.18,Ra,Ra
236,2016-01-10,7:30 AM,53.6,,51.8,94%,29.63,4.0,East,31.1,43.7,0.17,Ra,Ra
237,2016-01-10,7:51 AM,53.1,,51.1,93%,29.61,5.0,East,24.2,35.7,0.23,Ra,Heavy Ra
238,2016-01-10,8:51 AM,55.9,,54.0,93%,29.58,5.0,SE,23.0,32.2,0.13,Ra,Light Ra
239,2016-01-10,9:51 AM,57.0,,55.0,93%,29.56,5.0,SSE,25.3,33.4,0.01,,Overcast
240,2016-01-10,10:51 AM,57.0,,54.0,89%,29.52,6.0,South,17.3,26.5,0.01,,Overcast
241,2016-01-10,11:51 AM,55.9,,53.1,90%,29.46,0.8,South,13.8,,N/A,,Overcast
242,2016-01-10,12:49 PM,57.2,,53.6,88%,29.41,0.1,South,20.7,25.3,0.05,,Overcast
243,2016-01-10,12:51 PM,57.0,,54.0,89%,29.41,0.1,South,19.6,,0.05,,Overcast
244,2016-01-10,1:51 PM,55.9,,54.0,93%,29.36,0.2,South,20.7,,N/A,Fog,Fog
245,2016-01-10,2:31 PM,55.4,,53.6,94%,29.34,0.1,South,21.9,,N/A,Fog,Fog
246,2016-01-10,2:51 PM,55.0,,53.1,93%,29.32,0.1,South,23.0,29.9,N/A,Fog,Fog
247,2016-01-10,3:51 PM,53.1,,52.0,96%,29.31,0.1,South,24.2,,N/A,Fog,Fog
248,2016-01-10,4:26 PM,51.8,,50.0,94%,29.34,0.1,South,23.0,33.4,0.00,"Fog
	,
Ra",Ra
249,2016-01-10,4:51 PM,52.0,,50.0,93%,29.35,4.0,SSW,16.1,27.6,0.05,Ra,Ra
250,2016-01-10,5:11 PM,51.8,,48.2,88%,29.36,10.0,SSW,13.8,,0.01,,Mostly Cloudy
251,2016-01-10,5:51 PM,54.0,,45.0,72%,29.37,10.0,SW,13.8,,0.01,Ra,Light Ra
252,2016-01-10,6:51 PM,50.0,,45.0,83%,29.39,10.0,WSW,9.2,,0.00,,Scattered Clouds
253,2016-01-10,7:51 PM,53.1,,41.0,64%,29.43,10.0,WSW,23.0,29.9,0.00,,Mostly Cloudy
254,2016-01-10,8:51 PM,48.0,,32.0,54%,29.49,10.0,West,26.5,38.0,N/A,,Scattered Clouds
255,2016-01-10,9:51 PM,45.0,35.8,28.9,53%,29.54,10.0,West,26.5,33.4,N/A,,Scattered Clouds
256,2016-01-10,10:51 PM,42.1,32.6,25.0,51%,29.59,10.0,West,23.0,33.4,N/A,,Partly Cloudy
257,2016-01-10,11:51 PM,41.0,30.5,24.1,51%,29.62,10.0,West,26.5,34.5,N/A,,Mostly Cloudy
258,2016-01-11,12:51 AM,39.9,28.4,19.9,45%,29.65,10.0,West,29.9,36.8,N/A,,Scattered Clouds
259,2016-01-11,1:51 AM,39.9,29.5,19.0,43%,29.68,10.0,West,24.2,32.2,N/A,,Mostly Cloudy
260,2016-01-11,2:51 AM,37.9,26.1,19.0,47%,29.72,10.0,West,27.6,39.1,N/A,,Scattered Clouds
261,2016-01-11,3:51 AM,35.1,23.3,16.0,46%,29.75,10.0,West,23.0,33.4,N/A,,Partly Cloudy
262,2016-01-11,4:51 AM,34.0,21.5,12.9,42%,29.79,10.0,West,24.2,33.4,N/A,,Partly Cloudy
263,2016-01-11,5:51 AM,34.0,22.4,12.0,40%,29.83,10.0,West,20.7,25.3,N/A,,Partly Cloudy
264,2016-01-11,6:51 AM,33.1,20.9,12.9,43%,29.86,10.0,West,21.9,31.1,N/A,,Scattered Clouds
265,2016-01-11,7:51 AM,32.0,19.8,10.0,40%,29.88,10.0,West,20.7,31.1,N/A,,Partly Cloudy
266,2016-01-11,8:51 AM,32.0,19.8,9.0,38%,29.92,10.0,West,20.7,29.9,N/A,,Partly Cloudy
267,2016-01-11,9:51 AM,33.1,21.5,9.0,37%,29.95,10.0,West,19.6,29.9,N/A,,Partly Cloudy
268,2016-01-11,10:51 AM,33.1,20.1,10.0,38%,29.96,10.0,West,25.3,31.1,N/A,,Partly Cloudy
269,2016-01-11,11:51 AM,34.0,21.8,9.0,35%,29.95,10.0,West,23.0,26.5,N/A,,Partly Cloudy
270,2016-01-11,12:51 PM,35.1,24.1,9.0,34%,29.95,10.0,West,19.6,28.8,N/A,,Partly Cloudy
271,2016-01-11,1:51 PM,35.1,23.0,8.1,33%,29.94,10.0,West,24.2,28.8,N/A,,Partly Cloudy
272,2016-01-11,2:51 PM,35.1,24.8,6.1,30%,29.95,10.0,West,17.3,27.6,N/A,,Partly Cloudy
273,2016-01-11,3:51 PM,35.1,24.1,3.0,26%,29.98,10.0,WNW,19.6,25.3,N/A,,Partly Cloudy
274,2016-01-11,4:51 PM,34.0,23.8,3.0,27%,30.01,10.0,West,16.1,,N/A,,Scattered Clouds
275,2016-01-11,5:51 PM,32.0,20.5,3.0,29%,30.06,10.0,West,18.4,,N/A,,Scattered Clouds
276,2016-01-11,6:51 PM,30.9,19.8,0.0,27%,30.09,10.0,West,16.1,25.3,N/A,,Clear
277,2016-01-11,7:51 PM,30.0,18.7,1.0,29%,30.11,10.0,WNW,16.1,,N/A,,Clear
278,2016-01-11,8:51 PM,30.0,17.9,0.0,28%,30.12,10.0,WNW,18.4,,N/A,,Clear
279,2016-01-11,9:51 PM,28.9,19.2,1.0,30%,30.13,10.0,NW,11.5,,N/A,,Clear
280,2016-01-11,10:51 PM,28.0,19.3,1.9,33%,30.13,10.0,WNW,9.2,,N/A,,Clear
281,2016-01-11,11:51 PM,27.0,19.5,3.0,36%,30.12,10.0,NNW,6.9,,N/A,,Partly Cloudy
282,2016-01-12,12:51 AM,27.0,20.5,3.9,37%,30.12,10.0,WNW,5.8,,N/A,,Scattered Clouds
283,2016-01-12,1:51 AM,27.0,23.0,3.9,37%,30.12,10.0,WSW,3.5,,N/A,,Scattered Clouds
284,2016-01-12,2:51 AM,27.0,21.6,3.9,37%,30.13,10.0,West,4.6,,N/A,,Scattered Clouds
285,2016-01-12,3:51 AM,24.1,,7.0,48%,30.11,10.0,Calm,Calm,,N/A,,Scattered Clouds
286,2016-01-12,4:51 AM,24.1,,8.1,51%,30.11,10.0,Calm,Calm,,N/A,,Mostly Cloudy
287,2016-01-12,5:51 AM,25.0,20.7,10.0,53%,30.09,10.0,ENE,3.5,,N/A,,Mostly Cloudy
288,2016-01-12,6:51 AM,24.1,17.0,10.0,55%,30.06,10.0,East,5.8,,N/A,,Mostly Cloudy
289,2016-01-12,7:51 AM,25.0,16.3,10.9,55%,30.02,10.0,East,8.1,,N/A,,Mostly Cloudy
290,2016-01-12,8:51 AM,30.0,21.7,15.1,54%,30.00,10.0,East,9.2,,N/A,,Mostly Cloudy
291,2016-01-12,9:51 AM,37.0,28.9,19.9,50%,29.98,10.0,SSE,12.7,,N/A,,Mostly Cloudy
292,2016-01-12,10:51 AM,41.0,32.8,21.0,45%,29.94,10.0,South,16.1,,N/A,,Mostly Cloudy
293,2016-01-12,11:51 AM,42.1,32.8,21.9,45%,29.87,10.0,South,21.9,,N/A,,Overcast
294,2016-01-12,12:51 PM,43.0,33.3,21.9,43%,29.80,10.0,South,25.3,33.4,N/A,,Overcast
295,2016-01-12,1:51 PM,45.0,36.2,24.1,44%,29.73,10.0,South,24.2,31.1,N/A,,Overcast
296,2016-01-12,2:51 PM,45.0,36.0,21.9,40%,29.70,10.0,SSW,25.3,31.1,N/A,,Overcast
297,2016-01-12,3:51 PM,45.0,36.9,23.0,42%,29.68,10.0,SSW,20.7,29.9,N/A,,Overcast
298,2016-01-12,4:51 PM,39.9,30.8,28.0,63%,29.70,10.0,West,18.4,28.8,0.00,Ra,Light Ra
299,2016-01-12,5:51 PM,37.9,29.6,30.0,73%,29.69,10.0,SW,13.8,,0.00,,Mostly Cloudy
300,2016-01-12,6:51 PM,37.0,31.0,28.9,73%,29.68,10.0,SW,8.1,,N/A,,Mostly Cloudy
301,2016-01-12,7:51 PM,36.0,29.6,28.9,76%,29.66,10.0,SW,8.1,,N/A,,Scattered Clouds
302,2016-01-12,8:51 PM,41.0,31.4,28.0,60%,29.67,10.0,SW,21.9,36.8,N/A,,Mostly Cloudy
303,2016-01-12,9:51 PM,36.0,23.7,25.0,64%,29.70,10.0,West,26.5,42.6,0.00,,Mostly Cloudy
304,2016-01-12,10:51 PM,34.0,22.7,19.9,56%,29.70,10.0,West,19.6,34.5,N/A,,Mostly Cloudy
305,2016-01-12,11:51 PM,30.9,16.4,10.0,42%,29.73,10.0,West,28.8,41.4,0.00,,Scattered Clouds
306,2016-01-13,12:51 AM,28.9,13.5,6.1,38%,29.77,10.0,West,29.9,36.8,N/A,,Partly Cloudy
307,2016-01-13,1:51 AM,28.0,13.3,6.1,39%,29.81,10.0,West,25.3,33.4,N/A,,Clear
308,2016-01-13,2:51 AM,26.1,11.3,6.1,43%,29.85,10.0,West,23.0,31.1,N/A,,Clear
309,2016-01-13,3:51 AM,26.1,10.4,7.0,44%,29.87,10.0,West,26.5,32.2,N/A,,Clear
310,2016-01-13,4:51 AM,25.0,10.2,8.1,49%,29.91,10.0,West,21.9,35.7,N/A,,Clear
311,2016-01-13,5:51 AM,24.1,8.0,8.1,51%,29.94,10.0,West,25.3,31.1,N/A,,Clear
312,2016-01-13,6:51 AM,24.1,9.8,7.0,48%,29.97,10.0,West,19.6,32.2,N/A,,Partly Cloudy
313,2016-01-13,7:51 AM,24.1,9.4,8.1,51%,29.99,10.0,West,20.7,31.1,N/A,,Partly Cloudy
314,2016-01-13,8:51 AM,25.0,8.6,7.0,46%,30.02,10.0,West,27.6,35.7,N/A,,Partly Cloudy
315,2016-01-13,9:51 AM,26.1,11.6,6.1,43%,30.02,10.0,West,21.9,33.4,N/A,,Partly Cloudy
316,2016-01-13,10:51 AM,28.0,13.3,5.0,38%,30.02,10.0,West,25.3,35.7,N/A,,Partly Cloudy
317,2016-01-13,11:51 AM,28.9,14.3,1.9,32%,30.00,10.0,West,26.5,36.8,N/A,,Partly Cloudy
318,2016-01-13,12:51 PM,30.0,17.5,3.0,32%,29.98,10.0,West,19.6,29.9,N/A,,Partly Cloudy
319,2016-01-13,1:51 PM,30.9,18.7,1.9,29%,29.96,10.0,WNW,19.6,31.1,N/A,,Partly Cloudy
320,2016-01-13,2:51 PM,30.9,20.7,3.9,32%,29.98,10.0,WNW,13.8,25.3,N/A,,Scattered Clouds
321,2016-01-13,3:51 PM,30.0,17.5,3.0,32%,29.98,10.0,West,19.6,,N/A,,Scattered Clouds
322,2016-01-13,4:51 PM,28.0,16.5,5.0,38%,29.99,10.0,West,15.0,,N/A,,Scattered Clouds
323,2016-01-13,5:51 PM,28.0,16.1,5.0,38%,30.01,10.0,West,16.1,,N/A,,Mostly Cloudy
324,2016-01-13,6:51 PM,27.0,13.5,5.0,39%,30.04,10.0,West,19.6,,N/A,,Mostly Cloudy
325,2016-01-13,7:51 PM,26.1,13.1,3.9,39%,30.04,10.0,WNW,17.3,24.2,N/A,,Overcast
326,2016-01-13,8:51 PM,26.1,13.6,3.0,37%,30.04,10.0,West,16.1,20.7,N/A,,Overcast
327,2016-01-13,9:51 PM,25.0,10.6,5.0,43%,30.03,10.0,West,20.7,26.5,N/A,,Mostly Cloudy
328,2016-01-13,10:51 PM,25.0,13.1,5.0,43%,30.03,10.0,West,13.8,23.0,N/A,,Mostly Cloudy
329,2016-01-13,11:51 PM,25.0,11.7,3.9,41%,30.02,10.0,West,17.3,21.9,N/A,,Overcast
330,2016-01-14,12:51 AM,25.0,13.1,3.0,39%,30.00,10.0,West,13.8,24.2,N/A,,Overcast
331,2016-01-14,1:51 AM,24.1,12.5,1.0,37%,29.99,10.0,West,12.7,,N/A,,Mostly Cloudy
332,2016-01-14,2:51 AM,24.1,12.5,1.9,38%,29.99,10.0,West,12.7,,N/A,,Overcast
333,2016-01-14,3:51 AM,24.1,13.1,5.0,44%,29.98,10.0,West,11.5,20.7,N/A,,Overcast
334,2016-01-14,4:51 AM,25.0,13.1,3.9,41%,29.97,10.0,West,13.8,,N/A,,Overcast
335,2016-01-14,5:51 AM,25.0,13.6,9.0,51%,29.97,9.0,WSW,12.7,,0.00,Snow,Light Snow
336,2016-01-14,6:51 AM,26.1,15.0,12.0,55%,29.98,10.0,WSW,12.7,,0.00,,Mostly Cloudy
337,2016-01-14,7:51 AM,26.1,16.2,10.9,53%,29.98,10.0,West,10.4,,N/A,,Mostly Cloudy
338,2016-01-14,8:51 AM,28.0,19.3,10.0,47%,29.98,10.0,WSW,9.2,,N/A,,Mostly Cloudy
339,2016-01-14,9:51 AM,30.0,20.5,9.0,41%,29.98,10.0,WSW,11.5,,N/A,,Mostly Cloudy
340,2016-01-14,10:51 AM,32.0,21.6,9.0,38%,29.97,10.0,WSW,15.0,,N/A,,Mostly Cloudy
341,2016-01-14,11:51 AM,33.1,23.0,12.0,42%,29.95,10.0,WSW,15.0,,N/A,,Mostly Cloudy
342,2016-01-14,12:51 PM,35.1,24.8,12.9,40%,29.93,10.0,West,17.3,,N/A,,Mostly Cloudy
343,2016-01-14,1:51 PM,37.0,28.1,15.1,41%,29.91,10.0,West,15.0,,N/A,,Mostly Cloudy
344,2016-01-14,2:51 PM,37.9,29.6,17.1,43%,29.93,10.0,WSW,13.8,,N/A,,Mostly Cloudy
345,2016-01-14,3:51 PM,37.9,30.0,17.1,43%,29.94,10.0,West,12.7,,N/A,,Overcast
346,2016-01-14,4:51 PM,39.0,31.0,19.9,46%,29.98,10.0,West,13.8,,N/A,,Overcast
347,2016-01-14,5:51 PM,39.0,34.0,19.9,46%,29.98,10.0,NW,6.9,,N/A,,Overcast
348,2016-01-14,6:51 PM,37.9,,21.9,53%,29.99,10.0,Calm,Calm,,N/A,,Overcast
349,2016-01-14,7:51 PM,37.9,,21.9,53%,29.98,10.0,Calm,Calm,,N/A,,Mostly Cloudy
350,2016-01-14,8:51 PM,37.0,33.3,21.0,52%,29.99,10.0,East,4.6,,N/A,,Scattered Clouds
351,2016-01-14,9:51 PM,36.0,31.1,21.9,57%,30.00,10.0,ENE,5.8,,N/A,,Mostly Cloudy
352,2016-01-14,10:51 PM,36.0,31.1,21.9,57%,29.99,10.0,ESE,5.8,,N/A,,Overcast
353,2016-01-14,11:51 PM,35.1,29.3,21.9,59%,29.98,10.0,East,6.9,,N/A,,Scattered Clouds
354,2016-01-15,12:51 AM,33.1,28.7,21.0,61%,29.96,10.0,East,4.6,,N/A,,Scattered Clouds
355,2016-01-15,1:51 AM,32.0,26.4,21.0,64%,29.96,10.0,ENE,5.8,,N/A,,Mostly Cloudy
356,2016-01-15,2:51 AM,30.9,26.2,21.0,67%,29.96,10.0,NE,4.6,,N/A,,Mostly Cloudy
357,2016-01-15,3:51 AM,32.0,27.5,23.0,69%,29.94,10.0,NE,4.6,,N/A,,Scattered Clouds
358,2016-01-15,4:51 AM,33.1,30.0,24.1,70%,29.95,10.0,North,3.5,,N/A,,Scattered Clouds
359,2016-01-15,5:51 AM,35.1,31.0,26.1,70%,29.96,10.0,North,4.6,,N/A,,Overcast
360,2016-01-15,6:51 AM,36.0,33.3,26.1,67%,29.96,10.0,NNE,3.5,,N/A,,Mostly Cloudy
361,2016-01-15,7:51 AM,36.0,,26.1,67%,29.96,10.0,Calm,Calm,,N/A,,Mostly Cloudy
362,2016-01-15,8:51 AM,39.9,,28.0,63%,29.95,10.0,Calm,Calm,,N/A,,Mostly Cloudy
363,2016-01-15,9:51 AM,43.0,40.3,30.0,60%,29.93,10.0,ENE,4.6,,N/A,,Mostly Cloudy
364,2016-01-15,10:51 AM,46.0,43.1,32.0,58%,29.92,10.0,SE,5.8,,N/A,,Overcast
365,2016-01-15,11:51 AM,48.0,,36.0,63%,29.89,10.0,SSE,9.2,,N/A,,Overcast
366,2016-01-15,12:51 PM,48.9,,37.9,66%,29.85,10.0,South,6.9,,N/A,,Overcast
367,2016-01-15,1:51 PM,50.0,,39.0,66%,29.83,10.0,SSE,10.4,,N/A,,Overcast
368,2016-01-15,2:51 PM,51.1,,39.9,66%,29.80,10.0,SSE,10.4,,N/A,,Overcast
369,2016-01-15,3:51 PM,50.0,,42.1,74%,29.74,10.0,SE,10.4,,N/A,,Overcast
370,2016-01-15,4:51 PM,50.0,,43.0,77%,29.77,10.0,SSE,17.3,21.9,N/A,,Overcast
371,2016-01-15,5:51 PM,48.9,,42.1,77%,29.79,10.0,South,12.7,,N/A,,Overcast
372,2016-01-15,6:51 PM,48.0,,43.0,83%,29.76,10.0,South,9.2,,N/A,,Overcast
373,2016-01-15,7:51 PM,48.0,,43.0,83%,29.73,10.0,South,6.9,,N/A,,Overcast
374,2016-01-15,8:51 PM,46.9,,42.1,83%,29.69,10.0,SSE,4.6,,0.00,Ra,Light Ra
375,2016-01-15,9:51 PM,50.0,,42.1,74%,29.60,10.0,NNW,11.5,,0.00,,Overcast
376,2016-01-15,10:51 PM,46.9,,43.0,86%,29.60,10.0,East,9.2,,N/A,,Overcast
377,2016-01-15,11:51 PM,46.0,42.5,43.0,89%,29.54,10.0,ENE,6.9,,N/A,,Overcast
378,2016-01-16,12:51 AM,46.9,,44.1,90%,29.49,10.0,ENE,5.8,,N/A,,Overcast
379,2016-01-16,1:02 AM,46.4,42.9,44.6,93%,29.50,9.0,NNE,6.9,,0.00,Ra,Light Ra
380,2016-01-16,1:51 AM,46.0,41.4,43.0,89%,29.47,7.0,NNE,9.2,,0.06,Ra,Light Ra
381,2016-01-16,2:51 AM,45.0,38.2,41.0,86%,29.41,8.0,North,15.0,,0.06,Ra,Ra
382,2016-01-16,3:51 AM,43.0,36.0,39.9,89%,29.39,6.0,NNE,13.8,,0.13,Ra,Ra
383,2016-01-16,4:51 AM,44.1,36.2,39.9,85%,29.36,10.0,North,18.4,,0.05,Ra,Light Ra
384,2016-01-16,5:51 AM,44.1,37.4,39.9,85%,29.35,10.0,North,13.8,,0.00,,Overcast
385,2016-01-16,6:51 AM,45.0,38.5,39.9,82%,29.39,10.0,NW,13.8,,0.01,Ra,Light Ra
386,2016-01-16,7:51 AM,45.0,39.7,41.0,86%,29.42,10.0,NW,10.4,,0.01,Ra,Light Ra
387,2016-01-16,8:43 AM,46.4,40.4,41.0,81%,29.47,10.0,WNW,13.8,,0.01,,Overcast
388,2016-01-16,8:51 AM,46.0,40.2,41.0,83%,29.47,10.0,WNW,12.7,,0.01,,Overcast
389,2016-01-16,9:01 AM,46.4,40.4,41.0,81%,29.48,10.0,WNW,13.8,,N/A,,Overcast
390,2016-01-16,9:51 AM,46.9,,41.0,80%,29.50,10.0,NW,11.5,,0.00,Ra,Light Ra
391,2016-01-16,10:51 AM,46.9,,39.9,77%,29.52,10.0,WNW,10.4,,0.00,,Overcast
392,2016-01-16,10:58 AM,46.4,42.4,41.0,81%,29.51,10.0,WNW,8.1,,N/A,,Overcast
393,2016-01-16,11:51 AM,48.9,,41.0,74%,29.50,10.0,WNW,12.7,,N/A,,Mostly Cloudy
394,2016-01-16,12:34 PM,51.8,,41.0,67%,29.50,10.0,WNW,13.8,,N/A,,Mostly Cloudy
395,2016-01-16,12:51 PM,52.0,,39.9,63%,29.51,10.0,WNW,17.3,,N/A,,Mostly Cloudy
396,2016-01-16,1:51 PM,53.1,,37.9,57%,29.52,10.0,West,16.1,,N/A,,Mostly Cloudy
397,2016-01-16,2:51 PM,54.0,,35.1,49%,29.54,10.0,WNW,17.3,21.9,N/A,,Mostly Cloudy
398,2016-01-16,3:51 PM,52.0,,33.1,49%,29.59,10.0,West,15.0,,N/A,,Mostly Cloudy
399,2016-01-16,4:51 PM,51.1,,33.1,50%,29.62,10.0,West,13.8,,N/A,,Mostly Cloudy
400,2016-01-16,5:51 PM,48.9,,32.0,52%,29.67,10.0,WNW,19.6,25.3,0.00,,Mostly Cloudy
401,2016-01-16,6:51 PM,48.0,,30.9,52%,29.71,10.0,WNW,15.0,,N/A,,Mostly Cloudy
402,2016-01-16,7:51 PM,48.0,,30.0,50%,29.73,10.0,West,13.8,,N/A,,Mostly Cloudy
403,2016-01-16,8:51 PM,46.9,,30.0,52%,29.75,10.0,West,12.7,,N/A,,Mostly Cloudy
404,2016-01-16,9:51 PM,45.0,38.5,30.0,56%,29.76,10.0,West,13.8,,N/A,,Mostly Cloudy
405,2016-01-16,10:51 PM,44.1,37.4,30.0,58%,29.77,10.0,West,13.8,21.9,N/A,,Scattered Clouds
406,2016-01-16,11:51 PM,43.0,36.4,30.0,60%,29.78,10.0,West,12.7,,N/A,,Scattered Clouds
407,2016-01-17,12:51 AM,42.1,36.6,30.0,62%,29.78,10.0,West,9.2,,N/A,,Mostly Cloudy
408,2016-01-17,1:51 AM,42.1,35.7,30.0,62%,29.80,10.0,WNW,11.5,,N/A,,Overcast
409,2016-01-17,2:51 AM,41.0,34.3,28.9,62%,29.82,10.0,NNW,11.5,,N/A,,Scattered Clouds
410,2016-01-17,3:51 AM,39.0,31.8,26.1,60%,29.83,10.0,NNW,11.5,,N/A,,Scattered Clouds
411,2016-01-17,4:51 AM,37.9,29.6,23.0,55%,29.85,10.0,NNW,13.8,21.9,N/A,,Partly Cloudy
412,2016-01-17,5:51 AM,37.0,28.9,21.0,52%,29.84,10.0,NNW,12.7,,N/A,,Partly Cloudy
413,2016-01-17,6:51 AM,36.0,27.5,19.9,52%,29.85,10.0,North,12.7,,N/A,,Partly Cloudy
414,2016-01-17,7:51 AM,36.0,29.6,19.9,52%,29.87,10.0,North,8.1,,N/A,,Mostly Cloudy
415,2016-01-17,8:51 AM,37.0,28.9,19.9,50%,29.88,10.0,North,12.7,,N/A,,Overcast
416,2016-01-17,9:51 AM,37.0,29.8,19.0,48%,29.91,10.0,NNE,10.4,,N/A,,Overcast
417,2016-01-17,10:51 AM,37.0,29.8,19.0,48%,29.88,10.0,NE,10.4,,N/A,,Overcast
418,2016-01-17,11:51 AM,36.0,27.5,19.0,50%,29.86,10.0,NE,12.7,,N/A,,Overcast
419,2016-01-17,12:51 PM,36.0,28.5,19.0,50%,29.81,10.0,NNE,10.4,,N/A,,Overcast
420,2016-01-17,1:51 PM,36.0,29.0,19.0,50%,29.79,10.0,North,9.2,,N/A,,Overcast
421,2016-01-17,2:51 PM,35.1,28.6,21.9,59%,29.77,3.0,NNE,8.1,,0.00,Snow,Light Snow
422,2016-01-17,3:47 PM,33.8,25.3,24.8,70%,29.75,2.5,North,11.5,,0.00,Snow,Light Snow
423,2016-01-17,3:51 PM,33.1,25.5,24.1,70%,29.75,2.5,North,9.2,,0.00,Snow,Light Snow
424,2016-01-17,4:16 PM,32.0,23.6,24.8,75%,29.74,1.5,North,10.4,,0.00,Snow,Light Snow
425,2016-01-17,4:51 PM,32.0,25.6,27.0,82%,29.75,1.5,NNW,6.9,,0.01,Snow,Light Snow
426,2016-01-17,5:51 PM,30.9,22.8,28.0,89%,29.75,1.8,NNW,9.2,,0.02,Snow,Light Snow
427,2016-01-17,6:44 PM,30.2,21.9,26.6,86%,29.74,3.0,North,9.2,,0.02,Snow,Light Snow
428,2016-01-17,6:51 PM,30.9,22.8,27.0,85%,29.74,3.0,North,9.2,,0.02,Snow,Light Snow
429,2016-01-17,7:51 PM,32.0,23.6,27.0,82%,29.73,9.0,NNW,10.4,,0.00,,Mostly Cloudy
430,2016-01-17,8:32 PM,32.0,23.6,26.6,80%,29.73,10.0,NNW,10.4,,N/A,,Mostly Cloudy
431,2016-01-17,8:51 PM,32.0,23.0,26.1,79%,29.73,10.0,NNW,11.5,,N/A,,Mostly Cloudy
432,2016-01-17,9:40 PM,32.0,23.6,26.6,80%,29.72,10.0,NW,10.4,16.1,N/A,,Scattered Clouds
433,2016-01-17,9:51 PM,32.0,23.0,25.0,75%,29.72,10.0,WNW,11.5,,N/A,,Mostly Cloudy
434,2016-01-17,10:51 PM,30.9,23.5,24.1,76%,29.72,10.0,WNW,8.1,,N/A,,Scattered Clouds
435,2016-01-17,11:51 PM,32.0,24.8,25.0,75%,29.71,10.0,WSW,8.1,,N/A,,Overcast
436,2016-01-18,12:51 AM,32.0,22.1,25.0,75%,29.70,10.0,West,13.8,,N/A,,Partly Cloudy
437,2016-01-18,1:51 AM,32.0,22.5,26.1,79%,29.71,10.0,West,12.7,,N/A,,Partly Cloudy
438,2016-01-18,2:51 AM,32.0,21.2,27.0,82%,29.70,10.0,West,16.1,24.2,N/A,,Partly Cloudy
439,2016-01-18,3:51 AM,32.0,21.2,23.0,69%,29.71,10.0,West,16.1,23.0,N/A,,Scattered Clouds
440,2016-01-18,4:51 AM,30.9,19.1,17.1,57%,29.72,10.0,WNW,18.4,31.1,N/A,,Partly Cloudy
441,2016-01-18,5:51 AM,28.0,14.3,10.0,47%,29.75,10.0,West,21.9,33.4,N/A,,Scattered Clouds
442,2016-01-18,6:51 AM,27.0,11.3,9.0,47%,29.79,10.0,NW,27.6,34.5,N/A,,Mostly Cloudy
443,2016-01-18,6:58 AM,24.8,9.0,12.2,59%,29.80,2.5,NW,25.3,34.5,0.00,Snow,Light Snow
444,2016-01-18,7:13 AM,24.8,11.1,12.2,59%,29.81,3.0,NW,18.4,27.6,0.00,Snow,Light Snow
445,2016-01-18,7:38 AM,24.8,9.6,12.2,59%,29.81,9.0,NW,23.0,27.6,0.00,,Mostly Cloudy
446,2016-01-18,7:51 AM,24.1,9.4,10.9,57%,29.82,10.0,WNW,20.7,32.2,0.00,,Mostly Cloudy
447,2016-01-18,8:51 AM,24.1,7.7,6.1,46%,29.84,10.0,WNW,26.5,35.7,N/A,,Scattered Clouds
448,2016-01-18,9:51 AM,25.0,10.2,6.1,45%,29.85,10.0,West,21.9,31.1,N/A,,Partly Cloudy
449,2016-01-18,10:51 AM,26.1,11.0,5.0,41%,29.86,10.0,WNW,24.2,29.9,N/A,,Partly Cloudy
450,2016-01-18,11:51 AM,28.0,14.3,3.9,36%,29.84,10.0,WNW,21.9,32.2,N/A,,Partly Cloudy
451,2016-01-18,12:51 PM,28.0,13.9,3.0,34%,29.83,10.0,WNW,23.0,32.2,N/A,,Partly Cloudy
452,2016-01-18,1:51 PM,28.0,13.9,1.0,31%,29.83,10.0,WNW,23.0,34.5,N/A,,Partly Cloudy
453,2016-01-18,2:51 PM,27.0,13.5,0.0,31%,29.85,10.0,West,19.6,32.2,N/A,,Scattered Clouds
454,2016-01-18,3:51 PM,27.0,14.7,1.0,33%,29.86,10.0,WNW,16.1,27.6,N/A,,Scattered Clouds
455,2016-01-18,4:51 PM,25.0,9.2,1.9,37%,29.90,10.0,West,25.3,39.1,N/A,,Scattered Clouds
456,2016-01-18,5:51 PM,24.1,8.7,1.0,37%,29.92,10.0,WNW,23.0,31.1,N/A,,Partly Cloudy
457,2016-01-18,6:51 PM,23.0,6.3,0.0,37%,29.95,10.0,WNW,26.5,40.3,N/A,,Partly Cloudy
458,2016-01-18,7:51 PM,21.9,4.8,1.9,42%,29.98,10.0,WNW,26.5,34.5,N/A,,Partly Cloudy
459,2016-01-18,8:51 PM,21.9,5.1,1.0,40%,29.99,10.0,West,25.3,34.5,N/A,,Partly Cloudy
460,2016-01-18,9:51 PM,21.0,5.0,0.0,40%,30.00,10.0,West,21.9,33.4,N/A,,Partly Cloudy
461,2016-01-18,10:51 PM,19.9,2.8,1.9,46%,30.01,10.0,West,24.2,33.4,N/A,,Partly Cloudy
462,2016-01-18,11:51 PM,19.9,3.9,1.0,44%,30.00,10.0,West,20.7,34.5,N/A,,Clear
463,2016-01-19,12:51 AM,19.0,2.4,1.0,46%,30.00,10.0,West,21.9,34.5,N/A,,Clear
464,2016-01-19,1:51 AM,19.0,2.7,1.9,47%,30.01,10.0,West,20.7,29.9,N/A,,Clear
465,2016-01-19,2:51 AM,19.0,2.7,1.0,46%,30.01,10.0,West,20.7,33.4,N/A,,Clear
466,2016-01-19,3:51 AM,18.0,1.3,1.9,50%,30.02,10.0,West,20.7,27.6,N/A,,Clear
467,2016-01-19,4:51 AM,18.0,2.6,1.9,50%,30.02,10.0,WNW,17.3,28.8,N/A,,Clear
468,2016-01-19,5:51 AM,18.0,0.6,1.9,50%,30.04,10.0,West,23.0,28.8,N/A,,Partly Cloudy
469,2016-01-19,6:51 AM,18.0,0.2,1.9,50%,30.04,10.0,West,24.2,31.1,N/A,,Partly Cloudy
470,2016-01-19,7:51 AM,18.0,0.9,1.9,50%,30.05,10.0,West,21.9,32.2,N/A,,Partly Cloudy
471,2016-01-19,8:51 AM,19.9,2.2,1.9,46%,30.05,10.0,West,26.5,34.5,N/A,,Partly Cloudy
472,2016-01-19,9:51 AM,21.9,5.5,1.9,42%,30.04,10.0,WNW,24.2,33.4,N/A,,Partly Cloudy
473,2016-01-19,10:51 AM,25.0,9.5,3.0,39%,30.03,10.0,WNW,24.2,34.5,N/A,,Partly Cloudy
474,2016-01-19,11:51 AM,27.0,12.2,1.0,33%,30.00,10.0,WNW,24.2,33.4,N/A,,Partly Cloudy
475,2016-01-19,12:51 PM,28.0,13.0,3.0,34%,29.99,10.0,WNW,26.5,33.4,N/A,,Partly Cloudy
476,2016-01-19,1:51 PM,28.9,14.3,3.0,33%,29.98,10.0,WNW,26.5,40.3,N/A,,Scattered Clouds
477,2016-01-19,2:51 PM,30.0,15.4,3.0,32%,30.00,10.0,WNW,27.6,35.7,N/A,,Scattered Clouds
478,2016-01-19,3:51 PM,30.9,19.1,3.0,31%,30.01,10.0,WNW,18.4,26.5,N/A,,Scattered Clouds
479,2016-01-19,4:51 PM,30.0,15.2,1.0,29%,30.05,10.0,WNW,28.8,38.0,N/A,,Scattered Clouds
480,2016-01-19,5:51 PM,28.9,16.1,1.0,30%,30.06,10.0,WNW,19.6,29.9,N/A,,Scattered Clouds
481,2016-01-19,6:51 PM,28.9,14.5,1.0,30%,30.09,10.0,NW,25.3,33.4,N/A,,Scattered Clouds
482,2016-01-19,7:51 PM,28.9,16.9,3.9,35%,30.11,10.0,NW,17.3,34.5,N/A,,Scattered Clouds
483,2016-01-19,8:51 PM,28.9,16.1,6.1,38%,30.12,10.0,WNW,19.6,27.6,N/A,,Scattered Clouds
484,2016-01-19,9:51 PM,28.9,16.9,8.1,41%,30.12,10.0,WNW,17.3,24.2,N/A,,Partly Cloudy
485,2016-01-19,10:51 PM,28.9,17.3,9.0,43%,30.14,10.0,West,16.1,,N/A,,Mostly Cloudy
486,2016-01-19,11:51 PM,28.9,17.3,10.9,47%,30.15,10.0,WNW,16.1,23.0,N/A,,Mostly Cloudy
487,2016-01-20,12:51 AM,30.0,18.7,12.0,47%,30.14,10.0,NW,16.1,27.6,N/A,,Partly Cloudy
488,2016-01-20,1:51 AM,30.0,16.9,12.9,49%,30.15,10.0,NW,21.9,,N/A,,Partly Cloudy
489,2016-01-20,2:51 AM,30.0,16.9,12.9,49%,30.16,10.0,WNW,21.9,25.3,N/A,,Partly Cloudy
490,2016-01-20,3:51 AM,28.9,19.2,14.0,54%,30.18,10.0,WNW,11.5,,N/A,,Partly Cloudy
491,2016-01-20,4:51 AM,28.9,18.6,14.0,54%,30.21,10.0,WNW,12.7,,N/A,,Partly Cloudy
492,2016-01-20,5:51 AM,28.9,18.2,15.1,56%,30.22,10.0,WNW,13.8,,N/A,,Partly Cloudy
493,2016-01-20,6:51 AM,28.9,19.2,15.1,56%,30.22,10.0,NW,11.5,,N/A,,Partly Cloudy
494,2016-01-20,7:51 AM,30.0,21.1,15.1,54%,30.23,10.0,NW,10.4,18.4,N/A,,Scattered Clouds
495,2016-01-20,8:51 AM,32.0,20.8,14.0,48%,30.22,10.0,NW,17.3,26.5,N/A,,Scattered Clouds
496,2016-01-20,9:51 AM,34.0,22.4,15.1,46%,30.21,10.0,NW,20.7,,N/A,,Mostly Cloudy
497,2016-01-20,10:51 AM,36.0,27.1,15.1,43%,30.20,10.0,NW,13.8,23.0,N/A,,Mostly Cloudy
498,2016-01-20,11:51 AM,37.9,30.5,15.1,39%,30.17,10.0,NNW,11.5,,N/A,,Mostly Cloudy
499,2016-01-20,12:51 PM,37.9,29.2,16.0,41%,30.15,10.0,WNW,15.0,,N/A,,Mostly Cloudy
500,2016-01-20,1:51 PM,39.0,32.8,16.0,39%,30.12,10.0,WNW,9.2,,N/A,,Mostly Cloudy
501,2016-01-20,2:51 PM,39.0,32.8,15.1,38%,30.12,10.0,WNW,9.2,,N/A,,Mostly Cloudy
502,2016-01-20,3:51 PM,37.9,33.5,14.0,38%,30.11,10.0,NNW,5.8,,N/A,,Mostly Cloudy
503,2016-01-20,4:51 PM,36.0,31.1,15.1,43%,30.10,10.0,WNW,5.8,,N/A,,Mostly Cloudy
504,2016-01-20,5:51 PM,36.0,29.6,15.1,43%,30.11,10.0,NNW,8.1,,N/A,,Mostly Cloudy
505,2016-01-20,6:51 PM,36.0,30.3,15.1,43%,30.10,10.0,NNW,6.9,,N/A,,Mostly Cloudy
506,2016-01-20,7:51 PM,35.1,29.3,16.0,46%,30.09,10.0,NNW,6.9,,N/A,,Overcast
507,2016-01-20,8:51 PM,34.0,28.0,16.0,48%,30.09,10.0,NNW,6.9,,N/A,,Overcast
508,2016-01-20,9:51 PM,34.0,26.6,16.0,48%,30.09,10.0,NNW,9.2,,N/A,,Overcast
509,2016-01-20,10:51 PM,33.1,25.5,15.1,48%,30.08,10.0,NNW,9.2,,N/A,,Overcast
510,2016-01-20,11:51 PM,32.0,24.2,15.1,50%,30.08,10.0,NNW,9.2,,N/A,,Overcast
511,2016-01-21,1:51 AM,30.9,22.8,12.9,47%,30.08,10.0,North,9.2,,N/A,,Overcast
512,2016-01-21,2:51 AM,30.0,21.1,12.0,47%,30.08,10.0,North,10.4,,N/A,,Overcast
513,2016-01-21,3:51 AM,30.0,21.7,12.0,47%,30.08,10.0,North,9.2,,N/A,,Overcast
514,2016-01-21,4:51 AM,28.9,19.8,12.9,51%,30.09,10.0,NNW,10.4,,N/A,,Mostly Cloudy
515,2016-01-21,5:51 AM,27.0,19.5,12.9,56%,30.12,10.0,NNW,6.9,,N/A,,Scattered Clouds
516,2016-01-21,6:51 AM,27.0,18.7,12.9,56%,30.14,10.0,NNW,8.1,,N/A,,Scattered Clouds
517,2016-01-21,7:51 AM,28.0,18.6,14.0,56%,30.16,10.0,NNW,10.4,,N/A,,Scattered Clouds
518,2016-01-21,8:51 AM,30.9,19.8,12.0,46%,30.16,10.0,NW,16.1,,N/A,,Partly Cloudy
519,2016-01-21,9:51 AM,33.1,23.0,12.0,42%,30.17,10.0,NNW,15.0,,N/A,,Partly Cloudy
520,2016-01-21,10:51 AM,34.0,25.0,12.0,40%,30.19,10.0,NW,12.7,,N/A,,Partly Cloudy
521,2016-01-21,11:51 AM,36.0,27.5,10.9,36%,30.17,10.0,NW,12.7,21.9,N/A,,Scattered Clouds
522,2016-01-21,12:51 PM,37.0,28.5,12.0,36%,30.14,10.0,NNW,13.8,21.9,N/A,,Scattered Clouds
523,2016-01-21,1:51 PM,37.9,28.9,10.9,33%,30.12,10.0,NW,16.1,23.0,N/A,,Scattered Clouds
524,2016-01-21,2:51 PM,37.0,28.1,10.0,33%,30.12,10.0,NW,15.0,21.9,N/A,,Scattered Clouds
525,2016-01-21,3:51 PM,37.0,27.7,10.9,34%,30.14,10.0,NW,16.1,,N/A,,Mostly Cloudy
526,2016-01-21,4:51 PM,34.0,23.4,10.9,38%,30.17,10.0,NW,17.3,25.3,N/A,,Mostly Cloudy
527,2016-01-21,5:51 PM,32.0,20.5,10.0,40%,30.18,10.0,NW,18.4,24.2,N/A,,Scattered Clouds
528,2016-01-21,6:51 PM,32.0,19.8,10.0,40%,30.21,10.0,NW,20.7,,N/A,,Scattered Clouds
529,2016-01-21,7:51 PM,30.9,20.2,10.9,43%,30.22,10.0,NW,15.0,,N/A,,Scattered Clouds
530,2016-01-21,8:51 PM,30.9,20.7,10.0,42%,30.23,10.0,NW,13.8,21.9,N/A,,Scattered Clouds
531,2016-01-21,9:51 PM,30.0,18.7,10.0,43%,30.22,10.0,NNW,16.1,,N/A,,Scattered Clouds
532,2016-01-21,10:51 PM,28.0,14.9,7.0,41%,30.24,10.0,NNW,19.6,,N/A,,Partly Cloudy
533,2016-01-21,11:51 PM,27.0,14.7,7.0,43%,30.26,10.0,NNW,16.1,,N/A,,Partly Cloudy
534,2016-01-22,12:51 AM,26.1,13.6,5.0,41%,30.26,10.0,NW,16.1,,N/A,,Partly Cloudy
535,2016-01-22,1:51 AM,25.0,11.7,3.9,41%,30.26,10.0,NNW,17.3,,N/A,,Partly Cloudy
536,2016-01-22,2:51 AM,24.1,12.5,3.9,42%,30.25,10.0,North,12.7,,N/A,,Partly Cloudy
537,2016-01-22,3:51 AM,23.0,11.7,3.9,44%,30.27,10.0,NNW,11.5,,N/A,,Partly Cloudy
538,2016-01-22,4:51 AM,21.9,11.7,5.0,48%,30.27,10.0,NNW,9.2,,N/A,,Partly Cloudy
539,2016-01-22,5:51 AM,23.0,11.7,3.9,44%,30.30,10.0,North,11.5,,N/A,,Partly Cloudy
540,2016-01-22,6:51 AM,21.9,10.4,5.0,48%,30.32,10.0,North,11.5,,N/A,,Scattered Clouds
541,2016-01-22,7:51 AM,23.0,11.7,3.9,44%,30.32,10.0,NNE,11.5,,N/A,,Scattered Clouds
542,2016-01-22,8:51 AM,25.0,12.2,3.9,41%,30.32,10.0,North,16.1,19.6,N/A,,Mostly Cloudy
543,2016-01-22,9:51 AM,26.1,13.1,3.0,37%,30.31,10.0,NNE,17.3,25.3,N/A,,Mostly Cloudy
544,2016-01-22,10:51 AM,28.0,17.0,3.9,36%,30.30,10.0,North,13.8,21.9,N/A,,Overcast
545,2016-01-22,11:51 AM,28.9,18.6,3.0,33%,30.26,10.0,North,12.7,,N/A,,Mostly Cloudy
546,2016-01-22,12:51 PM,30.0,20.0,3.0,32%,30.23,10.0,North,12.7,17.3,N/A,,Overcast
547,2016-01-22,1:51 PM,30.0,23.2,3.0,32%,30.22,10.0,North,6.9,,N/A,,Overcast
548,2016-01-22,2:51 PM,30.0,25.2,3.9,33%,30.20,10.0,North,4.6,,N/A,,Overcast
549,2016-01-22,3:51 PM,30.0,25.2,3.9,33%,30.19,10.0,Variable,4.6,,N/A,,Overcast
550,2016-01-22,4:51 PM,30.0,20.5,5.0,35%,30.19,10.0,North,11.5,,N/A,,Overcast
551,2016-01-22,5:51 PM,30.0,20.5,6.1,36%,30.19,10.0,NE,11.5,,N/A,,Overcast
552,2016-01-22,6:51 PM,30.0,21.1,6.1,36%,30.20,10.0,NNE,10.4,,N/A,,Overcast
553,2016-01-22,7:51 PM,30.0,22.4,7.0,38%,30.19,10.0,NNE,8.1,,N/A,,Overcast
554,2016-01-22,8:51 PM,30.0,20.5,7.0,38%,30.17,10.0,NE,11.5,,N/A,,Overcast
555,2016-01-22,9:49 PM,28.4,19.1,10.4,47%,30.16,7.0,NE,10.4,,0.00,Snow,Light Snow
556,2016-01-22,9:51 PM,28.9,18.6,10.9,47%,30.16,7.0,NNE,12.7,17.3,0.00,Snow,Light Snow
557,2016-01-22,10:51 PM,28.0,19.3,17.1,63%,30.14,4.0,NE,9.2,,0.00,Snow,Light Snow
558,2016-01-22,11:41 PM,26.6,15.7,19.4,74%,30.13,1.5,ENE,12.7,17.3,0.00,Snow,Light Snow
559,2016-01-22,11:51 PM,27.0,17.3,19.0,72%,30.12,1.5,ENE,10.4,,0.01,Snow,Light Snow
560,2016-01-23,12:51 AM,27.0,15.6,21.9,81%,30.06,1.5,NE,13.8,,0.02,Snow,Light Snow
561,2016-01-23,1:51 AM,27.0,13.5,23.0,85%,30.01,1.0,NE,19.6,25.3,0.03,Snow,Light Snow
562,2016-01-23,2:51 AM,27.0,12.5,21.9,81%,29.96,1.0,NE,23.0,32.2,0.01,Snow,Light Snow
563,2016-01-23,3:51 AM,27.0,12.5,21.9,81%,29.91,0.8,NE,23.0,33.4,0.00,Snow,Light Snow
564,2016-01-23,4:30 AM,26.6,11.4,21.2,80%,29.88,0.5,NE,25.3,32.2,0.04,"Fog
	,
Snow",Snow
565,2016-01-23,4:51 AM,27.0,12.2,23.0,85%,29.85,0.5,NE,24.2,29.9,0.06,"Fog
	,
Snow",Snow
566,2016-01-23,5:51 AM,28.0,13.9,25.0,88%,29.84,0.5,NE,23.0,31.1,0.02,"Fog
	,
Snow",Snow
567,2016-01-23,6:51 AM,28.0,12.8,24.1,85%,29.78,0.2,NE,27.6,34.5,0.07,"Fog
	,
Snow",Snow
568,2016-01-23,7:21 AM,28.4,12.3,26.6,93%,29.78,0.2,NE,32.2,42.6,0.06,"Fog
	,
Snow",Heavy Snow
569,2016-01-23,7:30 AM,28.4,13.3,26.6,93%,29.77,0.2,NE,27.6,41.4,0.07,"Fog
	,
Snow",Snow
570,2016-01-23,7:51 AM,30.0,14.7,26.1,85%,29.76,0.2,NE,31.1,44.9,0.09,"Fog
	,
Snow",Heavy Snow
571,2016-01-23,8:42 AM,30.2,14.5,26.6,86%,29.72,0.2,NE,33.4,46.0,0.03,"Fog
	,
Snow",Heavy Snow
572,2016-01-23,8:51 AM,30.0,15.7,27.0,88%,29.72,0.2,NE,26.5,46.0,0.03,"Fog
	,
Snow",Heavy Snow
573,2016-01-23,9:49 AM,30.2,16.5,26.6,86%,29.68,0.2,NNE,24.2,39.1,0.07,"Fog
	,
Snow",Heavy Snow
574,2016-01-23,9:51 AM,30.0,16.3,27.0,88%,29.69,0.2,NNE,24.2,35.7,0.07,"Fog
	,
Snow",Heavy Snow
575,2016-01-23,10:51 AM,30.9,15.9,27.0,85%,29.66,0.2,NNE,31.1,38.0,0.01,"Fog
	,
Snow",Snow
576,2016-01-23,11:32 AM,30.2,15.9,26.6,86%,29.63,0.2,NNE,26.5,35.7,0.03,"Fog
	,
Snow",Heavy Snow
577,2016-01-23,11:46 AM,30.2,15.7,26.6,86%,29.62,0.2,NNE,27.6,40.3,0.03,"Fog
	,
Snow",Heavy Snow
578,2016-01-23,11:51 AM,30.0,15.2,27.0,88%,29.61,0.2,NNE,28.8,35.7,0.05,"Fog
	,
Snow",Heavy Snow
579,2016-01-23,12:51 PM,30.9,15.9,26.1,82%,29.59,0.2,NNE,31.1,42.6,0.02,"Fog
	,
Snow",Heavy Snow
580,2016-01-23,1:26 PM,30.2,16.2,26.6,86%,29.62,0.2,NNE,25.3,32.2,0.02,"Fog
	,
Snow",Heavy Snow
581,2016-01-23,1:49 PM,30.2,17.4,26.6,86%,29.62,0.2,NNE,20.7,,0.06,"Fog
	,
Snow",Heavy Snow
582,2016-01-23,1:51 PM,30.0,17.2,26.1,85%,29.62,0.2,NNE,20.7,,0.06,"Fog
	,
Snow",Heavy Snow
583,2016-01-23,2:28 PM,28.4,13.8,26.6,93%,29.62,0.2,NNE,25.3,33.4,0.05,"Fog
	,
Snow",Heavy Snow
584,2016-01-23,2:51 PM,28.9,14.5,26.1,89%,29.62,0.2,NNE,25.3,35.7,0.08,"Fog
	,
Snow",Heavy Snow
585,2016-01-23,3:51 PM,28.0,12.5,25.0,88%,29.62,0.2,NNE,28.8,39.1,0.02,"Fog
	,
Snow",Heavy Snow
586,2016-01-23,4:51 PM,28.0,12.8,24.1,85%,29.62,0.2,NNE,27.6,38.0,0.02,"Fog
	,
Snow",Heavy Snow
587,2016-01-23,5:51 PM,28.9,15.1,25.0,85%,29.65,0.5,NNE,23.0,36.8,0.01,"Fog
	,
Snow",Snow
588,2016-01-23,6:51 PM,28.0,12.8,24.1,85%,29.65,0.5,North,27.6,34.5,0.01,"Fog
	,
Snow",Snow
589,2016-01-23,7:51 PM,28.0,13.3,24.1,85%,29.66,0.8,North,25.3,34.5,0.00,Snow,Light Snow
590,2016-01-23,8:51 PM,27.0,11.9,23.0,85%,29.66,0.8,North,25.3,34.5,0.00,Snow,Light Snow
591,2016-01-23,9:51 PM,26.1,10.4,21.9,84%,29.67,1.5,North,26.5,35.7,0.00,Snow,Light Snow
592,2016-01-23,10:28 PM,26.6,11.4,21.2,80%,29.68,1.5,North,25.3,31.1,0.00,Snow,Light Snow
593,2016-01-23,10:51 PM,26.1,11.3,21.0,81%,29.69,1.5,North,23.0,31.1,0.00,Snow,Light Snow
594,2016-01-23,11:51 PM,26.1,11.3,19.0,75%,29.71,1.5,North,23.0,29.9,0.00,Snow,Light Snow
595,2016-01-24,12:13 AM,26.6,13.1,19.4,74%,29.71,1.5,North,19.6,29.9,0.00,Snow,Blowg Snow
596,2016-01-24,12:51 AM,27.0,12.8,17.1,66%,29.72,1.5,North,21.9,33.4,0.03,Snow,Blowg Snow
597,2016-01-24,1:51 AM,26.1,11.0,18.0,71%,29.75,1.2,North,24.2,34.5,0.00,Snow,Light Snow
598,2016-01-24,2:22 AM,24.8,10.3,17.6,74%,29.76,3.0,North,20.7,27.6,0.00,Snow,Light Snow
599,2016-01-24,2:51 AM,26.1,13.1,14.0,60%,29.77,10.0,North,17.3,26.5,0.00,,Mostly Cloudy
600,2016-01-24,3:51 AM,24.1,9.4,9.0,53%,29.78,10.0,North,20.7,28.8,N/A,,Mostly Cloudy
601,2016-01-24,4:51 AM,23.0,7.6,8.1,53%,29.82,10.0,North,21.9,32.2,N/A,,Scattered Clouds
602,2016-01-24,5:51 AM,21.0,8.6,8.1,57%,29.85,10.0,North,12.7,,N/A,,Clear
603,2016-01-24,6:51 AM,19.9,7.3,6.1,55%,29.89,10.0,North,12.7,,0.02,,Partly Cloudy
604,2016-01-24,7:51 AM,23.0,10.1,8.1,53%,29.92,10.0,NNW,15.0,,N/A,,Partly Cloudy
605,2016-01-24,8:51 AM,23.0,10.1,10.0,58%,29.95,10.0,NNW,15.0,,N/A,,Partly Cloudy
606,2016-01-24,9:51 AM,24.1,11.0,10.0,55%,29.96,10.0,NNW,16.1,,N/A,,Partly Cloudy
607,2016-01-24,10:51 AM,26.1,16.2,10.0,51%,29.97,10.0,NNW,10.4,,N/A,,Partly Cloudy
608,2016-01-24,11:51 AM,28.0,16.1,10.9,49%,29.97,10.0,NW,16.1,23.0,N/A,,Partly Cloudy
609,2016-01-24,12:51 PM,30.0,19.1,10.0,43%,29.96,10.0,NW,15.0,,N/A,,Scattered Clouds
610,2016-01-24,1:51 PM,32.0,23.0,10.0,40%,29.96,10.0,NW,11.5,,N/A,,Scattered Clouds
611,2016-01-24,2:51 PM,34.0,25.5,10.9,38%,29.98,10.0,NW,11.5,,N/A,,Scattered Clouds
612,2016-01-24,3:51 PM,34.0,26.6,10.9,38%,29.99,10.0,WNW,9.2,,N/A,,Mostly Cloudy
613,2016-01-24,4:51 PM,34.0,28.0,14.0,44%,30.01,10.0,NW,6.9,,N/A,,Mostly Cloudy
614,2016-01-24,5:51 PM,33.1,27.7,12.9,43%,30.03,10.0,NW,5.8,,N/A,,Mostly Cloudy
615,2016-01-24,6:51 PM,34.0,27.2,12.9,42%,30.04,10.0,WNW,8.1,,N/A,,Mostly Cloudy
616,2016-01-24,7:51 PM,34.0,26.6,10.9,38%,30.06,10.0,NW,9.2,,N/A,,Scattered Clouds
617,2016-01-24,8:51 PM,30.9,24.3,12.0,46%,30.09,10.0,NNW,6.9,,N/A,,Mostly Cloudy
618,2016-01-24,9:51 PM,30.0,26.5,12.9,49%,30.10,10.0,NW,3.5,,N/A,,Mostly Cloudy
619,2016-01-24,10:51 PM,30.9,25.2,14.0,50%,30.11,10.0,WNW,5.8,,N/A,,Mostly Cloudy
620,2016-01-24,11:51 PM,30.9,24.3,14.0,50%,30.12,10.0,NW,6.9,,N/A,,Scattered Clouds
621,2016-01-25,12:51 AM,30.0,23.2,14.0,51%,30.14,10.0,WNW,6.9,,N/A,,Scattered Clouds
622,2016-01-25,1:51 AM,30.9,26.2,14.0,50%,30.16,10.0,WNW,4.6,,N/A,,Scattered Clouds
623,2016-01-25,2:51 AM,26.1,,12.9,58%,30.17,10.0,Calm,Calm,,N/A,,Partly Cloudy
624,2016-01-25,3:51 AM,26.1,,15.1,63%,30.18,10.0,Calm,Calm,,N/A,,Partly Cloudy
625,2016-01-25,4:51 AM,21.9,,15.1,75%,30.20,10.0,Calm,Calm,,N/A,,Mostly Cloudy
626,2016-01-25,5:51 AM,21.9,,14.0,72%,30.22,10.0,Calm,Calm,,N/A,,Scattered Clouds
627,2016-01-25,6:51 AM,25.0,19.3,17.1,72%,30.25,10.0,North,4.6,,N/A,,Scattered Clouds
628,2016-01-25,7:51 AM,28.0,22.8,18.0,66%,30.27,10.0,NNW,4.6,,N/A,,Scattered Clouds
629,2016-01-25,8:51 AM,30.9,,19.9,64%,30.29,10.0,Calm,Calm,,N/A,,Scattered Clouds
630,2016-01-25,9:51 AM,33.1,28.7,16.0,50%,30.32,10.0,North,4.6,,N/A,,Scattered Clouds
631,2016-01-25,10:51 AM,35.1,31.0,19.9,54%,30.32,10.0,NNE,4.6,,N/A,,Mostly Cloudy
632,2016-01-25,11:51 AM,34.0,,19.9,56%,30.33,10.0,Calm,Calm,,N/A,,Mostly Cloudy
633,2016-01-25,12:51 PM,35.1,31.0,23.0,61%,30.31,10.0,SW,4.6,,N/A,,Mostly Cloudy
634,2016-01-25,1:51 PM,35.1,31.0,21.9,59%,30.30,10.0,SSW,4.6,,N/A,,Mostly Cloudy
635,2016-01-25,2:51 PM,34.0,31.0,19.9,56%,30.30,10.0,SSW,3.5,,N/A,,Mostly Cloudy
636,2016-01-25,3:51 PM,33.1,27.7,21.0,61%,30.31,10.0,South,5.8,,N/A,,Mostly Cloudy
637,2016-01-25,4:51 PM,35.1,31.0,23.0,61%,30.30,10.0,SSE,4.6,,N/A,,Mostly Cloudy
638,2016-01-25,5:51 PM,34.0,31.0,23.0,64%,30.30,10.0,SSE,3.5,,N/A,,Mostly Cloudy
639,2016-01-25,6:51 PM,34.0,28.0,24.1,67%,30.32,10.0,South,6.9,,N/A,,Scattered Clouds
640,2016-01-25,7:51 PM,33.1,26.1,23.0,66%,30.32,10.0,SSW,8.1,,N/A,,Scattered Clouds
641,2016-01-25,8:51 PM,33.1,25.5,25.0,72%,30.31,10.0,SSW,9.2,,N/A,,Scattered Clouds
642,2016-01-25,9:51 PM,33.1,28.7,24.1,70%,30.29,10.0,South,4.6,,N/A,,Partly Cloudy
643,2016-01-25,10:51 PM,32.0,28.7,24.1,73%,30.27,10.0,SSE,3.5,,N/A,,Mostly Cloudy
644,2016-01-25,11:51 PM,37.9,30.5,30.9,76%,30.25,10.0,South,11.5,,N/A,,Overcast
645,2016-01-26,12:51 AM,39.9,31.8,33.1,77%,30.22,10.0,South,15.0,,N/A,,Mostly Cloudy
646,2016-01-26,1:51 AM,39.0,31.4,33.1,79%,30.22,10.0,SSW,12.7,,N/A,,Overcast
647,2016-01-26,2:51 AM,36.0,28.0,30.0,79%,30.20,10.0,SSW,11.5,,N/A,,Scattered Clouds
648,2016-01-26,3:51 AM,39.0,31.4,33.1,79%,30.17,10.0,SW,12.7,,N/A,,Scattered Clouds
649,2016-01-26,4:51 AM,39.0,31.8,33.1,79%,30.16,10.0,SSW,11.5,,N/A,,Scattered Clouds
650,2016-01-26,5:51 AM,39.0,31.4,33.1,79%,30.14,10.0,SSW,12.7,,N/A,,Mostly Cloudy
651,2016-01-26,6:51 AM,37.0,28.9,32.0,82%,30.14,10.0,SSW,12.7,,N/A,,Scattered Clouds
652,2016-01-26,7:51 AM,37.9,30.9,33.1,83%,30.12,10.0,SSW,10.4,,N/A,,Mostly Cloudy
653,2016-01-26,8:51 AM,39.9,31.8,34.0,79%,30.13,10.0,SSW,15.0,,N/A,,Mostly Cloudy
654,2016-01-26,9:51 AM,39.0,32.3,34.0,82%,30.10,10.0,South,10.4,,N/A,,Mostly Cloudy
655,2016-01-26,10:51 AM,42.1,35.7,35.1,76%,30.08,10.0,South,11.5,,0.00,Ra,Light Ra
656,2016-01-26,11:51 AM,39.9,35.1,36.0,86%,30.04,10.0,SSW,6.9,,0.00,,Mostly Cloudy
657,2016-01-26,12:51 PM,42.1,38.4,33.1,70%,29.99,10.0,SW,5.8,,N/A,,Mostly Cloudy
658,2016-01-26,1:51 PM,44.1,42.5,32.0,63%,29.97,10.0,SSW,3.5,,N/A,,Mostly Cloudy
659,2016-01-26,2:51 PM,45.0,40.6,35.1,68%,29.95,10.0,SSE,8.1,,N/A,,Mostly Cloudy
660,2016-01-26,3:51 PM,39.9,35.1,34.0,79%,29.96,10.0,SSW,6.9,,N/A,,Mostly Cloudy
661,2016-01-26,4:51 PM,42.1,37.7,35.1,76%,29.96,10.0,SSW,6.9,,N/A,,Mostly Cloudy
662,2016-01-26,5:51 PM,43.0,37.7,33.1,68%,29.96,10.0,SW,9.2,,N/A,,Mostly Cloudy
663,2016-01-26,6:51 PM,42.1,37.1,32.0,67%,29.98,10.0,SW,8.1,,N/A,,Mostly Cloudy
664,2016-01-26,7:51 PM,43.0,37.7,32.0,65%,29.98,10.0,SW,9.2,,N/A,,Mostly Cloudy
665,2016-01-26,8:51 PM,43.0,38.2,30.9,62%,29.98,10.0,SW,8.1,,N/A,,Overcast
666,2016-01-26,9:51 PM,44.1,39.5,33.1,65%,29.96,10.0,SW,8.1,,N/A,,Overcast
667,2016-01-26,10:51 PM,44.1,40.1,33.1,65%,29.96,10.0,SSW,6.9,,0.00,,Overcast
668,2016-01-26,11:51 PM,42.1,37.1,33.1,70%,29.96,10.0,SW,8.1,,N/A,,Overcast
669,2016-01-27,12:51 AM,43.0,41.3,34.0,71%,29.95,10.0,SW,3.5,,N/A,,Overcast
670,2016-01-27,1:51 AM,42.1,37.1,33.1,70%,29.94,10.0,WSW,8.1,,N/A,,Overcast
671,2016-01-27,2:51 AM,39.0,33.4,33.1,79%,29.94,10.0,WSW,8.1,,N/A,,Overcast
672,2016-01-27,3:51 AM,42.1,36.1,33.1,70%,29.94,10.0,West,10.4,,N/A,,Overcast
673,2016-01-27,4:51 AM,43.0,37.7,33.1,68%,29.95,10.0,West,9.2,,0.00,Ra,Light Ra
674,2016-01-27,5:51 AM,43.0,37.7,33.1,68%,29.97,10.0,WNW,9.2,,0.00,,Overcast
675,2016-01-27,6:51 AM,43.0,36.4,28.9,58%,29.99,10.0,NW,12.7,,N/A,,Overcast
676,2016-01-27,7:51 AM,43.0,36.4,28.0,56%,30.03,10.0,WNW,12.7,,N/A,,Overcast
677,2016-01-27,8:51 AM,43.0,34.5,26.1,51%,30.05,10.0,NW,19.6,,N/A,,Mostly Cloudy
678,2016-01-27,9:51 AM,42.1,33.9,24.1,49%,30.06,10.0,NW,17.3,27.6,N/A,,Mostly Cloudy
679,2016-01-27,10:51 AM,41.0,34.3,21.9,47%,30.08,10.0,NW,11.5,23.0,N/A,,Mostly Cloudy
680,2016-01-27,11:51 AM,42.1,34.5,23.0,47%,30.07,10.0,West,15.0,,N/A,,Mostly Cloudy
681,2016-01-27,12:51 PM,43.0,36.4,21.9,43%,30.05,10.0,West,12.7,,N/A,,Mostly Cloudy
682,2016-01-27,1:51 PM,45.0,36.9,19.0,36%,30.03,10.0,NW,20.7,26.5,N/A,,Scattered Clouds
683,2016-01-27,2:51 PM,45.0,37.9,19.9,37%,30.05,10.0,WNW,16.1,25.3,N/A,,Scattered Clouds
684,2016-01-27,3:51 PM,45.0,37.6,19.0,36%,30.07,10.0,NW,17.3,,N/A,,Scattered Clouds
685,2016-01-27,4:51 PM,43.0,34.2,18.0,37%,30.08,10.0,NW,20.7,25.3,N/A,,Scattered Clouds
686,2016-01-27,5:51 PM,39.9,34.5,21.0,47%,30.12,10.0,NW,8.1,,N/A,,Scattered Clouds
687,2016-01-27,6:51 PM,39.0,32.8,19.9,46%,30.11,10.0,NNW,9.2,,N/A,,Scattered Clouds
688,2016-01-27,7:51 PM,37.0,30.4,19.9,50%,30.12,10.0,NNW,9.2,,N/A,,Scattered Clouds
689,2016-01-27,8:51 PM,37.0,31.0,19.9,50%,30.11,10.0,North,8.1,,N/A,,Scattered Clouds
690,2016-01-27,9:51 PM,36.0,30.3,19.9,52%,30.12,10.0,NNW,6.9,,N/A,,Scattered Clouds
691,2016-01-27,10:51 PM,35.1,31.0,19.9,54%,30.15,10.0,North,4.6,,N/A,,Partly Cloudy
692,2016-01-27,11:51 PM,30.9,27.5,19.0,61%,30.14,10.0,ENE,3.5,,N/A,,Partly Cloudy
693,2016-01-28,12:51 AM,33.1,,21.0,61%,30.15,10.0,Calm,Calm,,N/A,,Scattered Clouds
694,2016-01-28,1:51 AM,28.9,,18.0,64%,30.14,10.0,Calm,Calm,,N/A,,Partly Cloudy
695,2016-01-28,2:51 AM,28.9,25.2,19.9,69%,30.12,10.0,ESE,3.5,,N/A,,Partly Cloudy
696,2016-01-28,3:51 AM,28.0,,19.9,72%,30.10,10.0,Calm,Calm,,N/A,,Partly Cloudy
697,2016-01-28,4:51 AM,26.1,20.5,19.9,78%,30.07,10.0,East,4.6,,N/A,,Partly Cloudy
698,2016-01-28,5:51 AM,28.0,21.7,21.0,75%,30.06,10.0,East,5.8,,N/A,,Partly Cloudy
699,2016-01-28,6:51 AM,27.0,,19.9,75%,30.06,10.0,Calm,Calm,,N/A,,Partly Cloudy
700,2016-01-28,7:51 AM,28.9,,23.0,78%,30.05,10.0,Calm,Calm,,N/A,,Partly Cloudy
701,2016-01-28,8:51 AM,32.0,,26.1,79%,30.02,10.0,Calm,Calm,,N/A,,Partly Cloudy
702,2016-01-28,9:51 AM,36.0,31.1,26.1,67%,30.02,10.0,WSW,5.8,,N/A,,Partly Cloudy
703,2016-01-28,10:51 AM,37.9,33.5,26.1,62%,30.01,10.0,WSW,5.8,,N/A,,Scattered Clouds
704,2016-01-28,11:51 AM,39.9,,26.1,58%,29.96,10.0,Calm,Calm,,N/A,,Scattered Clouds
705,2016-01-28,12:51 PM,39.9,35.1,25.0,55%,29.92,10.0,WSW,6.9,,N/A,,Scattered Clouds
706,2016-01-28,1:51 PM,41.0,35.8,23.0,49%,29.88,10.0,WSW,8.1,,N/A,,Scattered Clouds
707,2016-01-28,2:51 PM,42.1,37.7,23.0,47%,29.85,10.0,WSW,6.9,,N/A,,Mostly Cloudy
708,2016-01-28,3:51 PM,39.9,36.7,21.9,49%,29.83,10.0,SSW,4.6,,N/A,,Mostly Cloudy
709,2016-01-28,4:51 PM,37.9,33.5,23.0,55%,29.81,10.0,SSW,5.8,,N/A,,Mostly Cloudy
710,2016-01-28,5:51 PM,39.0,33.4,25.0,57%,29.81,10.0,WSW,8.1,,N/A,,Mostly Cloudy
711,2016-01-28,6:51 PM,37.9,,25.0,60%,29.79,10.0,Calm,Calm,,N/A,,Mostly Cloudy
712,2016-01-28,7:51 PM,37.9,34.4,24.1,57%,29.77,10.0,SW,4.6,,N/A,,Mostly Cloudy
713,2016-01-28,8:51 PM,36.0,31.1,26.1,67%,29.75,10.0,SSW,5.8,,N/A,,Mostly Cloudy
714,2016-01-28,9:51 PM,37.9,,25.0,60%,29.72,10.0,Calm,Calm,,N/A,,Mostly Cloudy
715,2016-01-28,10:51 PM,37.0,32.4,24.1,59%,29.70,10.0,WSW,5.8,,N/A,,Overcast
716,2016-01-28,11:51 PM,36.0,31.1,26.1,67%,29.70,10.0,SSW,5.8,,N/A,,Overcast
717,2016-01-29,12:51 AM,37.9,35.5,27.0,65%,29.65,10.0,WSW,3.5,,N/A,,Overcast
718,2016-01-29,1:51 AM,37.0,34.5,26.1,65%,29.60,10.0,West,3.5,,N/A,,Overcast
719,2016-01-29,2:51 AM,35.1,30.1,25.0,67%,29.60,10.0,WSW,5.8,,N/A,,Overcast
720,2016-01-29,3:51 AM,36.0,33.3,28.0,73%,29.56,10.0,SW,3.5,,N/A,,Overcast
721,2016-01-29,4:51 AM,35.1,32.2,26.1,70%,29.52,10.0,SW,3.5,,N/A,,Overcast
722,2016-01-29,5:51 AM,33.1,27.7,26.1,75%,29.52,10.0,SW,5.8,,N/A,,Overcast
723,2016-01-29,6:51 AM,36.0,29.6,25.0,64%,29.50,10.0,West,8.1,,N/A,,Scattered Clouds
724,2016-01-29,7:51 AM,36.0,30.3,25.0,64%,29.48,10.0,West,6.9,,N/A,,Scattered Clouds
725,2016-01-29,8:51 AM,39.0,33.4,26.1,60%,29.48,10.0,WNW,8.1,,N/A,,Scattered Clouds
726,2016-01-29,9:51 AM,37.9,29.6,25.0,60%,29.49,10.0,West,13.8,,N/A,,Mostly Cloudy
727,2016-01-29,10:51 AM,39.0,32.3,26.1,60%,29.49,10.0,West,10.4,,0.00,Ra,Light Ra
728,2016-01-29,11:51 AM,39.0,31.0,26.1,60%,29.47,10.0,West,13.8,,0.00,,Mostly Cloudy
729,2016-01-29,12:51 PM,39.9,31.4,26.1,58%,29.47,10.0,West,16.1,,N/A,,Mostly Cloudy
730,2016-01-29,1:51 PM,39.9,30.0,27.0,60%,29.48,10.0,NW,21.9,31.1,0.00,Ra,Light Ra
731,2016-01-29,2:51 PM,41.0,33.1,25.0,53%,29.51,10.0,NW,15.0,26.5,0.00,,Overcast
732,2016-01-29,3:51 PM,41.0,32.8,26.1,55%,29.55,10.0,NW,16.1,,0.00,,Mostly Cloudy
733,2016-01-29,4:51 PM,39.9,30.5,21.9,49%,29.59,10.0,NW,19.6,,N/A,,Mostly Cloudy
734,2016-01-29,5:51 PM,39.0,28.8,19.0,45%,29.63,10.0,NW,21.9,29.9,N/A,,Mostly Cloudy
735,2016-01-29,6:51 PM,37.9,27.6,18.0,45%,29.66,10.0,NW,20.7,29.9,N/A,,Mostly Cloudy
736,2016-01-29,7:51 PM,36.0,24.2,18.0,48%,29.71,10.0,NW,24.2,34.5,N/A,,Scattered Clouds
737,2016-01-29,8:51 PM,34.0,22.4,18.0,52%,29.75,10.0,NW,20.7,39.1,N/A,,Partly Cloudy
738,2016-01-29,9:51 PM,34.0,23.0,18.0,52%,29.79,10.0,NW,18.4,25.3,N/A,,Partly Cloudy
739,2016-01-29,10:51 PM,33.1,20.6,16.0,50%,29.83,10.0,NW,23.0,34.5,N/A,,Partly Cloudy
740,2016-01-29,11:51 PM,32.0,22.1,16.0,52%,29.85,10.0,NW,13.8,,N/A,,Partly Cloudy
741,2016-01-30,12:51 AM,30.9,19.1,15.1,52%,29.88,10.0,NW,18.4,27.6,N/A,,Partly Cloudy
742,2016-01-30,1:51 AM,30.0,19.1,15.1,54%,29.92,10.0,NW,15.0,,N/A,,Clear
743,2016-01-30,2:51 AM,28.9,18.6,15.1,56%,29.96,10.0,NW,12.7,,N/A,,Clear
744,2016-01-30,3:51 AM,28.9,18.2,16.0,58%,30.00,10.0,WNW,13.8,,N/A,,Clear
745,2016-01-30,4:51 AM,28.9,21.1,16.0,58%,30.01,10.0,NW,8.1,,N/A,,Clear
746,2016-01-30,5:51 AM,28.9,21.9,16.0,58%,30.05,10.0,WNW,6.9,,N/A,,Clear
747,2016-01-30,6:51 AM,28.9,23.9,16.0,58%,30.09,10.0,NW,4.6,,N/A,,Partly Cloudy
748,2016-01-30,7:51 AM,30.9,22.8,17.1,57%,30.10,10.0,NW,9.2,,N/A,,Partly Cloudy
749,2016-01-30,8:51 AM,32.0,23.6,17.1,54%,30.10,10.0,WNW,10.4,,N/A,,Scattered Clouds
750,2016-01-30,9:51 AM,34.0,29.8,17.1,50%,30.10,10.0,WNW,4.6,,N/A,,Scattered Clouds
751,2016-01-30,10:51 AM,35.1,27.9,18.0,50%,30.10,10.0,WSW,9.2,,N/A,,Mostly Cloudy
752,2016-01-30,11:51 AM,35.1,29.3,19.0,52%,30.09,10.0,WSW,6.9,,N/A,,Mostly Cloudy
753,2016-01-30,12:51 PM,35.1,25.9,21.0,57%,30.07,10.0,SW,13.8,,N/A,,Mostly Cloudy
754,2016-01-30,1:51 PM,36.0,28.5,21.0,55%,30.06,10.0,SSW,10.4,,N/A,,Mostly Cloudy
755,2016-01-30,2:51 PM,37.9,31.5,21.0,51%,30.05,10.0,SSW,9.2,,N/A,,Mostly Cloudy
756,2016-01-30,3:51 PM,39.0,32.3,24.1,55%,30.03,10.0,South,10.4,,N/A,,Mostly Cloudy
757,2016-01-30,4:51 PM,37.9,30.0,25.0,60%,30.03,10.0,SSW,12.7,,N/A,,Scattered Clouds
758,2016-01-30,5:51 PM,37.9,32.1,26.1,62%,30.04,10.0,SW,8.1,,N/A,,Scattered Clouds
759,2016-01-30,6:51 PM,39.0,30.6,27.0,62%,30.04,10.0,SSW,15.0,,N/A,,Scattered Clouds
760,2016-01-30,7:51 PM,39.0,31.0,25.0,57%,30.05,10.0,SSW,13.8,,N/A,,Scattered Clouds
761,2016-01-30,8:51 PM,37.9,29.6,24.1,57%,30.04,10.0,SSW,13.8,,N/A,,Mostly Cloudy
762,2016-01-30,9:51 PM,37.9,28.5,26.1,62%,30.04,10.0,SSW,17.3,,N/A,,Mostly Cloudy
763,2016-01-30,10:51 PM,37.0,28.5,26.1,65%,30.03,10.0,SSW,13.8,,N/A,,Partly Cloudy
764,2016-01-30,11:51 PM,37.0,28.9,26.1,65%,30.02,10.0,SSW,12.7,,N/A,,Scattered Clouds
765,2016-01-31,12:51 AM,37.0,31.0,27.0,67%,30.01,10.0,SSW,8.1,,N/A,,Mostly Cloudy
766,2016-01-31,1:51 AM,36.0,31.1,28.0,73%,30.00,10.0,SW,5.8,,N/A,,Mostly Cloudy
767,2016-01-31,2:51 AM,36.0,29.0,28.0,73%,29.99,10.0,SW,9.2,,N/A,,Mostly Cloudy
768,2016-01-31,3:51 AM,34.0,29.8,28.0,79%,29.97,10.0,SW,4.6,,N/A,,Mostly Cloudy
769,2016-01-31,4:51 AM,34.0,29.8,28.9,82%,29.97,10.0,SW,4.6,,N/A,,Mostly Cloudy
770,2016-01-31,5:51 AM,35.1,29.3,28.9,78%,29.98,10.0,SW,6.9,,N/A,,Mostly Cloudy
771,2016-01-31,6:51 AM,35.1,29.3,28.9,78%,29.99,10.0,SW,6.9,,N/A,,Mostly Cloudy
772,2016-01-31,7:51 AM,37.9,32.1,30.0,73%,30.00,10.0,SW,8.1,,N/A,,Mostly Cloudy
773,2016-01-31,8:51 AM,39.0,32.3,28.9,67%,29.99,10.0,SW,10.4,,N/A,,Mostly Cloudy
774,2016-01-31,9:51 AM,41.0,34.7,30.0,65%,30.00,10.0,SW,10.4,,N/A,,Mostly Cloudy
775,2016-01-31,10:51 AM,43.0,36.8,28.9,58%,29.98,10.0,SW,11.5,,N/A,,Mostly Cloudy
776,2016-01-31,11:51 AM,45.0,40.1,30.0,56%,29.96,10.0,SSW,9.2,,N/A,,Mostly Cloudy
777,2016-01-31,12:51 PM,46.0,42.5,28.9,51%,29.93,10.0,South,6.9,,N/A,,Mostly Cloudy
778,2016-01-31,1:51 PM,46.9,,30.9,54%,29.91,10.0,South,6.9,,N/A,,Mostly Cloudy
779,2016-01-31,2:51 PM,48.0,,32.0,54%,29.89,10.0,SSE,6.9,,N/A,,Mostly Cloudy
780,2016-01-31,3:51 PM,48.0,,35.1,61%,29.89,10.0,SSE,8.1,,N/A,,Mostly Cloudy
781,2016-01-31,4:51 PM,45.0,41.2,37.9,76%,29.89,10.0,SSE,6.9,,N/A,,Mostly Cloudy
782,2016-01-31,5:51 PM,43.0,,39.0,86%,29.88,10.0,Calm,Calm,,N/A,,Mostly Cloudy
783,2016-01-31,6:51 PM,45.0,42.6,39.9,82%,29.87,10.0,SSE,4.6,,N/A,,Mostly Cloudy
784,2016-01-31,7:51 PM,45.0,37.9,39.0,80%,29.86,10.0,South,16.1,,N/A,,Scattered Clouds
785,2016-01-31,8:51 PM,43.0,36.8,39.0,86%,29.86,10.0,South,11.5,,N/A,,Scattered Clouds
786,2016-01-31,9:51 PM,43.0,36.8,39.0,86%,29.84,10.0,South,11.5,,N/A,,Partly Cloudy
787,2016-01-31,10:51 PM,44.1,37.4,39.9,85%,29.82,10.0,South,13.8,,N/A,,Mostly Cloudy
788,2016-01-31,11:51 PM,44.1,37.7,39.9,85%,29.81,10.0,South,12.7,,N/A,,Mostly Cloudy
789,2016-02-01,12:51 AM,41.0,35.8,37.9,89%,29.80,10.0,South,8.1,,N/A,,Mostly Cloudy
790,2016-02-01,1:51 AM,41.0,35.8,37.0,86%,29.78,10.0,South,8.1,,N/A,,Mostly Cloudy
791,2016-02-01,2:51 AM,41.0,35.2,37.9,89%,29.78,10.0,South,9.2,,N/A,,Mostly Cloudy
792,2016-02-01,3:51 AM,43.0,36.4,39.0,86%,29.77,10.0,South,12.7,,N/A,,Mostly Cloudy
793,2016-02-01,4:51 AM,41.0,35.8,37.9,89%,29.78,10.0,South,8.1,,N/A,,Mostly Cloudy
794,2016-02-01,5:51 AM,41.0,34.3,37.0,86%,29.77,10.0,South,11.5,,N/A,,Mostly Cloudy
795,2016-02-01,6:51 AM,42.1,40.2,37.0,82%,29.79,10.0,SSW,3.5,,N/A,,Mostly Cloudy
796,2016-02-01,7:51 AM,44.1,42.5,39.0,82%,29.81,10.0,SW,3.5,,N/A,,Mostly Cloudy
797,2016-02-01,8:51 AM,48.9,,39.9,71%,29.82,10.0,WSW,8.1,,N/A,,Mostly Cloudy
798,2016-02-01,9:51 AM,54.0,,41.0,62%,29.81,10.0,WSW,11.5,,N/A,,Mostly Cloudy
799,2016-02-01,10:51 AM,57.9,,39.9,51%,29.81,10.0,West,16.1,,N/A,,Scattered Clouds
800,2016-02-01,11:51 AM,57.9,,39.9,51%,29.82,10.0,West,12.7,,N/A,,Mostly Cloudy
801,2016-02-01,12:51 PM,59.0,,39.9,49%,29.81,10.0,West,9.2,,N/A,,Mostly Cloudy
802,2016-02-01,1:51 PM,59.0,,41.0,51%,29.81,10.0,WNW,9.2,,N/A,,Mostly Cloudy
803,2016-02-01,2:51 PM,60.1,,41.0,49%,29.82,10.0,NNW,11.5,,0.00,,Overcast
804,2016-02-01,3:51 PM,57.0,,37.0,47%,29.86,10.0,NNW,15.0,,N/A,,Mostly Cloudy
805,2016-02-01,4:51 PM,52.0,,37.0,57%,29.89,10.0,NNW,9.2,,0.00,Ra,Light Ra
806,2016-02-01,5:51 PM,51.1,,37.0,59%,29.93,10.0,NNW,10.4,,0.00,Ra,Light Ra
807,2016-02-01,6:51 PM,52.0,,33.1,49%,29.95,10.0,NNW,11.5,,0.00,Ra,Light Ra
808,2016-02-01,7:51 PM,50.0,,32.0,50%,29.97,10.0,North,9.2,,0.00,Ra,Light Ra
809,2016-02-01,8:51 PM,48.9,,28.9,46%,30.01,10.0,NNW,6.9,,0.00,,Mostly Cloudy
810,2016-02-01,9:51 PM,48.0,,30.0,50%,30.03,10.0,North,8.1,,N/A,,Mostly Cloudy
811,2016-02-01,10:51 PM,45.0,41.2,28.9,53%,30.06,10.0,NNE,6.9,,N/A,,Mostly Cloudy
812,2016-02-01,11:51 PM,43.0,38.2,28.0,56%,30.09,10.0,North,8.1,,N/A,,Partly Cloudy
813,2016-02-02,12:51 AM,41.0,35.2,25.0,53%,30.11,10.0,North,9.2,,N/A,,Clear
814,2016-02-02,1:51 AM,41.0,35.8,23.0,49%,30.14,10.0,North,8.1,,N/A,,Clear
815,2016-02-02,2:51 AM,39.0,33.4,24.1,55%,30.17,10.0,North,8.1,,N/A,,Clear
816,2016-02-02,3:51 AM,37.0,32.4,24.1,59%,30.18,10.0,North,5.8,,N/A,,Clear
817,2016-02-02,4:51 AM,37.0,33.3,24.1,59%,30.20,10.0,North,4.6,,N/A,,Clear
818,2016-02-02,5:51 AM,37.0,32.4,24.1,59%,30.21,10.0,North,5.8,,N/A,,Clear
819,2016-02-02,6:51 AM,37.0,,25.0,62%,30.25,10.0,Calm,Calm,,N/A,,Partly Cloudy
820,2016-02-02,7:51 AM,39.0,,26.1,60%,30.31,10.0,Calm,Calm,,N/A,,Partly Cloudy
821,2016-02-02,8:51 AM,43.0,40.3,26.1,51%,30.33,10.0,North,4.6,,N/A,,Scattered Clouds
822,2016-02-02,9:51 AM,46.9,,25.0,42%,30.34,10.0,North,8.1,,N/A,,Partly Cloudy
823,2016-02-02,10:51 AM,48.9,,24.1,38%,30.35,10.0,North,5.8,,N/A,,Partly Cloudy
824,2016-02-02,11:51 AM,50.0,,23.0,35%,30.35,10.0,Variable,6.9,,N/A,,Partly Cloudy
825,2016-02-02,12:51 PM,51.1,,24.1,35%,30.33,10.0,NNE,6.9,,N/A,,Partly Cloudy
826,2016-02-02,1:51 PM,52.0,,23.0,32%,30.30,10.0,Variable,3.5,,N/A,,Clear
827,2016-02-02,2:51 PM,48.9,,27.0,43%,30.31,10.0,South,10.4,,N/A,,Clear
828,2016-02-02,3:51 PM,48.0,,28.9,48%,30.32,10.0,South,8.1,,N/A,,Partly Cloudy
829,2016-02-02,4:51 PM,44.1,40.8,28.9,55%,30.34,10.0,South,5.8,,N/A,,Partly Cloudy
830,2016-02-02,5:51 PM,41.0,35.8,30.0,65%,30.35,10.0,South,8.1,,N/A,,Mostly Cloudy
831,2016-02-02,6:51 PM,42.1,39.2,34.0,73%,30.37,10.0,SE,4.6,,N/A,,Mostly Cloudy
832,2016-02-02,7:51 PM,41.0,39.0,33.1,73%,30.39,10.0,SE,3.5,,N/A,,Mostly Cloudy
833,2016-02-02,8:51 PM,41.0,,33.1,73%,30.39,10.0,Calm,Calm,,N/A,,Mostly Cloudy
834,2016-02-02,9:51 PM,39.9,36.7,33.1,77%,30.35,10.0,SE,4.6,,N/A,,Mostly Cloudy
835,2016-02-02,10:51 PM,39.9,35.1,34.0,79%,30.35,10.0,SE,6.9,,N/A,,Mostly Cloudy
836,2016-02-02,11:51 PM,39.9,36.7,33.1,77%,30.34,10.0,SE,4.6,,N/A,,Mostly Cloudy
837,2016-02-03,12:51 AM,39.0,34.8,33.1,79%,30.32,10.0,ESE,5.8,,N/A,,Mostly Cloudy
838,2016-02-03,1:51 AM,41.0,37.1,34.0,76%,30.33,10.0,SE,5.8,,N/A,,Mostly Cloudy
839,2016-02-03,2:51 AM,41.0,35.8,37.0,86%,30.31,10.0,SE,8.1,,N/A,,Mostly Cloudy
840,2016-02-03,3:51 AM,44.1,40.1,37.9,79%,30.28,10.0,ESE,6.9,,N/A,,Overcast
841,2016-02-03,4:51 AM,45.0,,39.0,80%,30.28,10.0,Calm,Calm,,N/A,,Overcast
842,2016-02-03,5:51 AM,46.0,41.9,39.9,79%,30.24,10.0,ESE,8.1,,N/A,,Overcast
843,2016-02-03,6:51 AM,46.9,,41.0,80%,30.21,10.0,ESE,12.7,,N/A,,Overcast
844,2016-02-03,7:51 AM,48.0,,43.0,83%,30.20,10.0,ESE,12.7,21.9,0.00,Ra,Light Ra
845,2016-02-03,8:51 AM,48.9,,45.0,86%,30.16,10.0,SE,20.7,27.6,0.00,,Overcast
846,2016-02-03,9:51 AM,51.1,,46.0,83%,30.11,10.0,SE,25.3,34.5,N/A,,Overcast
847,2016-02-03,10:51 AM,52.0,,48.0,86%,30.07,10.0,SE,24.2,29.9,N/A,,Overcast
848,2016-02-03,11:51 AM,53.1,,48.0,83%,30.04,10.0,SSE,20.7,32.2,N/A,,Overcast
849,2016-02-03,12:51 PM,53.1,,48.9,86%,29.99,8.0,South,16.1,25.3,0.01,Ra,Light Ra
850,2016-02-03,1:23 PM,51.8,,48.2,88%,29.98,8.0,South,15.0,,0.01,Ra,Light Ra
851,2016-02-03,1:51 PM,51.1,,48.9,92%,29.99,6.0,SSW,13.8,,0.02,Ra,Light Ra
852,2016-02-03,2:41 PM,51.8,,50.0,94%,29.98,8.0,South,18.4,,0.04,Ra,Light Ra
853,2016-02-03,2:51 PM,53.1,,50.0,89%,29.98,9.0,South,20.7,,0.04,Ra,Light Ra
854,2016-02-03,3:51 PM,54.0,,52.0,93%,29.98,6.0,South,20.7,,0.04,Ra,Ra
855,2016-02-03,4:10 PM,53.6,,51.8,94%,29.98,4.0,South,16.1,,0.05,Ra,Heavy Ra
856,2016-02-03,4:51 PM,54.0,,52.0,93%,29.96,4.0,South,18.4,,0.20,Ra,Ra
857,2016-02-03,4:59 PM,53.6,,51.8,94%,29.96,4.0,South,13.8,,0.02,Ra,Ra
858,2016-02-03,5:14 PM,53.6,,51.8,94%,29.95,2.0,South,13.8,,0.05,Ra,Light Ra
859,2016-02-03,5:48 PM,53.6,,51.8,94%,29.94,0.5,South,17.3,,0.08,Ra,Light Ra
860,2016-02-03,5:49 PM,53.1,,51.1,93%,29.94,0.5,South,18.4,,0.08,Ra,Light Ra
861,2016-02-03,6:51 PM,54.0,,51.1,90%,29.91,0.5,South,26.5,33.4,0.01,Ra,Light Ra
862,2016-02-03,7:51 PM,52.0,,50.0,93%,29.90,0.5,South,23.0,,0.00,Ra,Light Ra
863,2016-02-03,8:16 PM,53.6,,51.8,94%,29.83,4.0,SSE,24.2,32.2,0.02,Ra,Light Ra
864,2016-02-03,8:51 PM,55.0,,52.0,89%,29.80,6.0,SSE,33.4,42.6,0.03,Ra,Light Ra
865,2016-02-03,9:51 PM,55.0,,52.0,89%,29.89,10.0,SW,16.1,23.0,0.00,,Overcast
866,2016-02-03,9:56 PM,53.6,,51.8,94%,29.89,10.0,West,11.5,23.0,N/A,,Overcast
867,2016-02-03,10:37 PM,53.6,,51.8,94%,29.91,10.0,SW,18.4,,0.01,,Overcast
868,2016-02-03,10:51 PM,55.0,,52.0,89%,29.91,10.0,SSW,16.1,,0.01,,Overcast
869,2016-02-03,11:51 PM,55.0,,51.1,86%,29.91,10.0,South,13.8,,N/A,,Mostly Cloudy
870,2016-02-04,12:51 AM,53.1,,50.0,89%,29.92,10.0,South,9.2,,N/A,,Overcast
871,2016-02-04,1:51 AM,54.0,,51.1,90%,29.91,10.0,South,3.5,,N/A,,Overcast
872,2016-02-04,2:51 AM,53.1,,50.0,89%,29.91,10.0,ESE,4.6,,N/A,,Overcast
873,2016-02-04,3:18 AM,51.8,,48.2,88%,29.89,10.0,ESE,3.5,,N/A,,Overcast
874,2016-02-04,3:51 AM,51.1,,48.0,89%,29.89,10.0,ESE,4.6,,N/A,,Overcast
875,2016-02-04,4:51 AM,51.1,,48.0,89%,29.88,7.0,SE,5.8,,N/A,,Overcast
876,2016-02-04,5:20 AM,50.0,,48.2,94%,29.88,1.0,SSE,4.6,,N/A,,Overcast
877,2016-02-04,5:44 AM,50.0,,48.2,94%,29.89,0.8,South,5.8,,0.00,,Light Drizzle
878,2016-02-04,5:51 AM,50.0,,48.0,93%,29.89,0.8,SSE,4.6,,0.00,,Light Drizzle
879,2016-02-04,6:51 AM,48.9,,46.9,93%,29.91,0.1,Calm,Calm,,0.00,,Light Drizzle
880,2016-02-04,7:45 AM,50.0,,48.2,94%,29.93,0.8,Calm,Calm,,0.00,,Mostly Cloudy
881,2016-02-04,7:51 AM,50.0,,48.0,93%,29.94,0.8,SW,4.6,,0.00,,Mostly Cloudy
882,2016-02-04,8:07 AM,53.6,,50.0,88%,29.94,6.0,WNW,10.4,,N/A,,Overcast
883,2016-02-04,8:51 AM,54.0,,45.0,72%,29.99,10.0,NNW,17.3,26.5,N/A,,Overcast
884,2016-02-04,9:51 AM,55.0,,39.9,57%,30.01,10.0,NW,16.1,,N/A,,Overcast
885,2016-02-04,10:51 AM,55.0,,39.0,55%,30.01,10.0,NNW,17.3,21.9,N/A,,Overcast
886,2016-02-04,11:51 AM,54.0,,35.1,49%,30.01,10.0,NW,17.3,,N/A,,Overcast
887,2016-02-04,12:51 PM,54.0,,34.0,47%,30.01,10.0,NNW,16.1,,N/A,,Overcast
888,2016-02-04,1:51 PM,54.0,,33.1,45%,30.01,10.0,NW,11.5,,N/A,,Overcast
889,2016-02-04,2:51 PM,53.1,,32.0,45%,30.01,10.0,NW,12.7,,N/A,,Overcast
890,2016-02-04,3:51 PM,52.0,,32.0,47%,30.02,10.0,NNW,12.7,,N/A,,Overcast
891,2016-02-04,4:51 PM,51.1,,32.0,48%,30.05,10.0,NNW,5.8,,N/A,,Overcast
892,2016-02-04,5:51 PM,51.1,,32.0,48%,30.07,10.0,North,5.8,,0.00,,Overcast
893,2016-02-04,6:51 PM,50.0,,34.0,54%,30.06,10.0,North,6.9,,0.01,,Overcast
894,2016-02-04,7:51 PM,48.9,,36.0,61%,30.06,10.0,NE,8.1,,0.00,,Overcast
895,2016-02-04,8:51 PM,48.0,,34.0,58%,30.08,10.0,NNE,9.2,,N/A,,Overcast
896,2016-02-04,9:51 PM,46.9,,32.0,56%,30.09,10.0,NNE,10.4,,0.00,Ra,Light Ra
897,2016-02-04,10:51 PM,44.1,37.7,33.1,65%,30.08,10.0,NNE,12.7,,0.02,Ra,Light Ra
898,2016-02-04,11:51 PM,43.0,36.0,30.9,62%,30.07,10.0,NNE,13.8,,0.01,Ra,Light Ra
899,2016-02-05,12:51 AM,43.0,38.2,30.9,62%,30.06,10.0,North,8.1,,0.01,Ra,Light Ra
900,2016-02-05,1:51 AM,41.0,33.1,30.0,65%,30.04,10.0,North,15.0,24.2,0.00,Ra,Light Ra
901,2016-02-05,2:30 AM,39.2,29.8,30.2,70%,30.02,10.0,NNE,18.4,,0.00,Ra,Light Ra
902,2016-02-05,2:41 AM,39.2,30.8,30.2,70%,30.06,10.0,North,15.0,,0.00,Ra,Light Ra
903,2016-02-05,2:51 AM,39.0,30.3,30.9,73%,30.05,10.0,North,16.1,,0.00,Ra,Light Ra
904,2016-02-05,3:34 AM,35.6,27.1,30.2,81%,30.07,2.5,North,12.7,24.2,0.08,Snow,Light Snow
905,2016-02-05,3:51 AM,34.0,25.0,30.9,89%,30.06,2.5,North,12.7,,0.10,Snow,Light Snow
906,2016-02-05,4:25 AM,33.8,24.3,30.2,87%,30.05,2.0,North,13.8,,0.05,Snow,Light Snow
907,2016-02-05,4:51 AM,34.0,25.5,30.9,89%,30.06,2.0,North,11.5,,0.08,Snow,Light Snow
908,2016-02-05,5:24 AM,33.8,22.2,30.2,87%,30.05,1.5,North,20.7,25.3,0.05,Snow,Light Snow
909,2016-02-05,5:51 AM,34.0,21.8,30.9,89%,30.08,1.0,North,23.0,26.5,0.09,Snow,Light Snow
910,2016-02-05,6:25 AM,33.8,21.0,30.2,87%,30.07,0.8,North,25.3,32.2,0.05,Snow,Light Snow
911,2016-02-05,6:51 AM,33.1,20.9,30.9,92%,30.09,0.5,North,21.9,26.5,0.07,Snow,Light Snow
912,2016-02-05,7:51 AM,33.1,21.2,30.0,89%,30.10,0.8,North,20.7,29.9,0.04,Snow,Light Snow
913,2016-02-05,8:51 AM,32.0,19.8,30.0,92%,30.10,0.8,North,20.7,33.4,0.02,Snow,Light Snow
914,2016-02-05,9:05 AM,32.0,18.6,30.2,93%,30.08,2.0,North,25.3,32.2,0.00,Snow,Light Snow
915,2016-02-05,9:22 AM,32.0,19.8,30.2,93%,30.09,1.5,North,20.7,32.2,0.00,Snow,Light Snow
916,2016-02-05,9:42 AM,32.0,19.8,28.4,87%,30.11,0.8,North,20.7,33.4,0.00,Snow,Light Snow
917,2016-02-05,9:51 AM,32.0,19.5,28.9,88%,30.13,0.8,North,21.9,32.2,0.00,Snow,Light Snow
918,2016-02-05,10:05 AM,32.0,19.5,30.2,93%,30.16,0.8,North,21.9,27.6,0.02,Snow,Light Snow
919,2016-02-05,10:51 AM,32.0,19.5,30.0,92%,30.09,0.5,North,21.9,29.9,0.05,"Fog
	,
Snow",Snow
920,2016-02-05,11:27 AM,32.0,19.2,30.2,93%,30.09,0.5,North,23.0,33.4,0.00,Snow,Light Snow
921,2016-02-05,11:37 AM,32.0,20.1,30.2,93%,30.10,4.0,NNW,19.6,,0.00,Snow,Light Snow
922,2016-02-05,11:51 AM,32.0,19.5,30.0,92%,30.09,7.0,NNW,21.9,31.1,0.01,Snow,Light Snow
923,2016-02-05,12:24 PM,33.8,22.8,26.6,75%,30.05,10.0,North,18.4,26.5,0.00,,Mostly Cloudy
924,2016-02-05,12:51 PM,35.1,25.9,27.0,72%,30.08,10.0,NNW,13.8,,0.00,,Mostly Cloudy
925,2016-02-05,1:51 PM,37.9,28.5,30.0,73%,30.10,10.0,NW,17.3,,N/A,,Scattered Clouds
926,2016-02-05,2:51 PM,39.9,31.8,25.0,55%,30.11,10.0,WNW,15.0,21.9,N/A,,Scattered Clouds
927,2016-02-05,3:51 PM,41.0,33.5,18.0,40%,30.14,10.0,NW,13.8,26.5,N/A,,Scattered Clouds
928,2016-02-05,4:51 PM,39.0,28.8,16.0,39%,30.18,10.0,NW,21.9,28.8,N/A,,Partly Cloudy
929,2016-02-05,5:51 PM,39.0,28.3,15.1,38%,30.23,10.0,WNW,24.2,29.9,N/A,,Partly Cloudy
930,2016-02-05,6:51 PM,37.0,27.7,15.1,41%,30.27,10.0,WNW,16.1,25.3,N/A,,Partly Cloudy
931,2016-02-05,7:51 PM,36.0,25.6,14.0,41%,30.29,10.0,NW,18.4,26.5,N/A,,Clear
932,2016-02-05,8:51 PM,35.1,24.8,14.0,42%,30.31,10.0,NW,17.3,,N/A,,Clear
933,2016-02-05,9:51 PM,34.0,25.0,14.0,44%,30.32,10.0,NW,12.7,,N/A,,Clear
934,2016-02-05,10:51 PM,33.1,24.4,15.1,48%,30.34,10.0,NW,11.5,,N/A,,Clear
935,2016-02-05,11:51 PM,32.0,21.6,15.1,50%,30.34,10.0,NNW,15.0,,N/A,,Clear
936,2016-02-06,12:51 AM,32.0,22.5,16.0,52%,30.34,10.0,NNW,12.7,,N/A,,Clear
937,2016-02-06,1:51 AM,30.9,23.5,16.0,54%,30.37,10.0,NW,8.1,,N/A,,Clear
938,2016-02-06,2:51 AM,30.9,,16.0,54%,30.37,10.0,Calm,Calm,,N/A,,Scattered Clouds
939,2016-02-06,3:51 AM,26.1,21.9,15.1,63%,30.38,10.0,SE,3.5,,N/A,,Scattered Clouds
940,2016-02-06,4:51 AM,28.0,22.8,17.1,63%,30.40,10.0,NW,4.6,,N/A,,Scattered Clouds
941,2016-02-06,5:51 AM,27.0,,16.0,63%,30.41,10.0,Calm,Calm,,N/A,,Partly Cloudy
942,2016-02-06,6:51 AM,25.0,19.3,17.1,72%,30.43,10.0,WSW,4.6,,N/A,,Partly Cloudy
943,2016-02-06,7:51 AM,30.0,23.2,19.0,64%,30.44,10.0,West,6.9,,N/A,,Scattered Clouds
944,2016-02-06,8:51 AM,33.1,25.5,19.0,56%,30.45,10.0,West,9.2,,N/A,,Mostly Cloudy
945,2016-02-06,9:51 AM,35.1,27.4,19.0,52%,30.46,10.0,WSW,10.4,,N/A,,Mostly Cloudy
946,2016-02-06,10:51 AM,36.0,29.6,19.9,52%,30.44,10.0,WSW,8.1,,N/A,,Mostly Cloudy
947,2016-02-06,11:51 AM,36.0,27.5,21.9,57%,30.42,10.0,SW,12.7,,N/A,,Mostly Cloudy
948,2016-02-06,12:51 PM,37.0,29.8,21.9,54%,30.38,10.0,WSW,10.4,,N/A,,Mostly Cloudy
949,2016-02-06,1:51 PM,37.0,31.0,21.9,54%,30.35,10.0,SSW,8.1,,N/A,,Mostly Cloudy
950,2016-02-06,2:51 PM,37.9,30.9,19.9,48%,30.33,10.0,SW,10.4,,N/A,,Mostly Cloudy
951,2016-02-06,3:51 PM,37.9,31.5,21.0,51%,30.32,10.0,SW,9.2,,N/A,,Mostly Cloudy
952,2016-02-06,4:51 PM,37.0,30.4,21.9,54%,30.31,10.0,SW,9.2,,N/A,,Mostly Cloudy
953,2016-02-06,5:51 PM,37.0,31.6,23.0,57%,30.31,10.0,WSW,6.9,,N/A,,Mostly Cloudy
954,2016-02-06,6:51 PM,36.0,29.0,23.0,59%,30.31,10.0,SW,9.2,,N/A,,Mostly Cloudy
955,2016-02-06,7:51 PM,37.0,28.9,23.0,57%,30.31,10.0,SW,12.7,,N/A,,Scattered Clouds
956,2016-02-06,8:51 PM,37.0,29.3,24.1,59%,30.31,10.0,SW,11.5,,N/A,,Mostly Cloudy
957,2016-02-06,9:51 PM,36.0,27.1,24.1,62%,30.31,10.0,WSW,13.8,,N/A,,Partly Cloudy
958,2016-02-06,10:51 PM,35.1,27.4,24.1,64%,30.31,10.0,WSW,10.4,,N/A,,Partly Cloudy
959,2016-02-06,11:51 PM,36.0,28.0,25.0,64%,30.29,10.0,WSW,11.5,,N/A,,Mostly Cloudy
960,2016-02-07,12:51 AM,35.1,29.3,25.0,67%,30.26,10.0,WSW,6.9,,N/A,,Scattered Clouds
961,2016-02-07,1:51 AM,33.1,26.9,24.1,70%,30.25,10.0,WSW,6.9,,N/A,,Partly Cloudy
962,2016-02-07,2:51 AM,34.0,26.0,27.0,75%,30.26,10.0,WSW,10.4,,N/A,,Partly Cloudy
963,2016-02-07,3:51 AM,33.1,27.7,26.1,75%,30.23,10.0,WSW,5.8,,N/A,,Clear
964,2016-02-07,4:51 AM,33.1,26.9,26.1,75%,30.21,10.0,WSW,6.9,,N/A,,Clear
965,2016-02-07,5:51 AM,30.0,24.1,24.1,79%,30.21,10.0,SW,5.8,,N/A,,Clear
966,2016-02-07,6:51 AM,32.0,27.5,25.0,75%,30.21,10.0,WSW,4.6,,N/A,,Partly Cloudy
967,2016-02-07,7:51 AM,32.0,27.5,25.0,75%,30.21,10.0,WSW,4.6,,N/A,,Scattered Clouds
968,2016-02-07,8:51 AM,37.9,35.5,28.0,68%,30.20,10.0,WNW,3.5,,N/A,,Scattered Clouds
969,2016-02-07,9:51 AM,37.0,34.5,27.0,67%,30.19,10.0,SW,3.5,,N/A,,Scattered Clouds
970,2016-02-07,10:51 AM,43.0,39.5,23.0,45%,30.16,10.0,WNW,5.8,,N/A,,Scattered Clouds
971,2016-02-07,11:51 AM,44.1,,23.0,43%,30.16,10.0,Calm,Calm,,N/A,,Mostly Cloudy
972,2016-02-07,12:51 PM,44.1,41.5,21.9,42%,30.14,10.0,ESE,4.6,,N/A,,Mostly Cloudy
973,2016-02-07,1:51 PM,44.1,40.8,25.0,47%,30.11,10.0,SE,5.8,,N/A,,Mostly Cloudy
974,2016-02-07,2:51 PM,43.0,38.8,25.0,49%,30.07,10.0,East,6.9,,N/A,,Mostly Cloudy
975,2016-02-07,3:51 PM,42.1,37.7,25.0,51%,30.06,10.0,ENE,6.9,,N/A,,Overcast
976,2016-02-07,4:51 PM,42.1,37.7,26.1,53%,30.05,10.0,ENE,6.9,,N/A,,Mostly Cloudy
977,2016-02-07,5:51 PM,39.9,35.8,27.0,60%,30.03,10.0,NE,5.8,,N/A,,Mostly Cloudy
978,2016-02-07,6:51 PM,39.9,34.5,27.0,60%,30.03,10.0,NE,8.1,,N/A,,Mostly Cloudy
979,2016-02-07,7:51 PM,39.0,32.8,27.0,62%,30.01,10.0,NE,9.2,,N/A,,Mostly Cloudy
980,2016-02-07,8:51 PM,39.0,32.8,27.0,62%,29.98,10.0,ENE,9.2,,N/A,,Mostly Cloudy
981,2016-02-07,9:51 PM,39.0,32.3,25.0,57%,29.96,10.0,NNE,10.4,,N/A,,Mostly Cloudy
982,2016-02-07,10:51 PM,39.0,31.8,26.1,60%,29.93,10.0,NE,11.5,,N/A,,Overcast
983,2016-02-07,11:51 PM,39.0,30.6,28.0,65%,29.91,10.0,NE,15.0,,N/A,,Overcast
984,2016-02-08,12:51 AM,39.0,28.8,26.1,60%,29.86,10.0,NE,21.9,28.8,N/A,,Overcast
985,2016-02-08,1:51 AM,37.9,28.5,25.0,60%,29.82,10.0,NNE,17.3,26.5,N/A,,Overcast
986,2016-02-08,2:51 AM,37.9,27.3,27.0,65%,29.77,10.0,NNE,21.9,28.8,N/A,,Overcast
987,2016-02-08,3:51 AM,37.9,26.6,28.0,68%,29.74,10.0,NE,25.3,33.4,N/A,,Overcast
988,2016-02-08,4:51 AM,37.9,27.9,28.0,68%,29.75,10.0,NNE,19.6,33.4,N/A,,Overcast
989,2016-02-08,5:51 AM,37.9,28.2,28.0,68%,29.76,10.0,NNE,18.4,24.2,N/A,,Overcast
990,2016-02-08,6:51 AM,37.9,28.5,28.0,68%,29.77,10.0,NNE,17.3,,N/A,,Overcast
991,2016-02-08,7:51 AM,37.9,27.3,27.0,65%,29.79,10.0,NE,21.9,28.8,N/A,,Overcast
992,2016-02-08,8:51 AM,34.0,23.8,28.9,82%,29.78,2.0,NE,16.1,,0.00,Snow,Light Snow
993,2016-02-08,9:25 AM,33.8,23.5,28.4,81%,29.80,1.8,NNE,16.1,24.2,0.00,Snow,Light Snow
994,2016-02-08,9:38 AM,33.8,23.2,28.4,81%,29.81,1.0,NNE,17.3,,0.00,Snow,Light Snow
995,2016-02-08,9:51 AM,33.1,22.6,28.9,85%,29.82,0.5,North,16.1,,0.01,"Fog
	,
Snow",Snow
996,2016-02-08,10:04 AM,32.0,21.2,28.4,87%,29.82,0.5,NNE,16.1,,0.01,"Fog
	,
Snow",Snow
997,2016-02-08,10:51 AM,30.9,20.7,28.0,89%,29.81,0.5,North,13.8,19.6,0.07,Snow,Light Snow
998,2016-02-08,11:51 AM,30.9,20.7,27.0,85%,29.78,1.0,North,13.8,25.3,0.03,Snow,Light Snow
999,2016-02-08,12:51 PM,30.9,19.1,26.1,82%,29.76,2.0,North,18.4,,0.01,Snow,Light Snow
1000,2016-02-08,1:06 PM,30.2,18.9,24.8,80%,29.75,3.0,North,16.1,,0.00,Snow,Light Snow
1001,2016-02-08,1:33 PM,30.2,19.3,24.8,80%,29.75,8.0,North,15.0,,0.00,Snow,Light Snow
1002,2016-02-08,1:51 PM,30.9,19.4,24.1,76%,29.74,10.0,North,17.3,28.8,0.00,,Overcast
1003,2016-02-08,2:51 PM,32.0,22.1,24.1,73%,29.74,10.0,North,13.8,21.9,N/A,,Overcast
1004,2016-02-08,3:51 PM,30.9,19.8,23.0,72%,29.74,10.0,NNE,16.1,24.2,0.00,Snow,Light Snow
1005,2016-02-08,4:51 PM,30.9,22.2,23.0,72%,29.77,10.0,North,10.4,,0.00,Snow,Light Snow
1006,2016-02-08,5:49 PM,30.2,21.9,24.8,80%,29.78,10.0,NNE,9.2,,0.00,Snow,Light Snow
1007,2016-02-08,5:51 PM,30.9,23.5,24.1,76%,29.78,10.0,NNE,8.1,,0.00,Snow,Light Snow
1008,2016-02-08,6:51 PM,30.0,19.5,24.1,79%,29.81,7.0,NE,13.8,,0.00,Snow,Light Snow
1009,2016-02-08,7:51 PM,28.9,21.1,24.1,82%,29.81,9.0,NE,8.1,,0.00,Snow,Light Snow
1010,2016-02-08,8:02 PM,28.4,20.4,24.8,86%,29.81,9.0,NNE,8.1,,0.00,Snow,Light Snow
1011,2016-02-08,8:37 PM,28.4,22.2,24.8,86%,29.82,10.0,NE,5.8,,0.00,Snow,Light Snow
1012,2016-02-08,8:51 PM,28.9,21.9,24.1,82%,29.82,10.0,NE,6.9,,0.00,Snow,Light Snow
1013,2016-02-08,9:51 PM,28.9,21.1,23.0,78%,29.82,10.0,NE,8.1,,0.00,Snow,Light Snow
1014,2016-02-08,10:38 PM,28.4,23.3,24.8,86%,29.80,10.0,ENE,4.6,,0.00,Snow,Light Snow
1015,2016-02-08,10:51 PM,28.9,20.4,24.1,82%,29.80,10.0,ENE,9.2,,0.00,Snow,Light Snow
1016,2016-02-08,11:44 PM,28.4,21.2,24.8,86%,29.78,8.0,ENE,6.9,,0.00,Snow,Light Snow
1017,2016-02-08,11:51 PM,28.0,19.3,24.1,85%,29.78,8.0,ENE,9.2,,0.00,Snow,Light Snow
1018,2016-02-09,12:51 AM,28.0,18.1,23.0,81%,29.76,10.0,NE,11.5,,0.00,,Overcast
1019,2016-02-09,1:51 AM,28.0,19.3,21.9,78%,29.75,7.0,ENE,9.2,,0.00,Snow,Light Snow
1020,2016-02-09,2:51 AM,28.0,19.3,23.0,81%,29.74,9.0,NE,9.2,,0.00,Snow,Light Snow
1021,2016-02-09,3:40 AM,28.4,18.0,21.2,74%,29.71,9.0,NE,12.7,,0.00,Snow,Light Snow
1022,2016-02-09,3:51 AM,27.0,16.7,21.9,81%,29.70,9.0,NE,11.5,,0.00,Snow,Light Snow
1023,2016-02-09,4:51 AM,27.0,18.0,21.0,78%,29.67,10.0,NE,9.2,,0.00,,Scattered Clouds
1024,2016-02-09,5:27 AM,26.6,18.2,21.2,80%,29.68,10.0,NE,8.1,,N/A,,Overcast
1025,2016-02-09,5:51 AM,28.0,24.2,21.9,78%,29.69,10.0,NE,3.5,,N/A,,Overcast
1026,2016-02-09,6:51 AM,28.0,20.8,21.0,75%,29.71,10.0,East,6.9,,N/A,,Overcast
1027,2016-02-09,7:51 AM,28.0,18.1,21.9,78%,29.70,10.0,ENE,11.5,,N/A,,Overcast
1028,2016-02-09,8:51 AM,28.9,18.2,23.0,78%,29.68,10.0,NE,13.8,,N/A,,Mostly Cloudy
1029,2016-02-09,9:51 AM,30.9,21.2,24.1,76%,29.66,10.0,NNE,12.7,,N/A,,Mostly Cloudy
1030,2016-02-09,10:51 AM,33.1,23.0,25.0,72%,29.63,10.0,NNE,15.0,,N/A,,Mostly Cloudy
1031,2016-02-09,11:51 AM,33.1,26.9,25.0,72%,29.62,10.0,NE,6.9,,N/A,,Scattered Clouds
1032,2016-02-09,12:31 PM,33.8,27.7,24.8,70%,29.61,10.0,NE,6.9,,N/A,,Mostly Cloudy
1033,2016-02-09,12:51 PM,33.1,28.7,23.0,66%,29.60,10.0,ENE,4.6,,N/A,,Mostly Cloudy
1034,2016-02-09,1:51 PM,33.1,,24.1,70%,29.59,10.0,Calm,Calm,,N/A,,Mostly Cloudy
1035,2016-02-09,2:43 PM,33.8,30.8,24.8,70%,29.59,10.0,East,3.5,,N/A,,Mostly Cloudy
1036,2016-02-09,2:51 PM,35.1,28.6,23.0,61%,29.58,10.0,NNE,8.1,,N/A,,Mostly Cloudy
1037,2016-02-09,3:51 PM,36.0,33.3,21.9,57%,29.58,10.0,North,3.5,,N/A,,Mostly Cloudy
1038,2016-02-09,4:51 PM,35.1,32.2,23.0,61%,29.60,10.0,ESE,3.5,,N/A,,Mostly Cloudy
1039,2016-02-09,5:51 PM,34.0,31.0,21.9,61%,29.61,10.0,East,3.5,,N/A,,Overcast
1040,2016-02-09,6:51 PM,34.0,31.0,21.9,61%,29.62,10.0,East,3.5,,N/A,,Overcast
1041,2016-02-09,7:51 PM,33.1,30.0,21.9,64%,29.64,10.0,East,3.5,,N/A,,Overcast
1042,2016-02-09,8:51 PM,33.1,28.7,23.0,66%,29.64,9.0,ESE,4.6,,0.00,Snow,Light Snow
1043,2016-02-09,9:51 PM,32.0,,25.0,75%,29.64,7.0,Calm,Calm,,0.00,Snow,Light Snow
1044,2016-02-09,10:51 PM,30.9,,26.1,82%,29.62,10.0,Calm,Calm,,0.00,,Overcast
1045,2016-02-09,11:27 PM,32.0,,26.6,80%,29.62,10.0,Calm,Calm,,N/A,,Overcast
1046,2016-02-09,11:51 PM,32.0,,26.1,79%,29.62,10.0,Calm,Calm,,N/A,,Overcast
1047,2016-02-10,12:51 AM,33.1,27.7,26.1,75%,29.62,10.0,SE,5.8,,N/A,,Overcast
1048,2016-02-10,1:51 AM,32.0,,28.9,88%,29.61,5.0,Calm,Calm,,0.00,Snow,Light Snow
1049,2016-02-10,2:45 AM,32.0,,28.4,87%,29.60,4.0,Calm,Calm,,0.00,Snow,Light Snow
1050,2016-02-10,2:51 AM,32.0,,28.9,88%,29.60,4.0,Calm,Calm,,0.00,Snow,Light Snow
1051,2016-02-10,3:51 AM,33.1,,30.0,89%,29.61,4.0,Calm,Calm,,0.01,"Ra
	,
Snow",Light Snow
1052,2016-02-10,4:51 AM,34.0,28.0,30.9,89%,29.61,6.0,SW,6.9,,0.01,,Light Drizzle
1053,2016-02-10,5:51 AM,34.0,26.6,30.0,85%,29.61,10.0,WSW,9.2,,0.00,,Overcast
1054,2016-02-10,6:51 AM,35.1,27.4,28.0,76%,29.62,9.0,WSW,10.4,,N/A,,Overcast
1055,2016-02-10,7:51 AM,35.1,26.9,30.0,82%,29.62,8.0,West,11.5,,N/A,,Overcast
1056,2016-02-10,8:15 AM,35.6,27.1,28.4,75%,29.63,8.0,West,12.7,,N/A,,Overcast
1057,2016-02-10,8:51 AM,35.1,25.5,30.0,82%,29.64,7.0,West,15.0,,N/A,,Overcast
1058,2016-02-10,9:51 AM,35.1,25.9,30.0,82%,29.65,7.0,West,13.8,,N/A,,Overcast
1059,2016-02-10,10:10 AM,35.6,26.6,30.2,81%,29.65,5.0,West,13.8,,0.00,Snow,Light Snow
1060,2016-02-10,10:51 AM,36.0,27.1,28.9,76%,29.64,8.0,West,13.8,,0.00,Snow,Light Snow
1061,2016-02-10,11:51 AM,36.0,26.0,28.0,73%,29.64,10.0,West,17.3,,0.00,,Mostly Cloudy
1062,2016-02-10,12:20 PM,35.6,25.5,26.6,70%,29.63,10.0,WSW,17.3,,N/A,,Mostly Cloudy
1063,2016-02-10,12:51 PM,39.0,31.0,28.0,65%,29.62,10.0,West,13.8,,N/A,,Mostly Cloudy
1064,2016-02-10,1:51 PM,39.0,30.3,23.0,53%,29.62,10.0,West,16.1,24.2,N/A,,Mostly Cloudy
1065,2016-02-10,2:51 PM,39.0,30.3,21.0,49%,29.63,10.0,WNW,16.1,25.3,N/A,,Overcast
1066,2016-02-10,3:51 PM,39.0,30.6,19.9,46%,29.66,10.0,West,15.0,,N/A,,Mostly Cloudy
1067,2016-02-10,4:51 PM,37.9,27.9,19.9,48%,29.68,10.0,West,19.6,24.2,N/A,,Mostly Cloudy
1068,2016-02-10,5:51 PM,36.0,25.0,19.0,50%,29.71,10.0,WSW,20.7,,N/A,,Mostly Cloudy
1069,2016-02-10,6:51 PM,35.1,23.5,17.1,48%,29.74,10.0,West,21.9,,N/A,,Scattered Clouds
1070,2016-02-10,7:51 PM,34.0,22.7,18.0,52%,29.74,10.0,West,19.6,26.5,N/A,,Scattered Clouds
1071,2016-02-10,8:51 PM,33.1,21.5,17.1,52%,29.75,10.0,West,19.6,27.6,N/A,,Scattered Clouds
1072,2016-02-10,9:51 PM,33.1,23.0,17.1,52%,29.75,10.0,West,15.0,21.9,N/A,,Mostly Cloudy
1073,2016-02-10,10:51 PM,32.0,21.6,15.1,50%,29.77,10.0,West,15.0,,N/A,,Mostly Cloudy
1074,2016-02-10,11:51 PM,32.0,21.2,14.0,48%,29.76,10.0,West,16.1,,N/A,,Overcast
1075,2016-02-11,12:51 AM,32.0,22.5,14.0,48%,29.77,10.0,West,12.7,,N/A,,Overcast
1076,2016-02-11,1:51 AM,28.9,16.1,17.1,61%,29.77,10.0,West,19.6,27.6,N/A,,Overcast
1077,2016-02-11,2:27 AM,28.4,17.0,19.4,69%,29.79,6.0,West,15.0,,0.00,Snow,Light Snow
1078,2016-02-11,2:51 AM,28.0,16.1,19.0,69%,29.79,4.0,WNW,16.1,,0.00,Snow,Light Snow
1079,2016-02-11,3:31 AM,26.6,12.4,15.8,64%,29.79,10.0,WNW,21.9,28.8,0.00,,Overcast
1080,2016-02-11,3:51 AM,27.0,12.8,12.9,56%,29.79,10.0,West,21.9,25.3,0.00,,Overcast
1081,2016-02-11,4:51 AM,26.1,11.0,1.0,34%,29.81,10.0,WNW,24.2,32.2,N/A,,Mostly Cloudy
1082,2016-02-11,5:51 AM,25.0,9.5,2.0,31%,29.84,10.0,WNW,24.2,29.9,N/A,,Mostly Cloudy
1083,2016-02-11,6:51 AM,24.1,9.8,0.9,34%,29.88,10.0,WNW,19.6,29.9,N/A,,Scattered Clouds
1084,2016-02-11,7:51 AM,25.0,12.2,0.0,34%,29.90,10.0,WNW,16.1,29.9,N/A,,Scattered Clouds
1085,2016-02-11,8:51 AM,26.1,13.1,0.9,31%,29.92,10.0,WNW,17.3,26.5,N/A,,Scattered Clouds
1086,2016-02-11,9:51 AM,27.0,12.2,2.0,29%,29.93,10.0,West,24.2,36.8,N/A,,Partly Cloudy
1087,2016-02-11,10:51 AM,27.0,11.9,2.9,27%,29.93,10.0,West,25.3,31.1,N/A,,Mostly Cloudy
1088,2016-02-11,11:51 AM,27.0,13.2,0.9,30%,29.92,10.0,West,20.7,33.4,N/A,,Mostly Cloudy
1089,2016-02-11,12:51 PM,26.1,12.0,0.9,31%,29.92,10.0,West,20.7,29.9,N/A,,Mostly Cloudy
1090,2016-02-11,1:51 PM,26.1,11.0,2.0,30%,29.91,10.0,WNW,24.2,32.2,N/A,,Mostly Cloudy
1091,2016-02-11,2:51 PM,26.1,11.0,6.1,43%,29.94,10.0,West,24.2,36.8,N/A,,Mostly Cloudy
1092,2016-02-11,3:51 PM,26.1,11.0,6.1,43%,29.97,10.0,West,24.2,33.4,N/A,,Scattered Clouds
1093,2016-02-11,4:51 PM,25.0,10.2,0.0,34%,30.00,10.0,West,21.9,32.2,N/A,,Mostly Cloudy
1094,2016-02-11,5:51 PM,24.1,9.4,4.0,29%,30.04,10.0,NW,20.7,34.5,N/A,,Scattered Clouds
1095,2016-02-11,6:51 PM,24.1,7.7,5.1,28%,30.09,10.0,WNW,26.5,39.1,N/A,,Partly Cloudy
1096,2016-02-11,7:51 PM,23.0,5.7,6.0,28%,30.12,10.0,WNW,28.8,39.1,N/A,,Partly Cloudy
1097,2016-02-11,8:51 PM,21.9,7.3,5.1,30%,30.15,10.0,WNW,18.4,31.1,N/A,,Partly Cloudy
1098,2016-02-11,9:51 PM,21.0,3.3,5.1,32%,30.17,10.0,WNW,27.6,38.0,N/A,,Partly Cloudy
1099,2016-02-11,10:51 PM,19.9,2.8,4.0,35%,30.20,10.0,WNW,24.2,33.4,N/A,,Partly Cloudy
1100,2016-02-11,11:51 PM,19.9,2.5,2.9,37%,30.22,10.0,WNW,25.3,32.2,N/A,,Partly Cloudy
1101,2016-02-12,12:51 AM,19.9,5.7,2.9,37%,30.24,10.0,WNW,16.1,23.0,N/A,,Partly Cloudy
1102,2016-02-12,1:51 AM,19.0,2.7,2.9,38%,30.24,10.0,NW,20.7,27.6,N/A,,Partly Cloudy
1103,2016-02-12,2:51 AM,18.0,3.6,2.9,40%,30.25,10.0,WNW,15.0,23.0,N/A,,Clear
1104,2016-02-12,3:51 AM,18.0,3.1,2.9,40%,30.26,10.0,WNW,16.1,,N/A,,Clear
1105,2016-02-12,4:51 AM,18.0,6.1,2.0,41%,30.28,10.0,NW,10.4,,N/A,,Clear
1106,2016-02-12,5:51 AM,18.0,4.2,0.9,44%,30.28,10.0,NW,13.8,,N/A,,Clear
1107,2016-02-12,6:51 AM,17.1,5.0,0.9,45%,30.29,10.0,WNW,10.4,,N/A,,Partly Cloudy
1108,2016-02-12,7:51 AM,19.0,9.0,0.9,42%,30.29,10.0,West,8.1,,N/A,,Scattered Clouds
1109,2016-02-12,8:51 AM,19.9,9.3,0.9,40%,30.29,10.0,West,9.2,,N/A,,Scattered Clouds
1110,2016-02-12,9:51 AM,21.9,,0.0,38%,30.27,10.0,Calm,Calm,,N/A,,Scattered Clouds
1111,2016-02-12,10:51 AM,23.0,15.8,0.0,37%,30.25,10.0,WSW,5.8,,N/A,,Scattered Clouds
1112,2016-02-12,11:51 AM,24.1,14.4,1.0,37%,30.21,10.0,SSW,9.2,,N/A,,Mostly Cloudy
1113,2016-02-12,12:51 PM,24.1,14.4,1.9,38%,30.17,10.0,SW,9.2,,N/A,,Mostly Cloudy
1114,2016-02-12,1:51 PM,25.0,14.2,3.9,41%,30.13,10.0,SSW,11.5,,N/A,,Mostly Cloudy
1115,2016-02-12,2:51 PM,25.0,17.1,5.0,43%,30.10,10.0,SW,6.9,,N/A,,Overcast
1116,2016-02-12,3:51 PM,26.1,16.8,3.0,37%,30.07,10.0,SW,9.2,,N/A,,Overcast
1117,2016-02-12,4:51 PM,25.0,13.6,1.9,37%,30.05,10.0,SW,12.7,,N/A,,Overcast
1118,2016-02-12,5:51 PM,26.1,15.0,3.9,39%,30.04,10.0,WSW,12.7,,N/A,,Overcast
1119,2016-02-12,6:51 PM,26.1,14.0,3.9,39%,30.02,10.0,West,15.0,19.6,N/A,,Overcast
1120,2016-02-12,7:51 PM,25.0,13.6,5.0,43%,30.00,10.0,West,12.7,,N/A,,Overcast
1121,2016-02-12,8:51 PM,23.0,10.6,10.0,58%,29.99,10.0,West,13.8,,0.00,Snow,Light Snow
1122,2016-02-12,9:51 PM,24.1,11.5,8.1,51%,29.97,10.0,West,15.0,,0.00,,Overcast
1123,2016-02-12,10:51 PM,24.1,12.0,8.1,51%,29.96,10.0,West,13.8,,N/A,,Overcast
1124,2016-02-12,11:51 PM,24.1,11.0,8.1,51%,29.95,10.0,WNW,16.1,19.6,N/A,,Overcast
1125,2016-02-13,12:51 AM,24.1,13.1,10.0,55%,29.93,10.0,WNW,11.5,,N/A,,Overcast
1126,2016-02-13,1:51 AM,23.0,10.6,10.0,58%,29.92,10.0,WNW,13.8,,N/A,,Mostly Cloudy
1127,2016-02-13,2:51 AM,23.0,11.1,12.0,63%,29.90,10.0,West,12.7,,N/A,,Mostly Cloudy
1128,2016-02-13,3:51 AM,23.0,10.6,12.0,63%,29.89,10.0,West,13.8,,N/A,,Scattered Clouds
1129,2016-02-13,4:51 AM,23.0,10.1,12.0,63%,29.90,10.0,West,15.0,19.6,N/A,,Scattered Clouds
1130,2016-02-13,5:51 AM,23.0,10.6,12.0,63%,29.91,10.0,WNW,13.8,,N/A,,Scattered Clouds
1131,2016-02-13,6:51 AM,21.9,6.9,10.0,60%,29.93,10.0,WNW,19.6,26.5,N/A,,Scattered Clouds
1132,2016-02-13,7:51 AM,23.0,5.7,1.9,40%,29.97,9.0,NW,28.8,41.4,N/A,,Scattered Clouds
1133,2016-02-13,8:51 AM,23.0,7.6,0.0,37%,30.00,10.0,NNW,21.9,33.4,N/A,,Scattered Clouds
1134,2016-02-13,9:51 AM,23.0,7.6,0.9,35%,30.02,10.0,NW,21.9,33.4,N/A,,Mostly Cloudy
1135,2016-02-13,10:51 AM,24.1,6.4,6.0,27%,30.04,8.0,NW,32.2,39.1,N/A,,Scattered Clouds
1136,2016-02-13,11:51 AM,23.0,6.0,9.9,23%,30.06,10.0,WNW,27.6,36.8,N/A,,Scattered Clouds
1137,2016-02-13,12:51 PM,23.0,6.0,8.0,25%,30.07,10.0,WNW,27.6,39.1,N/A,,Scattered Clouds
1138,2016-02-13,1:51 PM,19.9,0.7,9.9,26%,30.08,10.0,WNW,32.2,43.7,N/A,,Scattered Clouds
1139,2016-02-13,2:51 PM,18.0,1.7,11.9,26%,30.11,10.0,WNW,31.1,41.4,N/A,,Scattered Clouds
1140,2016-02-13,3:51 PM,18.0,0.2,14.1,23%,30.15,10.0,WNW,25.3,36.8,N/A,,Scattered Clouds
1141,2016-02-13,4:51 PM,15.1,2.9,17.0,23%,30.19,10.0,NW,21.9,36.8,N/A,,Partly Cloudy
1142,2016-02-13,5:51 PM,12.0,10.1,17.0,26%,30.24,10.0,NW,32.2,38.0,N/A,,Partly Cloudy
1143,2016-02-13,6:51 PM,10.9,8.8,16.1,29%,30.28,10.0,NW,23.0,35.7,N/A,,Partly Cloudy
1144,2016-02-13,7:51 PM,10.0,11.1,17.0,29%,30.30,10.0,NW,26.5,34.5,N/A,,Partly Cloudy
1145,2016-02-13,8:51 PM,8.1,15.2,17.0,31%,30.32,10.0,NW,31.1,42.6,N/A,,Partly Cloudy
1146,2016-02-13,9:51 PM,7.0,14.9,16.1,34%,30.33,10.0,NW,25.3,35.7,N/A,,Partly Cloudy
1147,2016-02-13,10:51 PM,8.1,12.6,15.0,34%,30.31,10.0,WNW,23.0,35.7,N/A,,Partly Cloudy
1148,2016-02-13,11:51 PM,8.1,12.2,16.1,33%,30.32,10.0,NW,21.9,29.9,N/A,,Partly Cloudy
1149,2016-02-14,12:51 AM,7.0,14.0,17.0,33%,30.34,10.0,NW,23.0,34.5,N/A,,Partly Cloudy
1150,2016-02-14,1:51 AM,7.0,13.6,17.0,33%,30.35,10.0,NW,21.9,36.8,N/A,,Partly Cloudy
1151,2016-02-14,2:51 AM,6.1,14.3,16.1,36%,30.37,10.0,NW,20.7,26.5,N/A,,Partly Cloudy
1152,2016-02-14,3:51 AM,5.0,14.2,11.0,48%,30.39,10.0,NNW,17.3,,N/A,,Partly Cloudy
1153,2016-02-14,4:51 AM,3.9,18.1,17.0,38%,30.41,10.0,NW,23.0,35.7,N/A,,Partly Cloudy
1154,2016-02-14,5:51 AM,3.0,21.4,18.9,35%,30.45,10.0,NW,28.8,33.4,N/A,,Partly Cloudy
1155,2016-02-14,6:51 AM,1.0,21.4,18.9,39%,30.48,10.0,NW,21.9,35.7,N/A,,Partly Cloudy
1156,2016-02-14,7:51 AM,1.9,18.7,18.0,39%,30.52,10.0,NW,18.4,25.3,N/A,,Partly Cloudy
1157,2016-02-14,8:51 AM,3.0,17.8,18.0,37%,30.54,10.0,NW,19.6,,N/A,,Partly Cloudy
1158,2016-02-14,9:51 AM,6.1,12.8,17.0,34%,30.55,10.0,NW,17.3,,N/A,,Partly Cloudy
1159,2016-02-14,10:51 AM,7.0,11.0,17.0,33%,30.54,10.0,North,16.1,23.0,0.17,,Partly Cloudy
1160,2016-02-14,11:51 AM,10.0,6.5,15.0,32%,30.53,10.0,NNW,15.0,,0.15,,Partly Cloudy
1161,2016-02-14,12:51 PM,12.0,2.0,15.0,29%,30.53,10.0,NNW,11.5,,0.38,,Partly Cloudy
1162,2016-02-14,1:51 PM,15.1,1.8,16.1,24%,30.51,10.0,NNW,11.5,16.1,0.11,,Partly Cloudy
1163,2016-02-14,2:51 PM,16.0,2.9,16.1,23%,30.50,10.0,NW,11.5,16.1,0.22,,Partly Cloudy
1164,2016-02-14,3:51 PM,17.1,4.3,16.1,22%,30.49,10.0,NW,11.5,,0.15,,Scattered Clouds
1165,2016-02-14,4:51 PM,16.0,4.4,15.0,24%,30.51,10.0,NNW,9.2,,N/A,,Partly Cloudy
1166,2016-02-14,5:51 PM,15.1,3.3,15.0,25%,30.53,10.0,NNW,9.2,,N/A,,Partly Cloudy
1167,2016-02-14,6:51 PM,16.0,8.8,15.0,24%,30.55,10.0,NNW,4.6,,N/A,,Clear
1168,2016-02-14,7:51 PM,16.0,4.4,14.1,26%,30.55,10.0,NNW,9.2,,N/A,,Partly Cloudy
1169,2016-02-14,8:51 PM,15.1,6.4,13.0,28%,30.56,10.0,NNW,5.8,,N/A,,Partly Cloudy
1170,2016-02-14,9:51 PM,14.0,6.5,8.0,37%,30.57,10.0,East,4.6,,N/A,,Scattered Clouds
1171,2016-02-14,10:51 PM,15.1,6.4,8.0,36%,30.56,10.0,NE,5.8,,N/A,,Mostly Cloudy
1172,2016-02-14,11:51 PM,16.0,8.8,9.9,31%,30.58,10.0,NE,4.6,,N/A,,Overcast
1173,2016-02-15,12:51 AM,15.1,9.4,6.0,39%,30.58,10.0,NNE,3.5,,N/A,,Overcast
1174,2016-02-15,1:51 AM,15.1,9.4,7.1,37%,30.58,10.0,ENE,3.5,,N/A,,Overcast
1175,2016-02-15,2:51 AM,15.1,6.4,6.0,39%,30.57,10.0,NE,5.8,,N/A,,Overcast
1176,2016-02-15,3:51 AM,12.9,3.8,7.1,41%,30.57,10.0,NE,5.8,,N/A,,Overcast
1177,2016-02-15,4:51 AM,12.9,2.6,5.1,45%,30.56,10.0,NE,6.9,,N/A,,Overcast
1178,2016-02-15,5:51 AM,15.1,6.4,6.0,39%,30.56,10.0,NE,5.8,,N/A,,Overcast
1179,2016-02-15,6:51 AM,16.0,7.4,5.1,39%,30.57,10.0,NE,5.8,,N/A,,Mostly Cloudy
1180,2016-02-15,7:51 AM,17.1,5.8,6.0,36%,30.57,10.0,NE,9.2,,N/A,,Overcast
1181,2016-02-15,8:51 AM,19.0,10.0,2.9,38%,30.57,10.0,NE,6.9,,N/A,,Overcast
1182,2016-02-15,9:51 AM,21.0,10.6,1.0,42%,30.54,9.0,ENE,9.2,,N/A,Snow,Light Snow
1183,2016-02-15,10:51 AM,23.0,13.9,6.1,48%,30.51,10.0,ENE,8.1,,N/A,,Overcast
1184,2016-02-15,11:05 AM,24.8,16.1,6.8,46%,30.51,10.0,ENE,8.1,,N/A,,Overcast
1185,2016-02-15,11:51 AM,25.0,17.1,12.0,58%,30.48,7.0,ENE,6.9,,N/A,Snow,Light Snow
1186,2016-02-15,12:51 PM,25.0,16.3,14.0,63%,30.44,4.0,NE,8.1,,N/A,Snow,Light Snow
1187,2016-02-15,1:41 PM,26.6,18.2,17.6,69%,30.41,1.5,ENE,8.1,,N/A,Snow,Light Snow
1188,2016-02-15,1:51 PM,26.1,17.6,18.0,71%,30.41,1.5,NE,8.1,,N/A,Snow,Light Snow
1189,2016-02-15,2:34 PM,26.6,17.5,21.2,80%,30.39,1.5,NE,9.2,,N/A,Snow,Light Snow
1190,2016-02-15,2:47 PM,26.6,17.5,21.2,80%,30.38,0.8,NE,9.2,,N/A,Snow,Light Snow
1191,2016-02-15,2:51 PM,27.0,18.0,23.0,85%,30.38,0.8,NE,9.2,,N/A,Snow,Light Snow
1192,2016-02-15,3:08 PM,26.6,17.5,23.0,86%,30.38,0.8,NE,9.2,,N/A,Snow,Light Snow
1193,2016-02-15,3:51 PM,27.0,18.0,24.1,89%,30.37,0.8,NNE,9.2,,N/A,Snow,Light Snow
1194,2016-02-15,4:51 PM,28.9,21.1,25.0,85%,30.33,0.8,NE,8.1,,N/A,Snow,Light Snow
1195,2016-02-15,5:25 PM,30.2,21.9,26.6,86%,30.30,1.0,ENE,9.2,,N/A,Snow,Light Snow
1196,2016-02-15,5:40 PM,30.2,23.4,28.4,93%,30.30,1.0,ENE,6.9,,N/A,Snow,Light Snow
1197,2016-02-15,5:51 PM,32.0,26.4,28.9,88%,30.29,1.0,ENE,5.8,,N/A,Snow,Light Snow
1198,2016-02-15,6:24 PM,33.8,29.6,30.2,87%,30.28,2.0,ENE,4.6,,N/A,"Ra
	,
Snow",Light Ice Pellets
1199,2016-02-15,6:41 PM,33.8,29.6,32.0,93%,30.27,2.0,NE,4.6,,N/A,Ra,Light Ra
1200,2016-02-15,6:51 PM,34.0,29.8,30.9,89%,30.26,2.0,NE,4.6,,N/A,Ra,Light Ra
1201,2016-02-15,7:26 PM,33.8,26.4,32.0,93%,30.23,2.0,NE,9.2,,N/A,Ra,Light Ra
1202,2016-02-15,7:51 PM,34.0,26.6,32.0,92%,30.21,2.0,NNE,9.2,,N/A,Ra,Light Ra
1203,2016-02-15,8:49 PM,35.6,29.9,33.8,93%,30.17,0.5,Variable,6.9,,N/A,Ra,Light Ra
1204,2016-02-15,8:51 PM,36.0,30.3,34.0,93%,30.18,0.5,NNE,6.9,,N/A,Ra,Light Ra
1205,2016-02-15,9:51 PM,39.0,,37.9,96%,30.14,0.5,Calm,Calm,,N/A,Ra,Ra
1206,2016-02-15,10:51 PM,43.0,39.5,41.0,93%,30.13,0.5,SW,5.8,,N/A,Ra,Light Ra
1207,2016-02-15,11:07 PM,39.2,35.9,37.4,93%,30.11,0.5,West,4.6,,N/A,Ra,Ra
1208,2016-02-15,11:51 PM,43.0,38.2,39.9,89%,30.10,0.5,SSW,8.1,,N/A,,Overcast
1209,2016-02-16,12:51 AM,44.1,37.4,41.0,89%,30.08,1.5,South,13.8,,N/A,,Overcast
1210,2016-02-16,1:39 AM,44.6,39.2,41.0,87%,30.07,5.0,South,10.4,,N/A,Ra,Light Ra
1211,2016-02-16,1:51 AM,44.1,38.6,41.0,89%,30.07,5.0,South,10.4,,N/A,,Overcast
1212,2016-02-16,2:43 AM,44.6,38.8,41.0,87%,30.05,6.0,South,11.5,,N/A,Ra,Light Ra
1213,2016-02-16,2:51 AM,44.1,38.1,41.0,89%,30.05,7.0,South,11.5,,N/A,,Overcast
1214,2016-02-16,3:51 AM,46.0,41.0,43.0,89%,30.03,8.0,South,10.4,,N/A,,Overcast
1215,2016-02-16,4:51 AM,48.0,,44.1,86%,29.99,10.0,SSE,18.4,,N/A,,Overcast
1216,2016-02-16,5:51 AM,48.9,,45.0,86%,29.96,10.0,SE,19.6,,N/A,,Overcast
1217,2016-02-16,6:51 AM,48.9,,45.0,86%,29.92,9.0,SSE,19.6,,N/A,,Mostly Cloudy
1218,2016-02-16,7:51 AM,50.0,,46.0,86%,29.89,8.0,SE,25.3,31.1,N/A,Ra,Light Ra
1219,2016-02-16,8:51 AM,50.0,,46.9,89%,29.85,8.0,SSE,24.2,34.5,N/A,,Overcast
1220,2016-02-16,9:51 AM,51.1,,46.9,86%,29.81,6.0,SE,20.7,,N/A,Ra,Light Ra
1221,2016-02-16,10:51 AM,51.1,,46.9,86%,29.77,8.0,SE,20.7,31.1,N/A,,Overcast
1222,2016-02-16,11:35 AM,51.8,,46.4,82%,29.69,7.0,ESE,21.9,28.8,N/A,,Overcast
1223,2016-02-16,11:51 AM,51.1,,48.0,89%,29.67,8.0,SE,21.9,32.2,N/A,,Overcast
1224,2016-02-16,12:51 PM,53.1,,50.0,89%,29.57,4.0,SSE,31.1,40.3,N/A,Ra,Light Ra
1225,2016-02-16,1:02 PM,51.8,,48.2,88%,29.56,4.0,SE,31.1,42.6,0.00,Ra,Light Ra
1226,2016-02-16,1:15 PM,51.8,,48.2,88%,29.55,2.5,SE,26.5,41.4,0.02,Ra,Light Ra
1227,2016-02-16,1:31 PM,51.8,,50.0,94%,29.54,2.5,SSE,29.9,40.3,0.05,Ra,Ra
1228,2016-02-16,1:51 PM,51.1,,48.0,89%,29.50,2.0,SE,25.3,38.0,0.11,Ra,Ra
1229,2016-02-16,2:51 PM,53.1,,50.0,89%,29.45,2.0,SSE,36.8,47.2,0.17,Ra,Heavy Ra
1230,2016-02-16,3:29 PM,50.0,,46.4,87%,29.47,1.8,South,33.4,44.9,0.05,,Overcast
1231,2016-02-16,3:48 PM,48.2,,46.4,93%,29.47,2.5,South,21.9,36.8,0.06,,Mostly Cloudy
1232,2016-02-16,3:51 PM,48.9,,46.0,90%,29.47,2.5,South,17.3,32.2,0.06,,Mostly Cloudy
1233,2016-02-16,4:26 PM,46.4,40.4,44.6,93%,29.49,3.0,South,13.8,,N/A,,Mostly Cloudy
1234,2016-02-16,4:49 PM,46.4,40.4,42.8,87%,29.51,3.0,South,13.8,,N/A,,Mostly Cloudy
1235,2016-02-16,4:51 PM,46.0,40.2,43.0,89%,29.51,3.0,South,12.7,,N/A,,Mostly Cloudy
1236,2016-02-16,5:18 PM,46.4,41.5,42.8,87%,29.50,6.0,South,10.4,,N/A,,Mostly Cloudy
1237,2016-02-16,5:49 PM,44.6,39.2,42.8,93%,29.53,7.0,SSW,10.4,,N/A,,Mostly Cloudy
1238,2016-02-16,5:51 PM,45.0,40.1,42.1,90%,29.53,7.0,SW,9.2,,N/A,,Mostly Cloudy
1239,2016-02-16,6:51 PM,48.0,,39.0,71%,29.57,10.0,West,20.7,32.2,N/A,,Overcast
1240,2016-02-16,7:51 PM,46.0,39.6,37.9,73%,29.62,10.0,WSW,15.0,,N/A,,Mostly Cloudy
1241,2016-02-16,8:32 PM,41.0,34.7,35.6,81%,29.64,10.0,SW,10.4,,N/A,,Scattered Clouds
1242,2016-02-16,8:51 PM,41.0,33.9,36.0,82%,29.65,10.0,SW,12.7,,N/A,,Scattered Clouds
1243,2016-02-16,9:51 PM,39.9,31.8,35.1,83%,29.74,10.0,WSW,15.0,,N/A,,Scattered Clouds
1244,2016-02-16,10:51 PM,41.0,32.8,30.9,67%,29.78,10.0,West,16.1,,N/A,,Scattered Clouds
1245,2016-02-16,11:51 PM,39.9,31.8,28.9,65%,29.81,10.0,NW,15.0,,N/A,,Mostly Cloudy
1246,2016-02-17,12:51 AM,37.9,28.5,27.0,65%,29.81,10.0,NW,17.3,,N/A,,Mostly Cloudy
1247,2016-02-17,1:51 AM,37.9,29.2,27.0,65%,29.81,10.0,NW,15.0,20.7,N/A,,Mostly Cloudy
1248,2016-02-17,2:51 AM,37.9,27.6,27.0,65%,29.81,10.0,NW,20.7,26.5,N/A,,Overcast
1249,2016-02-17,3:51 AM,37.9,29.2,27.0,65%,29.85,10.0,NW,15.0,21.9,N/A,,Overcast
1250,2016-02-17,4:51 AM,37.9,30.9,28.0,68%,29.89,10.0,NW,10.4,,N/A,,Overcast
1251,2016-02-17,5:51 AM,37.9,31.5,28.0,68%,29.90,10.0,NNW,9.2,,N/A,,Overcast
1252,2016-02-17,6:51 AM,37.9,30.5,28.0,68%,29.92,10.0,NW,11.5,,N/A,,Mostly Cloudy
1253,2016-02-17,7:30 AM,37.4,29.3,26.6,65%,29.94,10.0,NW,12.7,,N/A,,Mostly Cloudy
1254,2016-02-17,7:51 AM,39.0,32.8,27.0,62%,29.95,10.0,WNW,9.2,,N/A,,Mostly Cloudy
1255,2016-02-17,8:51 AM,39.9,32.9,27.0,60%,29.99,10.0,West,11.5,,N/A,,Mostly Cloudy
1256,2016-02-17,9:51 AM,39.9,31.8,26.1,58%,29.99,10.0,WNW,15.0,,N/A,,Mostly Cloudy
1257,2016-02-17,10:51 AM,41.0,34.3,27.0,57%,29.99,10.0,West,11.5,,N/A,,Overcast
1258,2016-02-17,11:51 AM,41.0,35.2,26.1,55%,30.01,10.0,NW,9.2,,N/A,,Mostly Cloudy
1259,2016-02-17,12:51 PM,41.0,33.9,26.1,55%,30.01,10.0,WNW,12.7,,N/A,,Overcast
1260,2016-02-17,1:51 PM,41.0,33.5,25.0,53%,30.01,10.0,NW,13.8,,N/A,,Overcast
1261,2016-02-17,2:51 PM,39.9,32.5,26.1,58%,30.04,10.0,WNW,12.7,,N/A,,Overcast
1262,2016-02-17,3:51 PM,39.9,32.5,26.1,58%,30.06,10.0,West,12.7,,N/A,,Overcast
1263,2016-02-17,4:51 PM,39.0,30.3,24.1,55%,30.07,10.0,WNW,16.1,24.2,N/A,,Overcast
1264,2016-02-17,5:51 PM,39.0,31.4,24.1,55%,30.12,10.0,West,12.7,,N/A,,Overcast
1265,2016-02-17,6:51 PM,39.0,30.3,21.9,50%,30.17,10.0,WNW,16.1,,N/A,,Overcast
1266,2016-02-17,7:51 PM,39.0,30.6,21.9,50%,30.17,10.0,WNW,15.0,,N/A,,Overcast
1267,2016-02-17,8:51 PM,37.9,31.5,24.1,57%,30.18,10.0,West,9.2,17.3,N/A,,Scattered Clouds
1268,2016-02-17,9:51 PM,37.0,30.4,25.0,62%,30.20,10.0,West,9.2,,N/A,,Partly Cloudy
1269,2016-02-17,10:51 PM,36.0,28.0,25.0,64%,30.20,10.0,West,11.5,,N/A,,Clear
1270,2016-02-17,11:51 PM,36.0,29.0,24.1,62%,30.21,10.0,West,9.2,,N/A,,Clear
1271,2016-02-18,12:51 AM,36.0,27.1,21.9,57%,30.22,10.0,NW,13.8,,N/A,,Clear
1272,2016-02-18,1:51 AM,35.1,25.9,19.9,54%,30.24,10.0,NW,13.8,,N/A,,Clear
1273,2016-02-18,2:51 AM,33.1,23.9,18.0,54%,30.26,10.0,NNW,12.7,,N/A,,Partly Cloudy
1274,2016-02-18,3:51 AM,32.0,20.5,16.0,52%,30.30,10.0,NW,18.4,23.0,N/A,,Scattered Clouds
1275,2016-02-18,4:51 AM,30.9,20.7,12.9,47%,30.32,10.0,NNW,13.8,,N/A,,Scattered Clouds
1276,2016-02-18,5:51 AM,30.9,19.1,12.0,46%,30.34,10.0,NNW,18.4,,N/A,,Partly Cloudy
1277,2016-02-18,6:51 AM,30.0,19.5,10.9,45%,30.36,10.0,NW,13.8,,N/A,,Scattered Clouds
1278,2016-02-18,7:51 AM,30.0,17.5,10.9,45%,30.38,10.0,NW,19.6,,N/A,,Scattered Clouds
1279,2016-02-18,8:51 AM,30.9,19.1,10.0,42%,30.40,10.0,NNW,18.4,24.2,N/A,,Mostly Cloudy
1280,2016-02-18,9:51 AM,32.0,21.2,8.1,37%,30.43,10.0,North,16.1,23.0,N/A,,Mostly Cloudy
1281,2016-02-18,10:51 AM,34.0,22.4,8.1,34%,30.43,10.0,NNW,20.7,26.5,N/A,,Scattered Clouds
1282,2016-02-18,11:51 AM,35.1,25.5,7.0,31%,30.43,10.0,NNW,15.0,23.0,N/A,,Scattered Clouds
1283,2016-02-18,12:51 PM,37.0,27.0,7.0,29%,30.43,10.0,NW,18.4,23.0,N/A,,Scattered Clouds
1284,2016-02-18,1:51 PM,36.0,27.1,5.0,27%,30.42,10.0,NW,13.8,23.0,N/A,,Partly Cloudy
1285,2016-02-18,2:51 PM,37.0,27.4,1.9,23%,30.42,10.0,North,17.3,,N/A,,Partly Cloudy
1286,2016-02-18,3:51 PM,37.0,28.1,0.0,21%,30.44,10.0,North,15.0,,N/A,,Partly Cloudy
1287,2016-02-18,4:51 PM,35.1,25.9,2.0,21%,30.45,10.0,North,13.8,,N/A,,Clear
1288,2016-02-18,5:51 PM,34.0,23.8,2.0,22%,30.47,10.0,North,16.1,,N/A,,Partly Cloudy
1289,2016-02-18,6:51 PM,33.1,23.0,1.0,26%,30.50,10.0,North,15.0,,N/A,,Clear
1290,2016-02-18,7:51 PM,30.9,20.2,0.0,27%,30.53,10.0,North,15.0,,N/A,,Clear
1291,2016-02-18,8:51 PM,30.0,19.5,0.9,27%,30.55,10.0,North,13.8,,N/A,,Clear
1292,2016-02-18,9:51 PM,30.0,19.1,0.0,28%,30.55,10.0,North,15.0,,N/A,,Partly Cloudy
1293,2016-02-18,10:51 PM,28.0,18.6,1.9,33%,30.55,10.0,North,10.4,,N/A,,Clear
1294,2016-02-18,11:51 PM,28.0,18.6,3.9,36%,30.53,10.0,North,10.4,,N/A,,Partly Cloudy
1295,2016-02-19,12:51 AM,26.1,15.6,6.1,43%,30.54,10.0,North,11.5,,N/A,,Clear
1296,2016-02-19,1:51 AM,26.1,16.2,5.0,41%,30.56,10.0,North,10.4,,N/A,,Clear
1297,2016-02-19,2:51 AM,25.0,17.1,6.1,45%,30.54,10.0,North,6.9,,N/A,,Clear
1298,2016-02-19,3:51 AM,24.1,17.0,7.0,48%,30.56,10.0,North,5.8,,N/A,,Clear
1299,2016-02-19,4:51 AM,24.1,17.0,7.0,48%,30.58,10.0,North,5.8,,N/A,,Clear
1300,2016-02-19,5:51 AM,24.1,17.0,8.1,51%,30.59,10.0,North,5.8,,N/A,,Clear
1301,2016-02-19,6:51 AM,24.1,16.0,9.0,53%,30.60,10.0,NNE,6.9,,N/A,,Partly Cloudy
1302,2016-02-19,7:51 AM,27.0,18.7,7.0,43%,30.61,10.0,NNE,8.1,,N/A,,Mostly Cloudy
1303,2016-02-19,8:51 AM,30.0,25.2,6.1,36%,30.62,10.0,NE,4.6,,N/A,,Mostly Cloudy
1304,2016-02-19,9:51 AM,32.0,,7.0,35%,30.61,10.0,Calm,Calm,,N/A,,Mostly Cloudy
1305,2016-02-19,10:51 AM,32.0,,9.0,38%,30.59,10.0,Calm,Calm,,N/A,,Mostly Cloudy
1306,2016-02-19,11:51 AM,33.1,27.7,10.9,40%,30.58,10.0,SSW,5.8,,N/A,,Mostly Cloudy
1307,2016-02-19,12:51 PM,33.1,26.9,15.1,48%,30.53,10.0,SSW,6.9,,N/A,,Mostly Cloudy
1308,2016-02-19,1:51 PM,34.0,27.2,18.0,52%,30.49,10.0,SSE,8.1,,N/A,,Mostly Cloudy
1309,2016-02-19,2:51 PM,35.1,28.6,18.0,50%,30.45,10.0,SE,8.1,,N/A,,Mostly Cloudy
1310,2016-02-19,3:51 PM,35.1,25.9,21.0,57%,30.40,10.0,SSE,13.8,,N/A,,Mostly Cloudy
1311,2016-02-19,4:51 PM,35.1,26.9,23.0,61%,30.38,10.0,SSE,11.5,,N/A,,Mostly Cloudy
1312,2016-02-19,5:51 PM,36.0,29.0,25.0,64%,30.35,10.0,SSE,9.2,,N/A,,Overcast
1313,2016-02-19,6:16 PM,37.4,27.8,26.6,65%,30.35,10.0,SSE,17.3,,N/A,,Overcast
1314,2016-02-19,6:51 PM,37.9,27.9,26.1,62%,30.33,10.0,South,19.6,,N/A,,Overcast
1315,2016-02-19,7:02 PM,37.4,29.3,26.6,65%,30.32,10.0,South,12.7,25.3,N/A,,Overcast
1316,2016-02-19,7:51 PM,37.9,27.9,28.0,68%,30.31,10.0,South,19.6,,N/A,,Overcast
1317,2016-02-19,8:51 PM,39.0,30.6,30.0,70%,30.30,10.0,South,15.0,,N/A,,Overcast
1318,2016-02-19,9:51 PM,39.9,30.5,33.1,77%,30.29,10.0,SSW,19.6,,N/A,,Overcast
1319,2016-02-19,10:51 PM,41.0,33.1,35.1,79%,30.26,10.0,South,15.0,,N/A,,Overcast
1320,2016-02-19,11:51 PM,41.0,33.9,36.0,82%,30.22,10.0,South,12.7,,N/A,,Overcast
1321,2016-02-20,12:51 AM,41.0,33.1,37.0,86%,30.17,10.0,South,15.0,,N/A,,Overcast
1322,2016-02-20,1:51 AM,42.1,33.9,37.0,82%,30.13,10.0,South,17.3,,N/A,,Overcast
1323,2016-02-20,2:51 AM,42.1,33.1,36.0,79%,30.08,10.0,South,20.7,,N/A,,Overcast
1324,2016-02-20,3:51 AM,42.1,33.3,35.1,76%,30.05,10.0,South,19.6,,N/A,,Overcast
1325,2016-02-20,4:51 AM,42.1,33.6,34.0,73%,30.02,10.0,South,18.4,,N/A,,Overcast
1326,2016-02-20,5:51 AM,41.0,33.9,34.0,76%,29.99,10.0,South,12.7,,N/A,,Overcast
1327,2016-02-20,6:51 AM,42.1,37.1,32.0,67%,29.99,10.0,SW,8.1,,N/A,,Mostly Cloudy
1328,2016-02-20,7:51 AM,43.0,36.4,30.9,62%,30.00,10.0,WSW,12.7,,N/A,,Scattered Clouds
1329,2016-02-20,8:51 AM,46.9,,28.9,50%,30.00,10.0,WSW,17.3,,N/A,,Scattered Clouds
1330,2016-02-20,9:51 AM,50.0,,30.0,46%,29.98,10.0,WSW,18.4,,N/A,,Mostly Cloudy
1331,2016-02-20,10:51 AM,52.0,,30.9,45%,29.96,10.0,WSW,13.8,,N/A,,Mostly Cloudy
1332,2016-02-20,11:51 AM,53.1,,32.0,45%,29.95,10.0,SW,15.0,,N/A,,Mostly Cloudy
1333,2016-02-20,12:51 PM,55.0,,33.1,43%,29.92,10.0,SW,17.3,23.0,N/A,,Mostly Cloudy
1334,2016-02-20,1:51 PM,55.0,,34.0,45%,29.91,10.0,WSW,18.4,,N/A,,Mostly Cloudy
1335,2016-02-20,2:51 PM,57.0,,34.0,42%,29.89,10.0,WSW,12.7,,N/A,,Mostly Cloudy
1336,2016-02-20,3:51 PM,57.9,,34.0,41%,29.86,10.0,WSW,16.1,,N/A,,Scattered Clouds
1337,2016-02-20,4:51 PM,55.0,,34.0,45%,29.85,10.0,WSW,15.0,,N/A,,Partly Cloudy
1338,2016-02-20,5:51 PM,52.0,,33.1,49%,29.84,10.0,SSW,11.5,,N/A,,Partly Cloudy
1339,2016-02-20,6:51 PM,46.9,,33.1,59%,29.86,10.0,Calm,Calm,,N/A,,Clear
1340,2016-02-20,7:51 PM,46.9,,36.0,66%,29.87,10.0,SSW,11.5,,N/A,,Clear
1341,2016-02-20,8:51 PM,50.0,,36.0,59%,29.87,10.0,SW,15.0,20.7,N/A,,Clear
1342,2016-02-20,9:51 PM,48.9,,35.1,59%,29.86,10.0,WSW,10.4,,N/A,,Clear
1343,2016-02-20,10:51 PM,46.9,,36.0,66%,29.84,10.0,WSW,5.8,,N/A,,Partly Cloudy
1344,2016-02-20,11:51 PM,46.9,,36.0,66%,29.83,10.0,SW,8.1,,N/A,,Partly Cloudy
1345,2016-02-21,12:51 AM,46.0,41.4,36.0,68%,29.83,10.0,SW,9.2,,N/A,,Partly Cloudy
1346,2016-02-21,1:51 AM,48.9,,37.0,64%,29.85,10.0,West,9.2,,N/A,,Scattered Clouds
1347,2016-02-21,2:51 AM,42.1,37.7,35.1,76%,29.85,10.0,SW,6.9,,N/A,,Partly Cloudy
1348,2016-02-21,3:51 AM,42.1,37.7,35.1,76%,29.88,10.0,West,6.9,,N/A,,Clear
1349,2016-02-21,4:51 AM,48.0,,37.0,66%,29.90,10.0,West,8.1,,N/A,,Partly Cloudy
1350,2016-02-21,5:51 AM,39.9,35.1,34.0,79%,29.91,10.0,West,6.9,,N/A,,Scattered Clouds
1351,2016-02-21,6:51 AM,44.1,41.5,36.0,73%,29.93,10.0,West,4.6,,N/A,,Mostly Cloudy
1352,2016-02-21,7:51 AM,45.0,40.6,36.0,71%,29.96,10.0,WSW,8.1,,N/A,,Mostly Cloudy
1353,2016-02-21,8:51 AM,52.0,,36.0,54%,29.96,10.0,WNW,5.8,,N/A,,Mostly Cloudy
1354,2016-02-21,9:51 AM,55.0,,32.0,42%,29.95,10.0,NW,11.5,,N/A,,Mostly Cloudy
1355,2016-02-21,10:51 AM,55.9,,30.9,39%,29.94,10.0,NNW,12.7,,N/A,,Mostly Cloudy
1356,2016-02-21,11:51 AM,55.9,,30.9,39%,29.94,10.0,NNW,6.9,,N/A,,Mostly Cloudy
1357,2016-02-21,12:51 PM,55.9,,30.0,37%,29.92,10.0,NNW,8.1,,N/A,,Overcast
1358,2016-02-21,1:51 PM,55.9,,30.0,37%,29.89,10.0,North,12.7,,N/A,,Mostly Cloudy
1359,2016-02-21,2:51 PM,55.9,,30.0,37%,29.90,10.0,East,4.6,,N/A,,Mostly Cloudy
1360,2016-02-21,3:51 PM,55.0,,30.0,38%,29.91,10.0,Calm,Calm,,N/A,,Overcast
1361,2016-02-21,4:51 PM,51.1,,34.0,52%,29.90,10.0,ESE,3.5,,N/A,,Overcast
1362,2016-02-21,5:51 PM,50.0,,34.0,54%,29.93,10.0,SSE,6.9,,N/A,,Overcast
1363,2016-02-21,6:51 PM,50.0,,34.0,54%,29.94,10.0,Calm,Calm,,0.00,Ra,Light Ra
1364,2016-02-21,7:51 PM,48.9,,36.0,61%,29.95,10.0,NE,4.6,,0.02,Ra,Light Ra
1365,2016-02-21,8:51 PM,48.0,,41.0,77%,29.96,10.0,ENE,6.9,,0.03,Ra,Light Ra
1366,2016-02-21,9:51 PM,48.0,,42.1,80%,29.97,10.0,NNE,6.9,,0.02,Ra,Light Ra
1367,2016-02-21,10:51 PM,45.0,39.7,39.0,80%,29.99,10.0,NNE,10.4,,0.01,Ra,Light Ra
1368,2016-02-21,11:51 PM,44.1,38.1,39.0,82%,29.97,10.0,NE,11.5,,0.00,,Overcast
1369,2016-02-22,12:51 AM,43.0,36.8,37.0,80%,29.99,10.0,NNE,11.5,,N/A,,Overcast
1370,2016-02-22,1:51 AM,42.1,37.1,35.1,76%,29.98,10.0,NNE,8.1,,N/A,,Overcast
1371,2016-02-22,2:51 AM,42.1,36.1,32.0,67%,29.99,10.0,NNE,10.4,,N/A,,Mostly Cloudy
1372,2016-02-22,3:51 AM,39.0,33.4,30.0,70%,30.01,10.0,North,8.1,,N/A,,Scattered Clouds
1373,2016-02-22,4:51 AM,39.0,32.8,28.9,67%,30.04,10.0,North,9.2,,N/A,,Scattered Clouds
1374,2016-02-22,5:51 AM,39.0,31.4,28.9,67%,30.06,10.0,North,12.7,,N/A,,Scattered Clouds
1375,2016-02-22,6:51 AM,37.9,32.7,28.0,68%,30.10,10.0,North,6.9,,N/A,,Scattered Clouds
1376,2016-02-22,7:51 AM,41.0,34.3,28.9,62%,30.14,10.0,North,11.5,,N/A,,Scattered Clouds
1377,2016-02-22,8:51 AM,44.1,38.6,28.9,55%,30.15,10.0,NNE,10.4,,N/A,,Scattered Clouds
1378,2016-02-22,9:51 AM,46.0,40.2,26.1,46%,30.16,10.0,North,12.7,,N/A,,Scattered Clouds
1379,2016-02-22,10:51 AM,46.9,,26.1,44%,30.15,10.0,Variable,4.6,,N/A,,Scattered Clouds
1380,2016-02-22,11:51 AM,48.9,,26.1,41%,30.14,10.0,Calm,Calm,,N/A,,Partly Cloudy
1381,2016-02-22,12:51 PM,50.0,,23.0,35%,30.13,10.0,Calm,Calm,,N/A,,Partly Cloudy
1382,2016-02-22,1:02 PM,48.2,,28.4,46%,30.13,10.0,WSW,10.4,,N/A,,Partly Cloudy
1383,2016-02-22,1:51 PM,48.9,,26.1,41%,30.12,10.0,SW,5.8,,N/A,,Partly Cloudy
1384,2016-02-22,2:51 PM,48.0,,28.0,46%,30.13,10.0,SSW,11.5,,N/A,,Scattered Clouds
1385,2016-02-22,3:51 PM,46.9,,28.9,50%,30.13,10.0,South,9.2,,N/A,,Scattered Clouds
1386,2016-02-22,4:51 PM,46.9,,28.0,48%,30.16,10.0,South,6.9,,N/A,,Mostly Cloudy
1387,2016-02-22,5:51 PM,43.0,37.7,30.0,60%,30.19,10.0,South,9.2,,N/A,,Mostly Cloudy
1388,2016-02-22,6:51 PM,41.0,35.8,33.1,73%,30.22,10.0,SSW,8.1,,N/A,,Mostly Cloudy
1389,2016-02-22,7:51 PM,39.9,37.8,34.0,79%,30.24,10.0,SSW,3.5,,N/A,,Mostly Cloudy
1390,2016-02-22,8:51 PM,39.9,,34.0,79%,30.25,10.0,Calm,Calm,,N/A,,Mostly Cloudy
1391,2016-02-22,9:51 PM,37.0,,32.0,82%,30.27,10.0,Calm,Calm,,N/A,,Mostly Cloudy
1392,2016-02-22,10:51 PM,37.0,31.0,33.1,86%,30.27,10.0,ENE,8.1,,N/A,,Mostly Cloudy
1393,2016-02-22,11:51 PM,39.0,32.3,27.0,62%,30.28,10.0,NE,10.4,,N/A,,Mostly Cloudy
1394,2016-02-23,12:51 AM,37.9,31.5,19.0,47%,30.28,10.0,NE,9.2,,N/A,,Overcast
1395,2016-02-23,1:51 AM,37.0,29.8,17.1,44%,30.29,10.0,NE,10.4,,N/A,,Overcast
1396,2016-02-23,2:51 AM,37.0,30.4,18.0,46%,30.29,10.0,NE,9.2,,N/A,,Overcast
1397,2016-02-23,3:51 AM,36.0,29.6,21.9,57%,30.29,10.0,NE,8.1,,N/A,,Mostly Cloudy
1398,2016-02-23,4:51 AM,37.0,29.8,26.1,65%,30.29,10.0,NE,10.4,,N/A,,Overcast
1399,2016-02-23,5:51 AM,37.0,29.8,30.0,76%,30.30,10.0,NE,10.4,,N/A,,Overcast
1400,2016-02-23,6:51 AM,39.0,31.4,34.0,82%,30.31,10.0,ENE,12.7,,N/A,,Overcast
1401,2016-02-23,7:51 AM,42.1,33.3,35.1,76%,30.31,10.0,East,19.6,24.2,N/A,,Overcast
1402,2016-02-23,8:51 AM,42.1,33.9,33.1,70%,30.33,10.0,ENE,17.3,25.3,N/A,,Overcast
1403,2016-02-23,9:51 AM,42.1,34.2,30.9,65%,30.32,10.0,ENE,16.1,25.3,N/A,,Overcast
1404,2016-02-23,10:51 AM,43.0,36.4,30.9,62%,30.31,10.0,East,12.7,28.8,N/A,,Overcast
1405,2016-02-23,11:51 AM,41.0,31.9,35.1,79%,30.30,9.0,ENE,19.6,28.8,0.01,Ra,Light Ra
1406,2016-02-23,12:51 PM,41.0,32.2,36.0,82%,30.26,9.0,ENE,18.4,24.2,0.03,Ra,Light Ra
1407,2016-02-23,1:51 PM,41.0,32.2,37.0,86%,30.24,9.0,ENE,18.4,,0.07,Ra,Light Ra
1408,2016-02-23,2:27 PM,39.2,29.8,37.4,93%,30.24,2.5,NE,18.4,23.0,0.02,Ra,Light Ra
1409,2016-02-23,2:51 PM,39.9,31.4,37.0,89%,30.23,2.5,ENE,16.1,,0.06,Ra,Light Ra
1410,2016-02-23,3:44 PM,39.2,29.3,35.6,87%,30.24,10.0,ENE,20.7,29.9,0.01,Ra,Light Ra
1411,2016-02-23,3:51 PM,39.9,30.5,36.0,86%,30.24,10.0,ENE,19.6,26.5,0.01,Ra,Light Ra
1412,2016-02-23,4:51 PM,39.0,29.3,35.1,86%,30.25,9.0,NE,19.6,,0.01,Ra,Light Ra
1413,2016-02-23,5:51 PM,37.9,28.5,35.1,89%,30.24,10.0,ENE,17.3,26.5,0.02,Ra,Light Ra
1414,2016-02-23,6:51 PM,37.9,28.2,34.0,86%,30.25,10.0,NE,18.4,25.3,0.00,,Overcast
1415,2016-02-23,7:48 PM,37.4,26.6,33.8,87%,30.24,7.0,NE,21.9,28.8,0.01,Ra,Light Ra
1416,2016-02-23,7:51 PM,37.9,28.2,34.0,86%,30.24,7.0,NE,18.4,29.9,0.02,Ra,Light Ra
1417,2016-02-23,8:24 PM,37.4,28.2,33.8,87%,30.23,9.0,ENE,16.1,26.5,0.01,Ra,Light Ra
1418,2016-02-23,8:51 PM,37.9,28.5,34.0,86%,30.23,10.0,ENE,17.3,25.3,0.02,Ra,Light Ra
1419,2016-02-23,9:51 PM,37.9,28.5,34.0,86%,30.22,7.0,ENE,17.3,24.2,0.00,Ra,Light Ra
1420,2016-02-23,10:35 PM,37.4,28.2,33.8,87%,30.21,5.0,NE,16.1,,0.01,Ra,Light Ra
1421,2016-02-23,10:51 PM,37.9,28.5,35.1,89%,30.19,5.0,NE,17.3,23.0,0.02,Ra,Light Ra
1422,2016-02-23,11:51 PM,37.9,28.9,35.1,89%,30.18,5.0,NE,16.1,,0.02,Ra,Light Ra
1423,2016-02-24,12:51 AM,37.9,30.5,36.0,93%,30.17,5.0,ENE,11.5,,0.01,Ra,Light Ra
1424,2016-02-24,1:51 AM,39.0,31.4,36.0,89%,30.15,7.0,NE,12.7,,0.01,Ra,Light Ra
1425,2016-02-24,2:51 AM,39.0,31.4,37.0,93%,30.11,4.0,NE,12.7,,0.01,Ra,Light Ra
1426,2016-02-24,3:51 AM,39.9,32.1,37.9,93%,30.09,5.0,NE,13.8,,0.01,Ra,Light Ra
1427,2016-02-24,4:35 AM,41.0,33.9,39.2,93%,30.08,2.0,NE,12.7,,0.03,Ra,Light Ra
1428,2016-02-24,4:51 AM,41.0,34.3,39.0,93%,30.08,2.0,NE,11.5,,0.04,Ra,Light Ra
1429,2016-02-24,5:51 AM,41.0,34.3,39.0,93%,30.07,2.0,ENE,11.5,,0.01,Ra,Light Ra
1430,2016-02-24,6:21 AM,42.8,37.5,39.2,87%,30.05,2.0,NE,9.2,,0.01,Ra,Light Ra
1431,2016-02-24,6:51 AM,42.1,34.9,39.9,92%,30.04,1.0,NE,13.8,,0.02,Ra,Light Ra
1432,2016-02-24,7:51 AM,43.0,36.4,41.0,93%,30.01,0.5,NE,12.7,,0.02,,Light Drizzle
1433,2016-02-24,8:51 AM,44.1,37.4,42.1,93%,29.99,0.2,NE,13.8,,0.00,,Light Drizzle
1434,2016-02-24,9:51 AM,46.0,40.6,45.0,96%,29.94,0.8,ENE,11.5,,0.04,Ra,Light Ra
1435,2016-02-24,10:51 AM,48.9,,46.9,93%,29.91,0.5,East,11.5,20.7,0.02,Ra,Light Ra
1436,2016-02-24,11:11 AM,48.2,,46.4,93%,29.90,1.5,East,15.0,,0.04,Ra,Light Ra
1437,2016-02-24,11:33 AM,48.2,,46.4,93%,29.87,2.0,East,10.4,,0.12,Ra,Ra
1438,2016-02-24,11:51 AM,48.9,,46.9,93%,29.86,6.0,East,16.1,21.9,0.14,Ra,Light Ra
1439,2016-02-24,11:59 AM,48.2,,46.4,93%,29.85,2.0,East,12.7,,0.00,Ra,Ra
1440,2016-02-24,12:51 PM,50.0,,48.0,93%,29.80,2.0,ENE,9.2,,0.26,Ra,Ra
1441,2016-02-24,1:22 PM,51.8,,50.0,94%,29.78,1.5,Calm,Calm,,0.09,Ra,Ra
1442,2016-02-24,1:51 PM,52.0,,48.9,89%,29.76,1.5,South,8.1,,0.22,Ra,Heavy Ra
1443,2016-02-24,2:36 PM,53.6,,51.8,94%,29.74,0.2,South,17.3,24.2,0.05,Fog,Fog
1444,2016-02-24,2:51 PM,54.0,,52.0,93%,29.73,0.2,South,17.3,26.5,0.05,Fog,Fog
1445,2016-02-24,3:51 PM,55.0,,53.1,93%,29.68,0.2,SSE,26.5,35.7,0.01,Ra,Light Ra
1446,2016-02-24,4:13 PM,55.4,,53.6,94%,29.67,2.0,SSE,21.9,31.1,0.02,,Overcast
1447,2016-02-24,4:51 PM,54.0,,51.1,90%,29.64,2.0,SSE,24.2,31.1,0.03,,Overcast
1448,2016-02-24,5:14 PM,53.6,,51.8,94%,29.63,0.8,SSE,21.9,,0.01,,Overcast
1449,2016-02-24,5:39 PM,55.4,,53.6,94%,29.61,1.5,SSE,25.3,34.5,0.01,,Overcast
1450,2016-02-24,5:51 PM,55.0,,52.0,89%,29.61,1.5,SSE,24.2,34.5,0.01,,Overcast
1451,2016-02-24,5:59 PM,53.6,,51.8,94%,29.61,0.5,SSE,23.0,35.7,0.00,Ra,Light Ra
1452,2016-02-24,6:51 PM,54.0,,52.0,93%,29.57,0.5,SSE,25.3,33.4,0.02,,Overcast
1453,2016-02-24,7:51 PM,54.0,,52.0,93%,29.51,0.5,SSE,28.8,38.0,0.02,,Overcast
1454,2016-02-24,8:51 PM,55.0,,53.1,93%,29.48,0.5,SSE,28.8,40.3,0.00,Ra,Light Ra
1455,2016-02-24,9:51 PM,55.0,,52.0,89%,29.42,0.5,SSE,32.2,41.4,0.03,,Overcast
1456,2016-02-24,10:25 PM,55.4,,53.6,94%,29.39,5.0,SSE,34.5,43.7,0.02,Ra,Light Ra
1457,2016-02-24,10:51 PM,55.9,,54.0,93%,29.36,5.0,SSE,33.4,44.9,0.02,,Overcast
1458,2016-02-24,11:29 PM,57.2,,55.4,94%,29.30,5.0,SSE,35.7,52.9,0.00,Ra,Light Ra
1459,2016-02-24,11:51 PM,57.0,,54.0,89%,29.37,4.0,South,42.6,54.1,0.01,Ra,Ra
1460,2016-02-25,12:51 AM,55.0,,53.1,93%,29.34,6.0,South,27.6,36.8,0.05,Ra,Light Ra
1461,2016-02-25,1:51 AM,54.0,,52.0,93%,29.33,0.5,South,28.8,35.7,0.03,,Mostly Cloudy
1462,2016-02-25,2:51 AM,53.1,,50.0,89%,29.31,0.2,South,23.0,,N/A,,Overcast
1463,2016-02-25,3:51 AM,50.0,,48.0,93%,29.29,0.2,South,24.2,,N/A,Fog,Fog
1464,2016-02-25,4:51 AM,48.0,,46.0,93%,29.27,0.2,South,17.3,,N/A,,Overcast
1465,2016-02-25,5:34 AM,46.4,39.5,44.6,93%,29.27,0.2,South,17.3,,N/A,,Mist
1466,2016-02-25,5:49 AM,46.4,39.5,44.6,93%,29.27,0.2,South,17.3,,N/A,Fog,Fog
1467,2016-02-25,5:51 AM,46.0,39.3,44.1,93%,29.27,0.2,South,16.1,,N/A,Fog,Fog
1468,2016-02-25,6:14 AM,46.4,39.8,44.6,93%,29.27,6.0,South,16.1,,N/A,,Scattered Clouds
1469,2016-02-25,6:51 AM,46.0,39.6,43.0,89%,29.27,7.0,South,15.0,,N/A,,Scattered Clouds
1470,2016-02-25,7:51 AM,48.0,,43.0,83%,29.27,10.0,South,18.4,,N/A,,Scattered Clouds
1471,2016-02-25,8:51 AM,48.9,,42.1,77%,29.26,10.0,South,17.3,,N/A,,Mostly Cloudy
1472,2016-02-25,9:51 AM,50.0,,42.1,74%,29.26,10.0,SW,23.0,32.2,N/A,,Mostly Cloudy
1473,2016-02-25,10:51 AM,50.0,,43.0,77%,29.29,10.0,SW,21.9,,N/A,,Overcast
1474,2016-02-25,11:17 AM,46.4,38.3,42.8,87%,29.29,10.0,SW,23.0,29.9,0.00,Ra,Light Ra
1475,2016-02-25,11:51 AM,50.0,,43.0,77%,29.29,10.0,WSW,24.2,29.9,0.00,,Mostly Cloudy
1476,2016-02-25,12:51 PM,48.9,,39.0,69%,29.29,10.0,West,24.2,29.9,N/A,,Mostly Cloudy
1477,2016-02-25,1:20 PM,50.0,,35.6,58%,29.28,10.0,WSW,23.0,,N/A,,Mostly Cloudy
1478,2016-02-25,1:51 PM,50.0,,34.0,54%,29.30,10.0,West,21.9,32.2,N/A,,Mostly Cloudy
1479,2016-02-25,2:51 PM,48.0,,32.0,54%,29.34,10.0,WSW,29.9,36.8,N/A,,Overcast
1480,2016-02-25,3:51 PM,46.0,37.8,32.0,58%,29.36,10.0,WSW,23.0,31.1,0.00,Ra,Light Ra
1481,2016-02-25,4:51 PM,43.0,32.4,30.9,62%,29.40,10.0,WSW,31.1,41.4,0.00,,Overcast
1482,2016-02-25,5:51 PM,42.1,31.5,30.9,65%,29.43,10.0,WSW,28.8,35.7,N/A,,Overcast
1483,2016-02-25,6:51 PM,42.1,31.3,30.9,65%,29.46,10.0,WSW,29.9,38.0,N/A,,Overcast
1484,2016-02-25,7:51 PM,41.0,30.7,32.0,70%,29.48,10.0,WSW,25.3,33.4,N/A,,Overcast
1485,2016-02-25,8:51 PM,41.0,30.9,32.0,70%,29.49,10.0,WSW,24.2,29.9,N/A,,Overcast
1486,2016-02-25,9:51 PM,41.0,30.7,28.9,62%,29.52,10.0,West,25.3,35.7,N/A,,Mostly Cloudy
1487,2016-02-25,10:51 PM,41.0,31.1,28.0,60%,29.55,10.0,West,23.0,32.2,N/A,,Overcast
1488,2016-02-25,11:51 PM,39.0,29.6,30.9,73%,29.57,10.0,West,18.4,,0.00,,Overcast
1489,2016-02-26,12:51 AM,39.0,28.8,25.0,57%,29.60,10.0,WNW,21.9,33.4,N/A,,Overcast
1490,2016-02-26,1:51 AM,37.0,25.4,18.0,46%,29.64,10.0,WNW,25.3,33.4,N/A,,Mostly Cloudy
1491,2016-02-26,2:51 AM,37.0,27.7,19.0,48%,29.65,10.0,WNW,16.1,28.8,N/A,,Overcast
1492,2016-02-26,3:51 AM,37.0,26.2,19.9,50%,29.66,10.0,WNW,21.9,32.2,N/A,,Overcast
1493,2016-02-26,4:51 AM,36.0,25.0,18.0,48%,29.70,10.0,West,20.7,33.4,N/A,,Overcast
1494,2016-02-26,5:51 AM,35.1,23.0,17.1,48%,29.74,10.0,WNW,24.2,32.2,N/A,,Mostly Cloudy
1495,2016-02-26,6:51 AM,34.0,22.4,15.1,46%,29.77,10.0,WNW,20.7,31.1,N/A,,Scattered Clouds
1496,2016-02-26,7:51 AM,34.0,23.4,12.9,42%,29.81,10.0,WNW,17.3,31.1,N/A,,Scattered Clouds
1497,2016-02-26,8:51 AM,35.1,22.5,10.9,37%,29.83,10.0,NW,26.5,36.8,N/A,,Partly Cloudy
1498,2016-02-26,9:51 AM,36.0,25.0,10.9,36%,29.86,10.0,WNW,20.7,29.9,N/A,,Partly Cloudy
1499,2016-02-26,10:51 AM,37.9,27.3,10.0,32%,29.88,10.0,NW,21.9,29.9,N/A,,Partly Cloudy
1500,2016-02-26,11:51 AM,37.9,29.2,9.0,30%,29.88,10.0,WNW,15.0,32.2,N/A,,Partly Cloudy
1501,2016-02-26,12:51 PM,37.9,27.9,10.0,32%,29.89,10.0,NW,19.6,31.1,N/A,,Scattered Clouds
1502,2016-02-26,1:51 PM,37.9,26.1,7.0,28%,29.88,10.0,WNW,27.6,33.4,N/A,,Scattered Clouds
1503,2016-02-26,2:51 PM,37.9,26.6,3.0,23%,29.90,10.0,NW,25.3,35.7,N/A,,Partly Cloudy
1504,2016-02-26,3:51 PM,37.9,26.3,1.0,21%,29.93,10.0,NNW,26.5,34.5,N/A,,Partly Cloudy
1505,2016-02-26,4:51 PM,36.0,23.9,0.9,21%,29.96,10.0,NW,25.3,,N/A,,Scattered Clouds
1506,2016-02-26,5:51 PM,34.0,22.4,1.0,25%,30.01,10.0,NW,20.7,26.5,N/A,,Scattered Clouds
1507,2016-02-26,6:51 PM,33.1,21.9,1.0,26%,30.05,10.0,NW,18.4,,N/A,,Partly Cloudy
1508,2016-02-26,7:51 PM,32.0,20.5,1.0,27%,30.07,10.0,NNW,18.4,24.2,N/A,,Partly Cloudy
1509,2016-02-26,8:51 PM,30.9,20.7,3.0,31%,30.09,10.0,NNW,13.8,,N/A,,Partly Cloudy
1510,2016-02-26,9:51 PM,30.0,19.5,5.0,35%,30.10,10.0,NNW,13.8,,N/A,,Partly Cloudy
1511,2016-02-26,10:51 PM,28.9,18.2,7.0,40%,30.11,10.0,NW,13.8,,N/A,,Clear
1512,2016-02-26,11:51 PM,28.9,16.1,7.0,40%,30.11,10.0,NW,19.6,27.6,N/A,,Partly Cloudy
1513,2016-02-27,12:51 AM,28.0,14.9,7.0,41%,30.12,10.0,NW,19.6,27.6,N/A,,Partly Cloudy
1514,2016-02-27,1:51 AM,28.0,15.7,8.1,43%,30.12,10.0,NW,17.3,24.2,N/A,,Partly Cloudy
1515,2016-02-27,2:51 AM,28.0,14.6,8.1,43%,30.13,10.0,NW,20.7,27.6,N/A,,Partly Cloudy
1516,2016-02-27,3:51 AM,28.0,15.3,9.0,45%,30.12,10.0,NW,18.4,25.3,N/A,,Scattered Clouds
1517,2016-02-27,4:51 AM,28.0,16.1,9.0,45%,30.13,10.0,NW,16.1,21.9,N/A,,Mostly Cloudy
1518,2016-02-27,5:51 AM,28.0,18.6,9.0,45%,30.15,10.0,WNW,10.4,,N/A,,Mostly Cloudy
1519,2016-02-27,6:51 AM,28.0,20.8,10.0,47%,30.15,10.0,WNW,6.9,,N/A,,Mostly Cloudy
1520,2016-02-27,7:51 AM,30.9,22.2,10.9,43%,30.16,10.0,West,10.4,,N/A,,Mostly Cloudy
1521,2016-02-27,8:51 AM,33.1,23.9,12.0,42%,30.16,10.0,West,12.7,18.4,N/A,,Mostly Cloudy
1522,2016-02-27,9:51 AM,34.0,26.6,12.0,40%,30.15,10.0,West,9.2,17.3,N/A,,Mostly Cloudy
1523,2016-02-27,10:51 AM,35.1,25.9,12.9,40%,30.13,10.0,West,13.8,,N/A,,Mostly Cloudy
1524,2016-02-27,11:51 AM,35.1,26.9,12.9,40%,30.11,10.0,SW,11.5,,N/A,,Scattered Clouds
1525,2016-02-27,12:51 PM,37.0,29.3,12.9,37%,30.07,10.0,SW,11.5,,N/A,,Scattered Clouds
1526,2016-02-27,1:51 PM,37.9,29.6,16.0,41%,30.05,10.0,South,13.8,,N/A,,Partly Cloudy
1527,2016-02-27,2:51 PM,37.9,30.0,17.1,43%,30.03,10.0,South,12.7,,N/A,,Clear
1528,2016-02-27,3:51 PM,39.0,31.4,18.0,43%,30.02,10.0,South,12.7,,N/A,,Partly Cloudy
1529,2016-02-27,4:51 PM,39.0,31.4,18.0,43%,30.00,10.0,South,12.7,,N/A,,Scattered Clouds
1530,2016-02-27,5:51 PM,39.9,31.4,19.9,45%,30.01,10.0,SW,16.1,,N/A,,Scattered Clouds
1531,2016-02-27,6:51 PM,39.0,30.6,21.9,50%,30.02,10.0,WSW,15.0,,N/A,,Mostly Cloudy
1532,2016-02-27,7:51 PM,39.0,30.3,21.0,49%,30.02,10.0,WSW,16.1,,N/A,,Scattered Clouds
1533,2016-02-27,8:51 PM,39.0,30.6,21.9,50%,30.02,10.0,WSW,15.0,,N/A,,Scattered Clouds
1534,2016-02-27,9:51 PM,39.0,30.3,23.0,53%,30.02,10.0,WSW,16.1,,N/A,,Mostly Cloudy
1535,2016-02-27,10:51 PM,37.9,29.2,23.0,55%,30.02,10.0,WSW,15.0,,N/A,,Partly Cloudy
1536,2016-02-27,11:51 PM,37.9,30.0,24.1,57%,30.01,10.0,WSW,12.7,,N/A,,Mostly Cloudy
1537,2016-02-28,12:51 AM,37.9,30.0,25.0,60%,30.00,10.0,SW,12.7,,N/A,,Overcast
1538,2016-02-28,1:51 AM,39.0,30.3,24.1,55%,29.99,10.0,WSW,16.1,,N/A,,Mostly Cloudy
1539,2016-02-28,2:51 AM,37.0,29.8,25.0,62%,29.97,10.0,WSW,10.4,,N/A,,Scattered Clouds
1540,2016-02-28,3:51 AM,37.0,29.3,25.0,62%,29.98,10.0,WSW,11.5,,N/A,,Scattered Clouds
1541,2016-02-28,4:51 AM,35.1,27.4,25.0,67%,29.98,10.0,SW,10.4,,N/A,,Scattered Clouds
1542,2016-02-28,5:51 AM,36.0,26.7,26.1,67%,30.01,10.0,SW,15.0,,N/A,,Scattered Clouds
1543,2016-02-28,6:51 AM,37.0,28.5,27.0,67%,30.02,10.0,SW,13.8,,N/A,,Scattered Clouds
1544,2016-02-28,7:51 AM,39.9,31.4,26.1,58%,30.02,10.0,SW,16.1,,N/A,,Scattered Clouds
1545,2016-02-28,8:51 AM,42.1,33.9,25.0,51%,30.02,10.0,SW,17.3,,N/A,,Scattered Clouds
1546,2016-02-28,9:51 AM,45.0,37.9,25.0,46%,30.01,10.0,SW,16.1,,N/A,,Mostly Cloudy
1547,2016-02-28,10:51 AM,48.9,,26.1,41%,29.99,10.0,SW,15.0,,N/A,,Mostly Cloudy
1548,2016-02-28,11:51 AM,54.0,,27.0,35%,29.96,10.0,WSW,19.6,,N/A,,Partly Cloudy
1549,2016-02-28,12:51 PM,57.0,,28.0,33%,29.91,10.0,WSW,18.4,,N/A,,Scattered Clouds
1550,2016-02-28,1:51 PM,55.9,,30.0,37%,29.88,10.0,SSW,12.7,,N/A,,Scattered Clouds
1551,2016-02-28,2:51 PM,54.0,,35.1,49%,29.87,10.0,South,15.0,,N/A,,Scattered Clouds
1552,2016-02-28,3:51 PM,51.1,,36.0,56%,29.86,10.0,South,15.0,,N/A,,Scattered Clouds
1553,2016-02-28,4:51 PM,48.9,,36.0,61%,29.85,10.0,South,16.1,,N/A,,Scattered Clouds
1554,2016-02-28,5:51 PM,48.0,,36.0,63%,29.84,10.0,South,17.3,,N/A,,Partly Cloudy
1555,2016-02-28,6:51 PM,46.9,,37.0,68%,29.84,10.0,South,19.6,,N/A,,Partly Cloudy
1556,2016-02-28,7:51 PM,45.0,37.6,37.9,76%,29.84,10.0,South,17.3,,N/A,,Partly Cloudy
1557,2016-02-28,8:51 PM,44.1,36.8,37.9,79%,29.85,10.0,South,16.1,,N/A,,Partly Cloudy
1558,2016-02-28,9:51 PM,44.1,38.6,37.9,79%,29.83,10.0,South,10.4,,N/A,,Clear
1559,2016-02-28,10:51 PM,43.0,37.2,37.9,82%,29.80,10.0,South,10.4,,N/A,,Clear
1560,2016-02-28,11:51 PM,43.0,36.8,37.9,82%,29.78,10.0,South,11.5,,N/A,,Clear
1561,2016-02-29,12:51 AM,44.1,37.7,37.9,79%,29.76,10.0,South,12.7,,N/A,,Clear
1562,2016-02-29,1:51 AM,44.1,37.1,37.9,79%,29.72,10.0,South,15.0,,N/A,,Clear
1563,2016-02-29,2:51 AM,44.1,38.1,37.9,79%,29.70,10.0,South,11.5,,N/A,,Clear
1564,2016-02-29,3:51 AM,43.0,37.7,37.9,82%,29.67,10.0,South,9.2,,N/A,,Clear
1565,2016-02-29,4:51 AM,42.1,36.6,37.0,82%,29.66,10.0,South,9.2,,N/A,,Partly Cloudy
1566,2016-02-29,5:51 AM,43.0,36.4,37.9,82%,29.64,10.0,South,12.7,,N/A,,Scattered Clouds
1567,2016-02-29,6:51 AM,43.0,35.7,39.0,86%,29.64,10.0,South,15.0,,N/A,,Scattered Clouds
1568,2016-02-29,7:51 AM,45.0,38.5,39.9,82%,29.64,10.0,South,13.8,,N/A,,Scattered Clouds
1569,2016-02-29,8:51 AM,48.0,,39.9,74%,29.64,10.0,SSW,12.7,,N/A,,Scattered Clouds
1570,2016-02-29,9:51 AM,48.0,,39.0,71%,29.64,10.0,SSW,9.2,,N/A,,Mostly Cloudy
1571,2016-02-29,10:51 AM,51.1,,35.1,54%,29.65,10.0,WSW,13.8,,N/A,,Overcast
1572,2016-02-29,11:51 AM,48.0,,41.0,77%,29.65,8.0,WSW,8.1,,0.03,Ra,Light Ra
1573,2016-02-29,12:51 PM,50.0,,44.1,80%,29.64,10.0,SW,16.1,,0.03,,Mostly Cloudy
1574,2016-02-29,1:51 PM,55.9,,45.0,67%,29.64,10.0,WSW,15.0,,N/A,,Scattered Clouds
1575,2016-02-29,2:51 PM,61.0,,43.0,52%,29.66,10.0,West,18.4,,N/A,,Mostly Cloudy
1576,2016-02-29,3:51 PM,61.0,,36.0,39%,29.68,10.0,West,18.4,,N/A,,Scattered Clouds
1577,2016-02-29,4:51 PM,59.0,,32.0,36%,29.72,10.0,West,21.9,,N/A,,Partly Cloudy
1578,2016-02-29,5:51 PM,55.0,,30.0,38%,29.78,10.0,West,24.2,29.9,N/A,,Scattered Clouds
1579,2016-02-29,6:51 PM,53.1,,27.0,37%,29.84,10.0,West,25.3,31.1,N/A,,Scattered Clouds
1580,2016-02-29,7:51 PM,52.0,,27.0,38%,29.88,10.0,West,20.7,29.9,N/A,,Partly Cloudy
1581,2016-02-29,8:51 PM,48.9,,28.9,46%,29.90,10.0,WSW,20.7,,N/A,,Partly Cloudy
1582,2016-02-29,9:51 PM,48.0,,28.0,46%,29.93,10.0,West,16.1,,N/A,,Clear
1583,2016-02-29,10:51 PM,46.9,,28.9,50%,29.96,10.0,West,13.8,,N/A,,Clear
1584,2016-02-29,11:51 PM,43.0,38.2,30.0,60%,29.96,10.0,WSW,8.1,,N/A,,Clear
1585,2016-03-01,12:51 AM,42.1,35.7,32.0,67%,29.98,10.0,SW,11.5,,N/A,,Scattered Clouds
1586,2016-03-01,1:51 AM,46.9,,30.0,52%,30.00,10.0,West,13.8,,N/A,,Scattered Clouds
1587,2016-03-01,2:51 AM,48.0,,28.0,46%,30.01,10.0,West,16.1,,N/A,,Partly Cloudy
1588,2016-03-01,3:51 AM,46.9,,28.9,50%,30.05,10.0,West,11.5,,N/A,,Scattered Clouds
1589,2016-03-01,4:51 AM,44.1,37.7,28.9,55%,30.09,10.0,NNW,12.7,,N/A,,Mostly Cloudy
1590,2016-03-01,5:51 AM,42.1,38.4,28.0,58%,30.12,10.0,NW,5.8,,N/A,,Scattered Clouds
1591,2016-03-01,6:51 AM,42.1,34.9,25.0,51%,30.14,10.0,NNW,13.8,,N/A,,Scattered Clouds
1592,2016-03-01,7:51 AM,43.0,37.2,24.1,47%,30.17,10.0,NNW,10.4,,N/A,,Scattered Clouds
1593,2016-03-01,8:51 AM,44.1,37.7,21.9,42%,30.18,10.0,North,12.7,,N/A,,Scattered Clouds
1594,2016-03-01,9:51 AM,43.0,36.0,12.9,30%,30.19,10.0,NNE,13.8,,N/A,,Mostly Cloudy
1595,2016-03-01,10:51 AM,46.0,40.2,12.0,25%,30.17,10.0,NNE,12.7,,N/A,,Scattered Clouds
1596,2016-03-01,11:51 AM,48.9,,16.0,27%,30.15,10.0,NE,5.8,,N/A,,Scattered Clouds
1597,2016-03-01,12:51 PM,48.9,,19.0,31%,30.13,10.0,SSE,3.5,,N/A,,Scattered Clouds
1598,2016-03-01,1:51 PM,48.0,,24.1,39%,30.12,10.0,SSE,15.0,,N/A,,Scattered Clouds
1599,2016-03-01,2:51 PM,46.0,39.6,25.0,44%,30.09,10.0,SE,15.0,,N/A,,Scattered Clouds
1600,2016-03-01,3:51 PM,45.0,37.6,28.9,53%,30.06,10.0,SE,17.3,,N/A,,Mostly Cloudy
1601,2016-03-01,4:51 PM,44.1,37.1,30.9,60%,30.03,10.0,ESE,15.0,24.2,N/A,,Mostly Cloudy
1602,2016-03-01,5:51 PM,44.1,37.1,34.0,68%,30.00,10.0,ESE,15.0,,N/A,,Mostly Cloudy
1603,2016-03-01,6:51 PM,44.1,36.5,37.9,79%,29.97,10.0,ESE,17.3,,N/A,,Mostly Cloudy
1604,2016-03-01,7:51 PM,46.0,38.8,39.0,76%,29.90,10.0,East,18.4,25.3,N/A,,Overcast
1605,2016-03-01,8:51 PM,46.9,,41.0,80%,29.85,10.0,ESE,16.1,,N/A,,Overcast
1606,2016-03-01,9:51 PM,48.0,,44.1,86%,29.79,10.0,SE,17.3,,N/A,,Mostly Cloudy
1607,2016-03-01,10:51 PM,50.0,,46.0,86%,29.72,10.0,SE,17.3,,N/A,,Overcast
1608,2016-03-01,11:51 PM,53.1,,48.0,83%,29.65,10.0,South,23.0,32.2,N/A,,Overcast
1609,2016-03-02,12:51 AM,52.0,,46.9,83%,29.61,10.0,South,25.3,31.1,N/A,,Overcast
1610,2016-03-02,1:51 AM,50.0,,46.0,86%,29.56,10.0,South,23.0,32.2,0.00,,Overcast
1611,2016-03-02,2:51 AM,50.0,,46.0,86%,29.52,10.0,South,31.1,36.8,0.00,Ra,Light Ra
1612,2016-03-02,3:51 AM,48.0,,45.0,89%,29.49,7.0,South,25.3,31.1,0.00,Ra,Ra
1613,2016-03-02,4:51 AM,48.9,,46.0,90%,29.50,6.0,SSW,18.4,28.8,0.07,Ra,Light Ra
1614,2016-03-02,5:04 AM,50.0,,46.4,87%,29.50,6.0,SW,13.8,,0.01,Ra,Light Ra
1615,2016-03-02,5:19 AM,53.6,,46.4,77%,29.52,9.0,West,24.2,28.8,0.01,Ra,Ra
1616,2016-03-02,5:51 AM,52.0,,45.0,77%,29.54,10.0,West,21.9,25.3,0.06,Ra,Light Ra
1617,2016-03-02,6:51 AM,48.9,,45.0,86%,29.52,10.0,SW,13.8,,0.03,Ra,Light Ra
1618,2016-03-02,7:51 AM,50.0,,37.9,63%,29.59,10.0,West,21.9,32.2,0.00,,Mostly Cloudy
1619,2016-03-02,8:51 AM,46.0,37.0,28.0,50%,29.63,10.0,West,27.6,35.7,N/A,,Mostly Cloudy
1620,2016-03-02,9:51 AM,45.0,36.2,24.1,44%,29.68,10.0,West,24.2,40.3,N/A,,Mostly Cloudy
1621,2016-03-02,10:51 AM,45.0,37.1,21.0,39%,29.70,10.0,WNW,19.6,31.1,N/A,,Mostly Cloudy
1622,2016-03-02,11:51 AM,44.1,33.5,12.0,27%,29.70,10.0,NW,33.4,42.6,N/A,,Mostly Cloudy
1623,2016-03-02,12:51 PM,44.1,34.8,12.0,27%,29.70,10.0,NW,25.3,33.4,N/A,,Mostly Cloudy
1624,2016-03-02,1:51 PM,44.1,34.4,12.0,27%,29.74,10.0,NW,27.6,34.5,N/A,,Scattered Clouds
1625,2016-03-02,2:51 PM,44.1,34.6,10.9,26%,29.78,10.0,NW,26.5,33.4,N/A,,Scattered Clouds
1626,2016-03-02,3:51 PM,43.0,33.3,10.0,26%,29.81,10.0,NW,25.3,34.5,N/A,,Scattered Clouds
1627,2016-03-02,4:51 PM,41.0,30.5,9.0,27%,29.84,10.0,WNW,26.5,34.5,N/A,,Partly Cloudy
1628,2016-03-02,5:51 PM,37.9,27.1,8.1,29%,29.88,10.0,NW,23.0,34.5,N/A,,Partly Cloudy
1629,2016-03-02,6:51 PM,37.0,27.4,9.0,31%,29.94,10.0,NNW,17.3,27.6,N/A,,Partly Cloudy
1630,2016-03-02,7:51 PM,35.1,25.2,10.0,35%,29.98,10.0,NNW,16.1,27.6,N/A,,Clear
1631,2016-03-02,8:51 PM,34.0,22.4,10.0,37%,30.02,10.0,NW,20.7,27.6,N/A,,Clear
1632,2016-03-02,9:51 PM,32.0,18.1,9.0,38%,30.07,10.0,NW,27.6,32.2,N/A,,Partly Cloudy
1633,2016-03-02,10:51 PM,30.9,18.1,8.1,38%,30.09,10.0,NW,21.9,32.2,N/A,,Partly Cloudy
1634,2016-03-02,11:51 PM,30.0,16.9,6.1,36%,30.12,10.0,NW,21.9,33.4,N/A,,Partly Cloudy
1635,2016-03-03,12:51 AM,28.9,16.1,7.0,40%,30.16,10.0,NW,19.6,25.3,N/A,,Partly Cloudy
1636,2016-03-03,1:51 AM,28.9,18.2,6.1,38%,30.14,10.0,NW,13.8,,N/A,,Clear
1637,2016-03-03,2:51 AM,28.0,16.5,7.0,41%,30.17,10.0,NW,15.0,,N/A,,Clear
1638,2016-03-03,3:51 AM,28.0,14.9,7.0,41%,30.17,10.0,NW,19.6,23.0,N/A,,Clear
1639,2016-03-03,4:51 AM,27.0,15.2,6.1,41%,30.20,10.0,NW,15.0,23.0,N/A,,Clear
1640,2016-03-03,5:51 AM,27.0,12.8,6.1,41%,30.21,10.0,NW,21.9,28.8,N/A,,Partly Cloudy
1641,2016-03-03,6:51 AM,27.0,14.7,5.0,39%,30.24,10.0,NW,16.1,,N/A,,Scattered Clouds
1642,2016-03-03,7:51 AM,28.9,16.1,5.0,36%,30.27,10.0,NW,19.6,28.8,N/A,,Scattered Clouds
1643,2016-03-03,8:51 AM,30.0,21.1,6.1,36%,30.28,10.0,NNW,10.4,,N/A,,Scattered Clouds
1644,2016-03-03,9:51 AM,30.9,20.2,5.0,33%,30.28,10.0,NW,15.0,,N/A,,Mostly Cloudy
1645,2016-03-03,10:51 AM,32.0,23.6,5.0,32%,30.28,10.0,NW,10.4,17.3,N/A,,Mostly Cloudy
1646,2016-03-03,11:51 AM,34.0,28.0,5.0,30%,30.28,10.0,WSW,6.9,,N/A,,Mostly Cloudy
1647,2016-03-03,12:51 PM,34.0,27.2,5.0,30%,30.25,10.0,WSW,8.1,,N/A,,Mostly Cloudy
1648,2016-03-03,1:51 PM,35.1,27.4,7.0,31%,30.24,10.0,SSW,10.4,,N/A,,Mostly Cloudy
1649,2016-03-03,2:51 PM,36.0,29.0,6.1,29%,30.22,10.0,SW,9.2,,N/A,,Mostly Cloudy
1650,2016-03-03,3:51 PM,36.0,29.6,8.1,31%,30.22,10.0,SW,8.1,,N/A,,Mostly Cloudy
1651,2016-03-03,4:51 PM,35.1,27.4,7.0,31%,30.22,10.0,SW,10.4,,N/A,,Overcast
1652,2016-03-03,5:51 PM,34.0,31.0,8.1,34%,30.23,10.0,SSW,3.5,,N/A,,Overcast
1653,2016-03-03,6:51 PM,34.0,24.6,17.1,50%,30.26,10.0,South,13.8,,N/A,,Overcast
1654,2016-03-03,7:51 PM,34.0,26.0,18.0,52%,30.25,10.0,South,10.4,,N/A,,Overcast
1655,2016-03-03,8:51 PM,34.0,26.0,18.0,52%,30.26,10.0,South,10.4,,N/A,,Overcast
1656,2016-03-03,9:51 PM,35.1,27.4,21.0,57%,30.25,10.0,South,10.4,,N/A,,Overcast
1657,2016-03-03,10:51 PM,36.0,29.0,21.9,57%,30.24,10.0,South,9.2,,N/A,,Overcast
1658,2016-03-03,11:51 PM,35.1,32.2,21.0,57%,30.21,10.0,South,3.5,,0.00,Snow,Light Snow
1659,2016-03-04,12:24 AM,33.8,,21.2,60%,30.20,3.0,Calm,Calm,,0.00,Snow,Light Snow
1660,2016-03-04,12:51 AM,32.0,28.7,24.1,73%,30.19,3.0,ESE,3.5,,0.00,Snow,Light Snow
1661,2016-03-04,1:45 AM,32.0,,26.6,80%,30.18,2.5,Calm,Calm,,0.02,Snow,Light Snow
1662,2016-03-04,1:51 AM,32.0,,27.0,82%,30.17,2.5,Calm,Calm,,0.02,Snow,Light Snow
1663,2016-03-04,2:51 AM,32.0,25.6,28.0,85%,30.17,3.0,ENE,6.9,,0.04,Snow,Light Snow
1664,2016-03-04,3:51 AM,30.9,23.5,28.0,89%,30.15,2.0,East,8.1,,0.02,Snow,Light Snow
1665,2016-03-04,4:44 AM,30.2,22.6,26.6,86%,30.14,5.0,ENE,8.1,,0.00,Snow,Light Snow
1666,2016-03-04,4:51 AM,30.9,21.7,27.0,85%,30.14,6.0,ENE,11.5,,0.00,Snow,Light Snow
1667,2016-03-04,5:51 AM,30.9,21.7,27.0,85%,30.14,5.0,ENE,11.5,,0.00,Snow,Light Snow
1668,2016-03-04,6:51 AM,30.0,20.0,26.1,85%,30.16,4.0,NE,12.7,,0.00,Snow,Light Snow
1669,2016-03-04,7:11 AM,30.2,21.3,26.6,86%,30.16,2.5,NE,10.4,,0.00,Snow,Light Snow
1670,2016-03-04,7:51 AM,30.9,21.2,26.1,82%,30.17,2.0,NE,12.7,,0.00,Snow,Light Snow
1671,2016-03-04,8:11 AM,30.2,20.2,26.6,86%,30.17,1.5,NE,12.7,,0.01,Snow,Light Snow
1672,2016-03-04,8:51 AM,30.9,20.7,27.0,85%,30.16,1.5,NE,13.8,,0.02,Snow,Light Snow
1673,2016-03-04,9:51 AM,32.0,22.5,28.0,85%,30.14,1.5,NE,12.7,,0.02,Snow,Light Snow
1674,2016-03-04,10:51 AM,32.0,20.5,28.0,85%,30.12,1.5,NE,18.4,23.0,0.01,Snow,Light Snow
1675,2016-03-04,11:27 AM,32.0,22.1,28.4,87%,30.11,2.0,NE,13.8,,0.00,Snow,Light Snow
1676,2016-03-04,11:51 AM,32.0,21.6,28.0,85%,30.10,2.0,NNE,15.0,,0.00,Snow,Light Snow
1677,2016-03-04,12:17 PM,33.8,22.8,26.6,75%,30.09,5.0,NNE,18.4,,0.00,Snow,Light Snow
1678,2016-03-04,12:51 PM,33.1,21.5,27.0,78%,30.06,10.0,NNE,19.6,25.3,0.00,,Overcast
1679,2016-03-04,1:51 PM,34.0,23.8,26.1,73%,30.04,10.0,NE,16.1,,N/A,,Mostly Cloudy
1680,2016-03-04,2:33 PM,35.6,25.2,24.8,65%,30.03,10.0,NNE,18.4,26.5,N/A,,Mostly Cloudy
1681,2016-03-04,2:51 PM,36.0,24.7,24.1,62%,30.02,10.0,NNE,21.9,,N/A,,Mostly Cloudy
1682,2016-03-04,3:51 PM,37.9,27.9,23.0,55%,30.01,10.0,NNE,19.6,,N/A,,Mostly Cloudy
1683,2016-03-04,4:51 PM,39.0,29.9,21.0,49%,30.01,10.0,NNE,17.3,,N/A,,Mostly Cloudy
1684,2016-03-04,5:51 PM,37.9,30.5,21.0,51%,30.00,10.0,NNE,11.5,,N/A,,Mostly Cloudy
1685,2016-03-04,6:51 PM,37.9,31.5,19.9,48%,30.03,10.0,North,9.2,,N/A,,Mostly Cloudy
1686,2016-03-04,7:51 PM,37.0,28.1,17.1,44%,30.03,10.0,North,15.0,,N/A,,Scattered Clouds
1687,2016-03-04,8:51 PM,36.0,27.5,17.1,46%,30.05,10.0,North,12.7,,N/A,,Partly Cloudy
1688,2016-03-04,9:51 PM,35.1,26.9,19.0,52%,30.08,10.0,North,11.5,,N/A,,Scattered Clouds
1689,2016-03-04,10:51 PM,34.0,25.0,18.0,52%,30.09,10.0,North,12.7,,N/A,,Partly Cloudy
1690,2016-03-04,11:51 PM,33.1,23.9,16.0,50%,30.10,10.0,NNW,12.7,,N/A,,Partly Cloudy
1691,2016-03-05,12:51 AM,33.1,22.6,16.0,50%,30.11,10.0,North,16.1,21.9,N/A,,Clear
1692,2016-03-05,1:51 AM,32.0,21.6,16.0,52%,30.12,10.0,NNW,15.0,,N/A,,Clear
1693,2016-03-05,2:51 AM,30.9,20.2,16.0,54%,30.13,10.0,NNW,15.0,,N/A,,Clear
1694,2016-03-05,3:51 AM,30.9,21.2,15.1,52%,30.14,10.0,NNW,12.7,,N/A,,Clear
1695,2016-03-05,4:51 AM,30.0,20.5,16.0,56%,30.16,10.0,NNW,11.5,,N/A,,Clear
1696,2016-03-05,5:51 AM,28.9,20.4,16.0,58%,30.18,10.0,NNW,9.2,,N/A,,Clear
1697,2016-03-05,6:51 AM,30.0,21.1,15.1,54%,30.20,10.0,NNW,10.4,,N/A,,Partly Cloudy
1698,2016-03-05,7:51 AM,32.0,21.6,12.0,44%,30.21,10.0,North,15.0,,N/A,,Partly Cloudy
1699,2016-03-05,8:51 AM,33.1,22.6,8.1,35%,30.21,10.0,North,16.1,,N/A,,Partly Cloudy
1700,2016-03-05,9:51 AM,35.1,27.4,10.9,37%,30.24,10.0,NNW,10.4,,N/A,,Scattered Clouds
1701,2016-03-05,10:51 AM,37.0,33.3,10.0,33%,30.23,10.0,North,4.6,,N/A,,Scattered Clouds
1702,2016-03-05,11:51 AM,39.0,36.8,10.9,32%,30.21,10.0,Variable,3.5,,N/A,,Mostly Cloudy
1703,2016-03-05,12:51 PM,39.0,34.8,8.1,28%,30.18,10.0,North,5.8,,N/A,,Mostly Cloudy
1704,2016-03-05,1:51 PM,39.9,35.8,8.1,27%,30.17,10.0,North,5.8,,N/A,,Mostly Cloudy
1705,2016-03-05,2:51 PM,39.9,36.7,10.9,31%,30.17,10.0,SW,4.6,,N/A,,Mostly Cloudy
1706,2016-03-05,3:51 PM,39.9,37.8,10.9,31%,30.16,10.0,SW,3.5,,N/A,,Mostly Cloudy
1707,2016-03-05,4:51 PM,37.9,30.9,19.0,47%,30.17,10.0,South,10.4,,N/A,,Mostly Cloudy
1708,2016-03-05,5:51 PM,37.0,30.4,19.9,50%,30.19,10.0,South,9.2,,N/A,,Mostly Cloudy
1709,2016-03-05,6:51 PM,35.1,29.3,21.0,57%,30.20,10.0,South,6.9,,N/A,,Mostly Cloudy
1710,2016-03-05,7:51 PM,35.1,29.3,21.9,59%,30.21,10.0,SSW,6.9,,N/A,,Mostly Cloudy
1711,2016-03-05,8:51 PM,35.1,28.6,23.0,61%,30.21,10.0,South,8.1,,N/A,,Mostly Cloudy
1712,2016-03-05,9:51 PM,34.0,29.8,23.0,64%,30.22,10.0,SW,4.6,,N/A,,Mostly Cloudy
1713,2016-03-05,10:51 PM,34.0,28.0,23.0,64%,30.22,10.0,WSW,6.9,,N/A,,Mostly Cloudy
1714,2016-03-05,11:51 PM,35.1,29.3,25.0,67%,30.22,10.0,WSW,6.9,,N/A,,Mostly Cloudy
1715,2016-03-06,12:51 AM,34.0,29.8,24.1,67%,30.23,10.0,West,4.6,,N/A,,Mostly Cloudy
1716,2016-03-06,1:51 AM,34.0,31.0,23.0,64%,30.23,10.0,NE,3.5,,N/A,,Mostly Cloudy
1717,2016-03-06,2:51 AM,32.0,28.7,23.0,69%,30.23,10.0,NE,3.5,,N/A,,Mostly Cloudy
1718,2016-03-06,3:51 AM,32.0,25.6,21.0,64%,30.23,10.0,NNE,6.9,,N/A,,Mostly Cloudy
1719,2016-03-06,4:51 AM,32.0,26.4,18.0,56%,30.24,10.0,NNE,5.8,,N/A,,Mostly Cloudy
1720,2016-03-06,5:51 AM,33.1,27.7,17.1,52%,30.26,10.0,North,5.8,,N/A,,Mostly Cloudy
1721,2016-03-06,6:51 AM,33.1,26.9,15.1,48%,30.27,10.0,North,6.9,,N/A,,Mostly Cloudy
1722,2016-03-06,7:51 AM,35.1,27.9,12.9,40%,30.30,10.0,NNE,9.2,,N/A,,Mostly Cloudy
1723,2016-03-06,8:51 AM,37.9,30.9,12.0,35%,30.31,10.0,North,10.4,,N/A,,Mostly Cloudy
1724,2016-03-06,9:51 AM,39.0,32.3,12.0,33%,30.32,10.0,North,10.4,,N/A,,Overcast
1725,2016-03-06,10:51 AM,39.9,35.8,12.9,33%,30.32,10.0,NNE,5.8,,N/A,,Mostly Cloudy
1726,2016-03-06,11:51 AM,42.1,39.2,15.1,34%,30.32,10.0,WNW,4.6,,N/A,,Mostly Cloudy
1727,2016-03-06,12:51 PM,43.0,40.3,15.1,32%,30.30,10.0,Variable,4.6,,N/A,,Mostly Cloudy
1728,2016-03-06,1:51 PM,45.0,39.7,18.0,34%,30.28,10.0,West,10.4,17.3,N/A,,Mostly Cloudy
1729,2016-03-06,2:51 PM,43.0,36.8,18.0,37%,30.28,10.0,WSW,11.5,,N/A,,Scattered Clouds
1730,2016-03-06,3:51 PM,42.1,36.1,19.0,40%,30.27,10.0,SSW,10.4,,N/A,,Scattered Clouds
1731,2016-03-06,4:51 PM,42.1,36.6,21.0,43%,30.27,10.0,SSW,9.2,,N/A,,Scattered Clouds
1732,2016-03-06,5:51 PM,39.0,34.0,23.0,53%,30.27,10.0,South,6.9,,N/A,,Scattered Clouds
1733,2016-03-06,6:51 PM,39.9,37.8,25.0,55%,30.29,10.0,SSE,3.5,,N/A,,Scattered Clouds
1734,2016-03-06,7:51 PM,39.0,33.4,27.0,62%,30.30,10.0,South,8.1,,N/A,,Partly Cloudy
1735,2016-03-06,8:51 PM,39.0,,26.1,60%,30.32,10.0,Calm,Calm,,N/A,,Partly Cloudy
1736,2016-03-06,9:51 PM,36.0,29.6,25.0,64%,30.33,10.0,SW,8.1,,N/A,,Clear
1737,2016-03-06,10:51 PM,36.0,31.1,26.1,67%,30.32,10.0,SSW,5.8,,N/A,,Clear
1738,2016-03-06,11:51 PM,36.0,30.3,26.1,67%,30.31,10.0,SSW,6.9,,N/A,,Partly Cloudy
1739,2016-03-07,12:51 AM,36.0,31.1,28.0,73%,30.31,10.0,South,5.8,,N/A,,Partly Cloudy
1740,2016-03-07,1:51 AM,37.0,29.8,30.0,76%,30.31,10.0,SSW,10.4,,N/A,,Scattered Clouds
1741,2016-03-07,2:51 AM,35.1,28.6,30.0,82%,30.30,10.0,SW,8.1,,N/A,,Partly Cloudy
1742,2016-03-07,3:51 AM,35.1,27.4,30.0,82%,30.30,10.0,SW,10.4,,N/A,,Partly Cloudy
1743,2016-03-07,4:51 AM,36.0,28.5,30.9,82%,30.29,10.0,SSW,10.4,,N/A,,Scattered Clouds
1744,2016-03-07,5:51 AM,37.0,28.5,30.9,79%,30.30,10.0,SW,13.8,,N/A,,Mostly Cloudy
1745,2016-03-07,6:51 AM,37.0,28.5,30.0,76%,30.30,10.0,WSW,13.8,,N/A,,Scattered Clouds
1746,2016-03-07,7:51 AM,39.9,32.9,33.1,77%,30.30,10.0,SW,11.5,,N/A,,Scattered Clouds
1747,2016-03-07,8:51 AM,42.1,35.2,30.9,65%,30.29,10.0,SSW,12.7,,N/A,,Scattered Clouds
1748,2016-03-07,9:51 AM,44.1,38.1,32.0,63%,30.27,10.0,SSW,11.5,,N/A,,Mostly Cloudy
1749,2016-03-07,10:51 AM,46.0,39.3,33.1,61%,30.23,10.0,South,16.1,,N/A,,Mostly Cloudy
1750,2016-03-07,11:51 AM,46.9,,35.1,63%,30.20,10.0,South,21.9,,N/A,,Mostly Cloudy
1751,2016-03-07,12:51 PM,50.0,,37.0,61%,30.13,10.0,South,20.7,,N/A,,Mostly Cloudy
1752,2016-03-07,1:51 PM,50.0,,37.9,63%,30.08,10.0,South,20.7,,N/A,,Mostly Cloudy
1753,2016-03-07,2:51 PM,50.0,,37.9,63%,30.04,10.0,South,17.3,,N/A,,Mostly Cloudy
1754,2016-03-07,3:51 PM,50.0,,39.0,66%,30.02,10.0,South,10.4,,N/A,,Mostly Cloudy
1755,2016-03-07,4:51 PM,48.9,,39.0,69%,30.00,10.0,South,13.8,,N/A,,Mostly Cloudy
1756,2016-03-07,5:51 PM,48.0,,39.9,74%,30.02,10.0,South,6.9,,N/A,,Mostly Cloudy
1757,2016-03-07,6:51 PM,53.1,,37.0,55%,30.04,10.0,SW,13.8,,N/A,,Mostly Cloudy
1758,2016-03-07,7:51 PM,50.0,,37.0,61%,30.06,10.0,WSW,13.8,,N/A,,Scattered Clouds
1759,2016-03-07,8:51 PM,51.1,,37.0,59%,30.07,10.0,WSW,10.4,,N/A,,Scattered Clouds
1760,2016-03-07,9:51 PM,46.9,,36.0,66%,30.07,10.0,South,4.6,,N/A,,Scattered Clouds
1761,2016-03-07,10:51 PM,46.0,42.5,37.9,73%,30.07,10.0,SSW,6.9,,N/A,,Partly Cloudy
1762,2016-03-07,11:51 PM,44.1,39.5,37.9,79%,30.06,10.0,SSW,8.1,,N/A,,Partly Cloudy
1763,2016-03-08,12:51 AM,46.0,42.5,37.9,73%,30.08,10.0,West,6.9,,N/A,,Scattered Clouds
1764,2016-03-08,1:51 AM,46.9,,37.0,68%,30.09,10.0,West,4.6,,N/A,,Scattered Clouds
1765,2016-03-08,2:51 AM,46.9,,36.0,66%,30.08,10.0,NNW,6.9,,N/A,,Scattered Clouds
1766,2016-03-08,3:51 AM,44.1,41.5,37.0,76%,30.10,10.0,South,4.6,,N/A,,Mostly Cloudy
1767,2016-03-08,4:51 AM,46.9,,37.9,71%,30.12,10.0,Calm,Calm,,N/A,,Scattered Clouds
1768,2016-03-08,5:51 AM,45.0,43.5,37.0,74%,30.13,10.0,NW,3.5,,N/A,,Scattered Clouds
1769,2016-03-08,6:51 AM,48.0,,37.9,68%,30.14,10.0,Calm,Calm,,N/A,,Mostly Cloudy
1770,2016-03-08,7:51 AM,51.1,,41.0,68%,30.16,10.0,Calm,Calm,,N/A,,Mostly Cloudy
1771,2016-03-08,8:51 AM,57.9,,37.0,46%,30.17,10.0,Calm,Calm,,N/A,,Scattered Clouds
1772,2016-03-08,9:51 AM,60.1,,34.0,38%,30.17,10.0,East,4.6,,N/A,,Mostly Cloudy
1773,2016-03-08,10:51 AM,61.0,,36.0,39%,30.18,10.0,SE,6.9,,N/A,,Mostly Cloudy
1774,2016-03-08,11:51 AM,60.1,,33.1,36%,30.18,10.0,SSE,13.8,,N/A,,Scattered Clouds
1775,2016-03-08,12:51 PM,55.9,,37.0,49%,30.17,10.0,SE,12.7,,N/A,,Scattered Clouds
1776,2016-03-08,1:51 PM,55.9,,37.9,51%,30.15,10.0,ESE,12.7,,N/A,,Scattered Clouds
1777,2016-03-08,2:51 PM,54.0,,39.0,57%,30.14,10.0,SE,12.7,,N/A,,Mostly Cloudy
1778,2016-03-08,3:51 PM,52.0,,39.0,61%,30.14,10.0,SE,11.5,,N/A,,Mostly Cloudy
1779,2016-03-08,4:51 PM,51.1,,39.9,66%,30.14,10.0,ESE,9.2,,N/A,,Mostly Cloudy
1780,2016-03-08,5:51 PM,48.9,,42.1,77%,30.14,10.0,ESE,10.4,,N/A,,Mostly Cloudy
1781,2016-03-08,6:51 PM,46.9,,42.1,83%,30.16,9.0,East,8.1,,N/A,,Mostly Cloudy
1782,2016-03-08,7:51 PM,46.0,42.5,42.1,86%,30.17,9.0,East,6.9,,N/A,,Mostly Cloudy
1783,2016-03-08,8:51 PM,46.0,42.5,42.1,86%,30.17,9.0,East,6.9,,N/A,,Mostly Cloudy
1784,2016-03-08,9:51 PM,46.0,41.9,42.1,86%,30.17,9.0,East,8.1,,N/A,,Mostly Cloudy
1785,2016-03-08,10:51 PM,45.0,41.8,42.1,90%,30.17,10.0,ESE,5.8,,N/A,,Scattered Clouds
1786,2016-03-08,11:51 PM,45.0,42.6,41.0,86%,30.16,9.0,SE,4.6,,N/A,,Scattered Clouds
1787,2016-03-09,12:51 AM,45.0,42.6,41.0,86%,30.14,9.0,SSE,4.6,,N/A,,Partly Cloudy
1788,2016-03-09,1:51 AM,44.1,,39.0,82%,30.14,8.0,Calm,Calm,,N/A,,Scattered Clouds
1789,2016-03-09,2:51 AM,42.1,40.2,39.0,89%,30.15,8.0,ENE,3.5,,N/A,,Scattered Clouds
1790,2016-03-09,3:51 AM,41.0,38.0,37.9,89%,30.14,7.0,ESE,4.6,,N/A,,Scattered Clouds
1791,2016-03-09,4:51 AM,42.1,39.2,39.0,89%,30.16,8.0,ENE,4.6,,N/A,,Partly Cloudy
1792,2016-03-09,5:51 AM,41.0,,39.0,93%,30.15,7.0,Calm,Calm,,N/A,,Partly Cloudy
1793,2016-03-09,6:51 AM,42.1,,39.9,92%,30.16,7.0,Calm,Calm,,N/A,,Mostly Cloudy
1794,2016-03-09,7:51 AM,46.9,,44.1,90%,30.17,8.0,Calm,Calm,,N/A,,Scattered Clouds
1795,2016-03-09,8:51 AM,50.0,,44.1,80%,30.16,10.0,SW,3.5,,N/A,,Scattered Clouds
1796,2016-03-09,9:51 AM,55.0,,41.0,59%,30.15,10.0,SSW,4.6,,N/A,,Partly Cloudy
1797,2016-03-09,10:51 AM,57.9,,39.0,49%,30.13,10.0,SSW,6.9,,N/A,,Partly Cloudy
1798,2016-03-09,11:51 AM,61.0,,39.9,46%,30.11,10.0,SSW,9.2,,N/A,,Partly Cloudy
1799,2016-03-09,12:51 PM,59.0,,39.9,49%,30.08,10.0,South,9.2,,N/A,,Partly Cloudy
1800,2016-03-09,1:51 PM,60.1,,41.0,49%,30.07,10.0,South,6.9,,N/A,,Scattered Clouds
1801,2016-03-09,2:51 PM,61.0,,42.1,50%,30.04,10.0,South,6.9,,N/A,,Mostly Cloudy
1802,2016-03-09,3:51 PM,60.1,,43.0,53%,30.03,10.0,South,8.1,,N/A,,Mostly Cloudy
1803,2016-03-09,4:51 PM,57.0,,44.1,62%,30.03,10.0,South,6.9,,N/A,,Mostly Cloudy
1804,2016-03-09,5:51 PM,53.1,,43.0,69%,30.03,10.0,South,8.1,,N/A,,Mostly Cloudy
1805,2016-03-09,6:51 PM,54.0,,46.0,75%,30.01,10.0,South,5.8,,N/A,,Mostly Cloudy
1806,2016-03-09,7:51 PM,53.1,,46.0,77%,30.01,10.0,South,5.8,,N/A,,Mostly Cloudy
1807,2016-03-09,8:51 PM,54.0,,46.9,77%,30.02,10.0,SW,4.6,,N/A,,Mostly Cloudy
1808,2016-03-09,9:51 PM,57.9,,46.0,65%,30.04,10.0,WSW,11.5,,N/A,,Mostly Cloudy
1809,2016-03-09,10:51 PM,55.9,,45.0,67%,30.03,10.0,SW,6.9,,N/A,,Overcast
1810,2016-03-09,11:51 PM,55.9,,44.1,64%,30.02,10.0,SSW,4.6,,N/A,,Overcast
1811,2016-03-12,12:51 AM,48.0,,28.9,48%,30.35,10.0,NNE,6.9,,N/A,,Scattered Clouds
1812,2016-03-12,1:51 AM,46.0,42.5,28.0,50%,30.36,10.0,North,6.9,,N/A,,Partly Cloudy
1813,2016-03-12,2:51 AM,44.1,40.8,26.1,49%,30.37,10.0,North,5.8,,N/A,,Partly Cloudy
1814,2016-03-12,3:51 AM,43.0,37.2,26.1,51%,30.35,10.0,North,10.4,,N/A,,Partly Cloudy
1815,2016-03-12,4:51 AM,42.1,35.7,26.1,53%,30.35,10.0,NNE,11.5,,N/A,,Partly Cloudy
1816,2016-03-12,5:51 AM,39.9,,27.0,60%,30.37,10.0,Calm,Calm,,N/A,,Scattered Clouds
1817,2016-03-12,6:51 AM,42.1,39.2,28.0,58%,30.36,10.0,North,4.6,,N/A,,Mostly Cloudy
1818,2016-03-12,7:51 AM,46.0,43.9,28.0,50%,30.35,10.0,NNE,4.6,,N/A,,Mostly Cloudy
1819,2016-03-12,8:51 AM,48.0,,28.9,48%,30.35,10.0,ENE,3.5,,N/A,,Mostly Cloudy
1820,2016-03-12,9:51 AM,50.0,,30.9,48%,30.34,10.0,Calm,Calm,,N/A,,Mostly Cloudy
1821,2016-03-12,10:51 AM,50.0,,32.0,50%,30.31,10.0,SSE,9.2,,N/A,,Mostly Cloudy
1822,2016-03-12,11:51 AM,50.0,,32.0,50%,30.29,10.0,South,8.1,,N/A,,Mostly Cloudy
1823,2016-03-12,12:51 PM,50.0,,34.0,54%,30.25,10.0,SSE,11.5,,N/A,,Mostly Cloudy
1824,2016-03-12,1:51 PM,51.1,,35.1,54%,30.20,10.0,South,11.5,,N/A,,Mostly Cloudy
1825,2016-03-12,2:51 PM,50.0,,36.0,59%,30.17,10.0,SSE,12.7,,N/A,,Mostly Cloudy
1826,2016-03-12,3:51 PM,48.9,,37.0,64%,30.14,10.0,South,8.1,,N/A,,Mostly Cloudy
1827,2016-03-12,4:51 PM,48.9,,37.9,66%,30.11,10.0,South,10.4,,N/A,,Mostly Cloudy
1828,2016-03-12,5:51 PM,48.9,,41.0,74%,30.09,10.0,South,15.0,,N/A,,Mostly Cloudy
1829,2016-03-12,6:51 PM,48.9,,44.1,83%,30.07,10.0,Calm,Calm,,N/A,,Mostly Cloudy
1830,2016-03-12,7:51 PM,50.0,,44.1,80%,30.06,10.0,SW,8.1,,N/A,,Mostly Cloudy
1831,2016-03-12,8:51 PM,53.1,,42.1,66%,30.06,10.0,WSW,15.0,,N/A,,Scattered Clouds
1832,2016-03-12,9:51 PM,54.0,,41.0,62%,30.04,10.0,WSW,13.8,,N/A,,Mostly Cloudy
1833,2016-03-12,10:51 PM,52.0,,41.0,66%,30.03,10.0,WSW,12.7,,N/A,,Mostly Cloudy
1834,2016-03-12,11:51 PM,50.0,,42.1,74%,30.02,10.0,WSW,11.5,,N/A,,Mostly Cloudy
1835,2016-03-14,12:51 AM,51.1,,37.0,59%,30.14,10.0,ESE,8.1,,0.00,Ra,Light Ra
1836,2016-03-14,1:51 AM,50.0,,35.1,57%,30.13,10.0,ESE,10.4,,0.00,,Overcast
1837,2016-03-14,2:51 AM,51.1,,33.1,50%,30.12,10.0,ESE,10.4,,N/A,,Overcast
1838,2016-03-14,3:51 AM,50.0,,37.0,61%,30.12,10.0,East,10.4,,0.00,,Overcast
1839,2016-03-14,4:51 AM,48.9,,39.0,69%,30.12,10.0,East,12.7,,0.00,Ra,Light Ra
1840,2016-03-14,5:51 AM,48.9,,37.9,66%,30.10,10.0,East,17.3,,0.00,Ra,Light Ra
1841,2016-03-14,6:51 AM,50.0,,33.1,52%,30.11,10.0,East,13.8,,0.00,,Overcast
1842,2016-03-14,7:51 AM,50.0,,28.9,44%,30.12,10.0,East,17.3,26.5,0.00,,Overcast
1843,2016-03-14,8:51 AM,46.0,38.5,35.1,66%,30.14,6.0,East,19.6,27.6,0.05,Ra,Ra
1844,2016-03-14,9:51 AM,46.0,38.5,39.9,79%,30.14,10.0,East,19.6,28.8,0.13,Ra,Light Ra
1845,2016-03-14,10:51 AM,46.0,38.8,41.0,83%,30.12,10.0,East,18.4,31.1,0.00,Ra,Light Ra
1846,2016-03-14,11:43 AM,46.4,39.0,41.0,81%,30.13,8.0,East,19.6,33.4,0.01,Ra,Light Ra
1847,2016-03-14,11:51 AM,46.0,38.0,41.0,83%,30.13,10.0,ENE,21.9,27.6,0.01,Ra,Light Ra
1848,2016-03-14,12:51 PM,44.1,35.4,39.9,85%,30.11,4.0,ENE,21.9,33.4,0.02,Ra,Ra
1849,2016-03-14,1:51 PM,44.1,35.9,39.9,85%,30.09,4.0,ENE,19.6,,0.09,Ra,Ra
1850,2016-03-14,2:48 PM,44.6,36.6,41.0,87%,30.05,5.0,NE,19.6,,0.03,Ra,Light Ra
1851,2016-03-14,2:51 PM,44.1,36.2,41.0,89%,30.06,5.0,NE,18.4,,0.03,Ra,Light Ra
1852,2016-03-14,3:51 PM,44.1,36.8,41.0,89%,30.04,6.0,NE,16.1,23.0,0.03,Ra,Light Ra
1853,2016-03-14,4:13 PM,44.6,37.4,39.2,81%,30.04,5.0,NE,16.1,,0.02,Ra,Light Ra
1854,2016-03-14,4:51 PM,44.1,36.5,41.0,89%,30.01,5.0,NE,17.3,,0.03,Ra,Light Ra
1855,2016-03-14,5:51 PM,44.1,35.9,41.0,89%,30.00,5.0,NE,19.6,27.6,0.06,Ra,Light Ra
1856,2016-03-14,6:48 PM,44.6,36.9,41.0,87%,29.98,10.0,NE,18.4,25.3,0.01,,Light Drizzle
1857,2016-03-14,6:51 PM,44.1,36.2,41.0,89%,29.98,10.0,NE,18.4,25.3,0.01,,Light Drizzle
1858,2016-03-14,7:45 PM,44.6,37.2,41.0,87%,29.95,7.0,NE,17.3,32.2,0.00,Ra,Light Ra
1859,2016-03-14,7:51 PM,44.1,35.9,41.0,89%,29.95,7.0,NE,19.6,32.2,0.00,Ra,Light Ra
1860,2016-03-14,8:51 PM,45.0,37.6,42.1,90%,29.94,5.0,NE,17.3,,0.00,Ra,Light Ra
1861,2016-03-14,9:51 PM,45.0,37.6,42.1,90%,29.93,5.0,NE,17.3,,0.01,Ra,Light Ra
1862,2016-03-14,10:51 PM,45.0,37.9,42.1,90%,29.91,6.0,NE,16.1,,0.00,Ra,Light Ra
1863,2016-03-14,11:51 PM,44.1,35.4,41.0,89%,29.89,6.0,NE,21.9,27.6,0.00,,Light Drizzle
1864,2016-03-15,12:51 AM,45.0,36.6,42.1,90%,29.86,6.0,NE,21.9,,0.00,,Light Drizzle
1865,2016-03-15,1:51 AM,46.0,38.3,43.0,89%,29.84,10.0,NE,20.7,28.8,0.00,,Overcast
1866,2016-03-15,2:51 AM,46.0,38.5,43.0,89%,29.83,8.0,NE,19.6,27.6,0.00,,Light Drizzle
1867,2016-03-15,3:51 AM,46.0,38.5,43.0,89%,29.80,10.0,NE,19.6,,0.00,,Overcast
1868,2016-03-15,4:51 AM,46.0,39.0,42.1,86%,29.81,10.0,NNE,17.3,,N/A,,Overcast
1869,2016-03-15,5:51 AM,46.0,38.5,42.1,86%,29.79,10.0,NNE,19.6,26.5,N/A,,Overcast
1870,2016-03-15,6:51 AM,46.0,38.8,42.1,86%,29.79,9.0,NNE,18.4,,0.00,,Light Drizzle
1871,2016-03-15,7:51 AM,46.0,39.6,43.0,89%,29.81,10.0,NNE,15.0,,0.00,,Overcast
1872,2016-03-15,8:51 AM,46.9,,43.0,86%,29.81,10.0,NNE,16.1,,N/A,,Overcast
1873,2016-03-15,9:51 AM,48.0,,43.0,83%,29.81,10.0,North,13.8,,N/A,,Overcast
1874,2016-03-15,10:51 AM,50.0,,45.0,83%,29.81,10.0,North,15.0,,N/A,,Overcast
1875,2016-03-15,11:51 AM,52.0,,45.0,77%,29.79,10.0,North,16.1,,N/A,,Overcast
1876,2016-03-15,12:51 PM,53.1,,46.0,77%,29.79,10.0,NNE,13.8,,N/A,,Overcast
1877,2016-03-15,1:26 PM,53.6,,46.4,77%,29.78,10.0,NNE,12.7,,N/A,,Overcast
1878,2016-03-15,1:51 PM,54.0,,46.0,75%,29.78,10.0,NNW,11.5,,N/A,,Mostly Cloudy
1879,2016-03-15,2:51 PM,55.0,,46.9,74%,29.78,10.0,NNW,10.4,,N/A,,Overcast
1880,2016-03-15,3:51 PM,55.0,,46.0,72%,29.78,10.0,NW,9.2,,N/A,,Overcast
1881,2016-03-15,4:51 PM,55.0,,46.0,72%,29.78,10.0,WNW,11.5,,N/A,,Overcast
1882,2016-03-15,5:51 PM,55.9,,45.0,67%,29.78,10.0,NW,9.2,,N/A,,Mostly Cloudy
1883,2016-03-15,6:16 PM,57.2,,44.6,63%,29.78,10.0,NNW,8.1,,N/A,,Mostly Cloudy
1884,2016-03-15,6:51 PM,55.9,,44.1,64%,29.78,10.0,North,5.8,,N/A,,Mostly Cloudy
1885,2016-03-15,7:51 PM,54.0,,44.1,69%,29.80,10.0,NE,5.8,,N/A,,Mostly Cloudy
1886,2016-03-15,8:51 PM,51.1,,45.0,80%,29.82,10.0,Calm,Calm,,N/A,,Scattered Clouds
1887,2016-03-15,9:51 PM,50.0,,45.0,83%,29.83,10.0,Calm,Calm,,N/A,,Scattered Clouds
1888,2016-03-15,10:51 PM,50.0,,44.1,80%,29.84,10.0,Calm,Calm,,N/A,,Partly Cloudy
1889,2016-03-15,11:51 PM,50.0,,46.0,86%,29.84,10.0,Calm,Calm,,N/A,,Mostly Cloudy
1890,2016-03-16,12:51 AM,50.0,,46.0,86%,29.83,10.0,East,3.5,,N/A,,Mostly Cloudy
1891,2016-03-16,1:51 AM,46.9,,43.0,86%,29.83,10.0,SW,3.5,,N/A,,Partly Cloudy
1892,2016-03-16,2:51 AM,46.0,43.9,42.1,86%,29.82,10.0,ENE,4.6,,N/A,,Partly Cloudy
1893,2016-03-16,3:51 AM,46.0,,42.1,86%,29.82,10.0,Calm,Calm,,N/A,,Partly Cloudy
1894,2016-03-16,4:51 AM,45.0,,41.0,86%,29.83,10.0,Calm,Calm,,N/A,,Partly Cloudy
1895,2016-03-16,5:51 AM,44.1,,41.0,89%,29.85,2.5,Calm,Calm,,N/A,,Partly Cloudy
1896,2016-03-16,6:51 AM,45.0,,41.0,86%,29.87,10.0,Calm,Calm,,N/A,,Scattered Clouds
1897,2016-03-16,7:51 AM,46.0,44.8,44.1,93%,29.88,10.0,ESE,3.5,,N/A,Fog,Shallow Fog
1898,2016-03-16,8:51 AM,48.9,,44.1,83%,29.88,10.0,South,3.5,,N/A,Fog,Shallow Fog
1899,2016-03-16,9:51 AM,52.0,,44.1,74%,29.89,10.0,South,3.5,,N/A,,Mostly Cloudy
1900,2016-03-16,10:51 AM,52.0,,44.1,74%,29.88,10.0,SSW,3.5,,N/A,,Mostly Cloudy
1901,2016-03-16,11:51 AM,53.1,,43.0,69%,29.88,10.0,SSW,10.4,,N/A,,Mostly Cloudy
1902,2016-03-16,12:51 PM,55.0,,44.1,67%,29.87,10.0,SSW,9.2,,N/A,,Mostly Cloudy
1903,2016-03-16,1:51 PM,55.9,,44.1,64%,29.83,10.0,South,8.1,,N/A,,Mostly Cloudy
1904,2016-03-16,2:51 PM,55.9,,44.1,64%,29.81,10.0,South,10.4,,N/A,,Mostly Cloudy
1905,2016-03-16,3:51 PM,55.0,,43.0,64%,29.80,10.0,SSE,9.2,,N/A,,Mostly Cloudy
1906,2016-03-16,4:51 PM,53.1,,43.0,69%,29.78,10.0,South,10.4,,N/A,,Mostly Cloudy
1907,2016-03-16,5:51 PM,50.0,,44.1,80%,29.81,10.0,South,10.4,,N/A,,Overcast
1908,2016-03-16,6:40 PM,48.2,,44.6,87%,29.84,10.0,SSW,10.4,,0.00,"Ra
	,
Thunderstorm",Light Thunderstorms and Ra
1909,2016-03-16,6:51 PM,48.9,,44.1,83%,29.82,10.0,South,9.2,,0.00,"Ra
	,
Thunderstorm",Light Thunderstorms and Ra
1910,2016-03-16,7:29 PM,48.2,,44.6,87%,29.85,10.0,South,6.9,,0.01,,Mostly Cloudy
1911,2016-03-16,7:51 PM,50.0,,45.0,83%,29.85,10.0,SSE,6.9,,0.01,,Overcast
1912,2016-03-16,8:51 PM,48.9,,45.0,86%,29.85,10.0,ESE,8.1,,N/A,,Overcast
1913,2016-03-16,9:51 PM,48.9,,45.0,86%,29.86,10.0,ESE,9.2,,N/A,,Overcast
1914,2016-03-16,10:51 PM,48.0,,42.1,80%,29.86,10.0,ESE,11.5,,N/A,,Scattered Clouds
1915,2016-03-16,11:51 PM,46.9,,42.1,83%,29.86,10.0,East,6.9,,N/A,,Mostly Cloudy
1916,2016-03-17,12:51 AM,48.0,,43.0,83%,29.88,10.0,North,11.5,,N/A,,Overcast
1917,2016-03-17,1:51 AM,46.9,,42.1,83%,29.89,10.0,Calm,Calm,,N/A,,Scattered Clouds
1918,2016-03-17,2:51 AM,46.9,,42.1,83%,29.90,10.0,NE,4.6,,N/A,,Mostly Cloudy
1919,2016-03-17,3:51 AM,45.0,,41.0,86%,29.88,10.0,Calm,Calm,,N/A,,Scattered Clouds
1920,2016-03-17,4:51 AM,44.1,,39.9,85%,29.88,10.0,Calm,Calm,,N/A,,Scattered Clouds
1921,2016-03-17,5:51 AM,44.1,41.5,41.0,89%,29.89,10.0,West,4.6,,N/A,,Partly Cloudy
1922,2016-03-17,6:51 AM,46.0,43.1,42.1,86%,29.90,10.0,West,5.8,,N/A,,Mostly Cloudy
1923,2016-03-17,7:36 AM,48.2,,42.8,82%,29.90,10.0,WSW,6.9,,N/A,,Mostly Cloudy
1924,2016-03-17,7:51 AM,48.0,,44.1,86%,29.89,10.0,WSW,5.8,,N/A,,Mostly Cloudy
1925,2016-03-17,8:22 AM,48.2,,44.6,87%,29.89,10.0,WSW,6.9,,N/A,,Mostly Cloudy
1926,2016-03-17,8:51 AM,48.9,,43.0,80%,29.88,10.0,WSW,5.8,,N/A,,Mostly Cloudy
1927,2016-03-17,9:51 AM,51.1,,44.1,77%,29.88,10.0,SW,11.5,,N/A,,Scattered Clouds
1928,2016-03-17,10:51 AM,51.1,,46.0,83%,29.86,10.0,SW,11.5,,N/A,,Scattered Clouds
1929,2016-03-17,11:51 AM,53.1,,46.9,80%,29.85,10.0,SW,10.4,,N/A,,Scattered Clouds
1930,2016-03-17,12:51 PM,57.9,,46.0,65%,29.82,10.0,SSW,10.4,,N/A,,Scattered Clouds
1931,2016-03-17,1:51 PM,61.0,,42.1,50%,29.81,10.0,WSW,11.5,20.7,N/A,,Mostly Cloudy
1932,2016-03-17,2:51 PM,61.0,,27.0,27%,29.80,10.0,NW,18.4,26.5,N/A,,Mostly Cloudy
1933,2016-03-17,3:51 PM,61.0,,34.0,36%,29.77,10.0,WSW,13.8,,N/A,,Scattered Clouds
1934,2016-03-17,4:51 PM,61.0,,34.0,36%,29.76,10.0,SW,15.0,25.3,N/A,,Mostly Cloudy
1935,2016-03-17,5:51 PM,57.9,,32.0,37%,29.79,10.0,NW,33.4,44.9,N/A,,Mostly Cloudy
1936,2016-03-17,6:51 PM,54.0,,35.1,49%,29.80,10.0,West,3.5,,0.00,,Mostly Cloudy
1937,2016-03-17,7:51 PM,51.1,,37.0,59%,29.79,10.0,SW,6.9,,N/A,,Mostly Cloudy
1938,2016-03-17,8:51 PM,52.0,,36.0,54%,29.82,10.0,WSW,12.7,,N/A,,Scattered Clouds
1939,2016-03-17,9:51 PM,52.0,,37.9,59%,29.82,10.0,West,8.1,,N/A,,Partly Cloudy
1940,2016-03-17,10:51 PM,51.1,,36.0,56%,29.81,10.0,West,8.1,,N/A,,Partly Cloudy
1941,2016-03-17,11:51 PM,52.0,,34.0,50%,29.80,10.0,West,9.2,,N/A,,Clear
1942,2016-03-18,12:51 AM,48.9,,37.0,64%,29.81,10.0,WSW,9.2,,N/A,,Partly Cloudy
1943,2016-03-18,1:51 AM,50.0,,33.1,52%,29.81,10.0,West,8.1,,N/A,,Clear
1944,2016-03-18,2:51 AM,48.9,,34.0,56%,29.81,10.0,West,10.4,,N/A,,Partly Cloudy
1945,2016-03-18,3:51 AM,46.9,,34.0,61%,29.80,10.0,West,9.2,,N/A,,Clear
1946,2016-03-18,4:51 AM,46.9,,34.0,61%,29.81,10.0,WSW,11.5,,N/A,,Clear
1947,2016-03-18,5:51 AM,48.0,,32.0,54%,29.81,10.0,WSW,13.8,,N/A,,Clear
1948,2016-03-18,6:51 AM,48.9,,25.0,39%,29.81,10.0,West,13.8,25.3,N/A,,Partly Cloudy
1949,2016-03-18,7:51 AM,48.9,,25.0,39%,29.81,10.0,West,11.5,,N/A,,Partly Cloudy
1950,2016-03-18,8:51 AM,51.1,,24.1,35%,29.82,10.0,West,13.8,,N/A,,Partly Cloudy
1951,2016-03-18,9:51 AM,54.0,,21.0,28%,29.82,10.0,WNW,19.6,33.4,N/A,,Scattered Clouds
1952,2016-03-18,10:51 AM,55.0,,21.9,28%,29.81,10.0,WNW,18.4,28.8,N/A,,Scattered Clouds
1953,2016-03-18,11:51 AM,57.0,,21.9,26%,29.80,10.0,West,23.0,33.4,N/A,,Scattered Clouds
1954,2016-03-18,12:51 PM,57.0,,21.0,25%,29.80,10.0,WNW,26.5,33.4,N/A,,Scattered Clouds
1955,2016-03-18,1:51 PM,57.9,,19.9,23%,29.80,10.0,WNW,17.3,27.6,N/A,,Mostly Cloudy
1956,2016-03-18,2:51 PM,57.0,,19.9,24%,29.81,10.0,NW,23.0,31.1,N/A,,Mostly Cloudy
1957,2016-03-18,3:51 PM,57.9,,21.9,25%,29.81,10.0,West,23.0,40.3,N/A,,Mostly Cloudy
1958,2016-03-18,4:51 PM,57.0,,21.9,26%,29.82,10.0,WNW,31.1,40.3,N/A,,Mostly Cloudy
1959,2016-03-18,5:51 PM,55.0,,24.1,30%,29.84,10.0,NW,19.6,29.9,N/A,,Mostly Cloudy
1960,2016-03-18,6:51 PM,54.0,,24.1,31%,29.87,10.0,NW,13.8,,N/A,,Mostly Cloudy
1961,2016-03-18,7:51 PM,52.0,,25.0,35%,29.88,10.0,NW,11.5,,N/A,,Scattered Clouds
1962,2016-03-18,8:51 PM,51.1,,24.1,35%,29.91,10.0,North,15.0,,N/A,,Scattered Clouds
1963,2016-03-18,9:51 PM,48.9,,25.0,39%,29.93,10.0,North,13.8,,N/A,,Partly Cloudy
1964,2016-03-18,10:51 PM,46.9,,25.0,42%,29.94,10.0,NNW,18.4,,N/A,,Clear
1965,2016-03-18,11:51 PM,45.0,37.6,25.0,46%,29.97,10.0,NNW,17.3,23.0,N/A,,Clear
1966,2016-03-19,12:51 AM,44.1,36.8,23.0,43%,30.00,10.0,NW,16.1,27.6,N/A,,Partly Cloudy
1967,2016-03-19,1:51 AM,43.0,36.8,19.9,40%,30.02,10.0,NNW,11.5,,N/A,,Partly Cloudy
1968,2016-03-19,2:51 AM,42.1,35.2,19.9,41%,30.03,10.0,NW,12.7,,N/A,,Scattered Clouds
1969,2016-03-19,3:51 AM,39.9,31.8,19.0,43%,30.04,10.0,North,15.0,,N/A,,Partly Cloudy
1970,2016-03-19,4:51 AM,37.9,33.5,19.9,48%,30.06,10.0,NNE,5.8,,N/A,,Clear
1971,2016-03-19,5:51 AM,37.0,30.4,18.0,46%,30.09,10.0,North,9.2,,N/A,,Scattered Clouds
1972,2016-03-19,6:51 AM,37.0,31.6,17.1,44%,30.11,10.0,North,6.9,,N/A,,Scattered Clouds
1973,2016-03-19,7:51 AM,37.9,32.7,17.1,43%,30.13,10.0,NNE,6.9,,N/A,,Mostly Cloudy
1974,2016-03-19,8:51 AM,39.9,33.9,15.1,36%,30.13,10.0,North,9.2,,N/A,,Mostly Cloudy
1975,2016-03-19,9:51 AM,41.0,38.0,16.0,36%,30.16,10.0,NNW,4.6,,N/A,,Mostly Cloudy
1976,2016-03-19,10:51 AM,44.1,39.5,15.1,31%,30.16,10.0,NNW,8.1,,N/A,,Mostly Cloudy
1977,2016-03-19,11:51 AM,45.0,41.2,12.9,27%,30.14,10.0,North,6.9,,N/A,,Mostly Cloudy
1978,2016-03-19,12:51 PM,44.1,,12.9,28%,30.12,10.0,Calm,Calm,,N/A,,Mostly Cloudy
1979,2016-03-19,1:51 PM,45.0,40.6,18.0,34%,30.11,10.0,SSW,8.1,,N/A,,Mostly Cloudy
1980,2016-03-19,2:51 PM,45.0,43.5,15.1,30%,30.08,10.0,SSW,3.5,,N/A,,Mostly Cloudy
1981,2016-03-19,3:51 PM,46.9,,5.0,18%,30.06,10.0,Calm,Calm,,N/A,,Mostly Cloudy
1982,2016-03-19,4:51 PM,46.0,41.4,19.0,34%,30.08,10.0,SSW,9.2,,N/A,,Mostly Cloudy
1983,2016-03-19,5:51 PM,46.0,41.9,17.1,31%,30.08,10.0,SSW,8.1,,N/A,,Mostly Cloudy
1984,2016-03-19,6:51 PM,45.0,41.8,18.0,34%,30.08,10.0,SW,5.8,,N/A,,Mostly Cloudy
1985,2016-03-19,7:51 PM,46.0,,15.1,29%,30.09,10.0,Calm,Calm,,N/A,,Mostly Cloudy
1986,2016-03-19,8:51 PM,42.1,37.1,27.0,55%,30.10,10.0,South,8.1,,N/A,,Mostly Cloudy
1987,2016-03-19,9:51 PM,42.1,38.4,27.0,55%,30.10,10.0,SSW,5.8,,N/A,,Mostly Cloudy
1988,2016-03-19,10:51 PM,43.0,,27.0,53%,30.11,10.0,Calm,Calm,,N/A,,Mostly Cloudy
1989,2016-03-19,11:51 PM,42.1,34.9,10.0,27%,30.12,10.0,NNE,13.8,,N/A,,Mostly Cloudy
1990,2016-03-20,12:51 AM,39.9,31.8,9.0,28%,30.13,10.0,NE,15.0,,N/A,,Mostly Cloudy
1991,2016-03-20,1:51 AM,39.0,32.8,10.0,30%,30.14,10.0,NE,9.2,,N/A,,Scattered Clouds
1992,2016-03-20,2:51 AM,37.0,31.0,10.9,34%,30.12,10.0,NNE,8.1,,N/A,,Scattered Clouds
1993,2016-03-20,3:51 AM,37.0,29.8,12.0,36%,30.13,10.0,NNE,10.4,,N/A,,Scattered Clouds
1994,2016-03-20,4:51 AM,36.0,27.5,12.9,39%,30.12,10.0,NNE,12.7,,N/A,,Scattered Clouds
1995,2016-03-20,5:51 AM,35.1,25.5,14.0,42%,30.14,10.0,NE,15.0,,N/A,,Scattered Clouds
1996,2016-03-20,6:51 AM,35.1,26.4,12.9,40%,30.16,10.0,NE,12.7,,N/A,,Mostly Cloudy
1997,2016-03-20,7:51 AM,34.0,23.8,10.0,37%,30.18,10.0,NNE,16.1,,N/A,,Mostly Cloudy
1998,2016-03-20,8:51 AM,35.1,24.8,10.9,37%,30.17,10.0,NE,17.3,,N/A,,Mostly Cloudy
1999,2016-03-20,9:51 AM,36.0,28.5,12.9,39%,30.18,10.0,NE,10.4,23.0,N/A,,Mostly Cloudy
2000,2016-03-20,10:51 AM,37.9,30.5,15.1,39%,30.18,10.0,NE,11.5,,N/A,,Mostly Cloudy
2001,2016-03-20,11:51 AM,39.9,33.4,18.0,41%,30.17,10.0,NE,10.4,17.3,N/A,,Mostly Cloudy
2002,2016-03-20,12:51 PM,39.9,35.1,18.0,41%,30.15,10.0,NE,6.9,,N/A,,Overcast
2003,2016-03-20,1:51 PM,42.1,37.7,19.9,41%,30.12,10.0,East,6.9,,N/A,,Mostly Cloudy
2004,2016-03-20,2:51 PM,44.1,39.0,21.0,40%,30.08,10.0,East,9.2,,N/A,,Mostly Cloudy
2005,2016-03-20,3:51 PM,43.0,36.4,23.0,45%,30.04,10.0,East,12.7,,N/A,,Mostly Cloudy
2006,2016-03-20,4:51 PM,42.1,34.5,25.0,51%,30.02,10.0,East,15.0,,N/A,,Mostly Cloudy
2007,2016-03-20,5:51 PM,41.0,35.8,26.1,55%,30.02,10.0,East,8.1,,N/A,,Overcast
2008,2016-03-20,6:51 PM,41.0,33.1,16.0,36%,30.03,9.0,NNE,15.0,,0.00,,Unknown
2009,2016-03-20,7:29 PM,37.4,28.9,23.0,56%,30.02,5.0,NE,13.8,18.4,0.00,Snow,Light Snow
2010,2016-03-20,7:51 PM,37.0,28.1,25.0,62%,30.02,5.0,ENE,15.0,,0.00,Snow,Light Snow
2011,2016-03-20,8:06 PM,37.4,32.1,24.8,60%,30.03,10.0,NE,6.9,,0.00,Snow,Light Snow
2012,2016-03-20,8:48 PM,37.4,30.8,24.8,60%,30.02,8.0,NE,9.2,,0.00,Snow,Light Snow
2013,2016-03-20,8:51 PM,37.0,31.0,25.0,62%,30.02,9.0,NE,8.1,,0.00,Snow,Light Snow
2014,2016-03-20,9:26 PM,35.6,28.0,26.6,70%,30.02,7.0,NE,10.4,,0.00,Snow,Light Snow
2015,2016-03-20,9:51 PM,36.0,29.0,28.0,73%,30.00,10.0,East,9.2,,0.00,,Overcast
2016,2016-03-20,10:51 PM,35.1,29.3,30.0,82%,29.98,3.0,NNE,6.9,,0.01,Snow,Light Snow
2017,2016-03-20,11:41 PM,33.8,27.7,30.2,87%,29.96,3.0,North,6.9,,0.01,Snow,Light Snow
2018,2016-03-20,11:51 PM,34.0,28.0,30.9,89%,29.96,3.0,North,6.9,,0.01,Snow,Light Snow
2019,2016-03-21,12:51 AM,34.0,28.8,30.9,89%,29.94,3.0,North,5.8,,0.01,Snow,Light Snow
2020,2016-03-21,1:51 AM,34.0,28.0,32.0,92%,29.91,5.0,North,6.9,,0.02,Snow,Light Snow
2021,2016-03-21,2:51 AM,34.0,26.6,30.9,89%,29.88,2.0,North,9.2,,0.03,Snow,Light Snow
2022,2016-03-21,3:51 AM,33.1,24.4,30.0,89%,29.87,3.0,North,11.5,,0.03,Snow,Light Snow
2023,2016-03-21,4:51 AM,34.0,25.5,30.0,85%,29.86,3.0,North,11.5,,0.00,Snow,Light Snow
2024,2016-03-21,5:42 AM,33.8,25.3,28.4,81%,29.85,6.0,NNW,11.5,,0.01,Snow,Light Snow
2025,2016-03-21,5:51 AM,34.0,25.5,28.9,82%,29.84,8.0,NNW,11.5,,0.01,Snow,Light Snow
2026,2016-03-21,6:51 AM,34.0,28.8,28.0,79%,29.83,10.0,North,5.8,,0.00,,Overcast
2027,2016-03-21,7:51 AM,34.0,27.2,28.9,82%,29.85,10.0,NNW,8.1,,N/A,,Mostly Cloudy
2028,2016-03-21,8:51 AM,36.0,33.3,30.0,79%,29.84,10.0,North,3.5,,N/A,,Mostly Cloudy
2029,2016-03-21,9:51 AM,39.0,35.7,28.9,67%,29.85,10.0,Variable,4.6,,N/A,,Scattered Clouds
2030,2016-03-21,10:51 AM,41.0,35.8,30.0,65%,29.85,10.0,West,8.1,,N/A,,Scattered Clouds
2031,2016-03-21,11:51 AM,44.1,38.1,28.9,55%,29.83,10.0,WSW,11.5,,N/A,,Scattered Clouds
2032,2016-03-21,12:51 PM,44.1,38.1,27.0,51%,29.81,10.0,SW,11.5,,N/A,,Scattered Clouds
2033,2016-03-21,1:51 PM,48.0,,19.0,32%,29.79,10.0,West,15.0,24.2,N/A,,Scattered Clouds
2034,2016-03-21,2:51 PM,51.1,,7.0,17%,29.78,10.0,West,16.1,23.0,N/A,,Partly Cloudy
2035,2016-03-21,3:51 PM,51.1,,10.0,19%,29.78,10.0,West,21.9,35.7,N/A,,Scattered Clouds
2036,2016-03-21,4:51 PM,50.0,,10.9,21%,29.80,10.0,WNW,25.3,34.5,N/A,,Scattered Clouds
2037,2016-03-21,5:51 PM,46.9,,9.0,21%,29.83,10.0,NW,26.5,33.4,N/A,,Scattered Clouds
2038,2016-03-21,6:51 PM,45.0,36.2,8.1,22%,29.87,10.0,NW,24.2,33.4,N/A,,Partly Cloudy
2039,2016-03-21,7:51 PM,45.0,37.1,10.9,25%,29.91,10.0,NW,19.6,31.1,N/A,,Partly Cloudy
2040,2016-03-21,8:51 PM,44.1,35.4,14.0,30%,29.95,10.0,NW,21.9,32.2,N/A,,Partly Cloudy
2041,2016-03-21,9:51 PM,43.0,33.8,15.1,32%,29.99,10.0,NW,23.0,32.2,N/A,,Partly Cloudy
2042,2016-03-21,10:51 PM,41.0,31.1,17.1,38%,30.02,10.0,NW,23.0,39.1,N/A,,Partly Cloudy
2043,2016-03-21,11:51 PM,39.9,30.8,18.0,41%,30.05,10.0,WNW,18.4,26.5,N/A,,Partly Cloudy
2044,2016-03-22,12:51 AM,39.0,28.8,15.1,38%,30.06,10.0,NW,21.9,31.1,N/A,,Clear
2045,2016-03-22,1:51 AM,37.9,29.2,15.1,39%,30.07,10.0,NW,15.0,28.8,N/A,,Clear
2046,2016-03-22,2:51 AM,37.9,30.5,16.0,41%,30.09,10.0,WNW,11.5,,N/A,,Clear
2047,2016-03-22,3:51 AM,37.0,27.7,17.1,44%,30.10,10.0,WNW,16.1,,N/A,,Clear
2048,2016-03-22,4:51 AM,37.0,29.3,17.1,44%,30.13,10.0,West,11.5,,N/A,,Clear
2049,2016-03-22,5:51 AM,37.0,29.3,17.1,44%,30.14,10.0,West,11.5,,N/A,,Clear
2050,2016-03-22,6:51 AM,37.0,28.1,18.0,46%,30.16,10.0,West,15.0,,N/A,,Scattered Clouds
2051,2016-03-22,7:51 AM,37.9,30.0,18.0,45%,30.19,10.0,West,12.7,,N/A,,Scattered Clouds
2052,2016-03-22,8:51 AM,39.9,31.1,17.1,40%,30.21,10.0,West,17.3,,N/A,,Scattered Clouds
2053,2016-03-22,9:51 AM,43.0,36.0,17.1,35%,30.22,10.0,West,13.8,,N/A,,Scattered Clouds
2054,2016-03-22,10:51 AM,44.1,37.1,17.1,34%,30.22,10.0,West,15.0,,N/A,,Mostly Cloudy
2055,2016-03-22,11:51 AM,46.9,,17.1,30%,30.19,10.0,WSW,13.8,,N/A,,Mostly Cloudy
2056,2016-03-22,12:51 PM,48.9,,17.1,28%,30.16,10.0,SW,17.3,,N/A,,Mostly Cloudy
2057,2016-03-22,1:51 PM,52.0,,17.1,25%,30.14,10.0,SW,17.3,,N/A,,Scattered Clouds
2058,2016-03-22,2:51 PM,50.0,,23.0,35%,30.11,10.0,South,19.6,,N/A,,Scattered Clouds
2059,2016-03-22,3:51 PM,48.0,,32.0,54%,30.09,10.0,South,21.9,,N/A,,Scattered Clouds
2060,2016-03-22,4:51 PM,48.9,,34.0,56%,30.07,10.0,South,20.7,,N/A,,Scattered Clouds
2061,2016-03-22,5:51 PM,48.9,,35.1,59%,30.06,10.0,South,18.4,,N/A,,Scattered Clouds
2062,2016-03-22,6:51 PM,46.9,,37.0,68%,30.06,10.0,South,21.9,27.6,N/A,,Mostly Cloudy
2063,2016-03-22,7:51 PM,46.9,,39.9,77%,30.06,10.0,South,23.0,29.9,N/A,,Mostly Cloudy
2064,2016-03-22,8:51 PM,46.9,,39.9,77%,30.06,10.0,South,19.6,,N/A,,Mostly Cloudy
2065,2016-03-22,9:51 PM,46.9,,39.9,77%,30.06,10.0,South,20.7,26.5,N/A,,Overcast
2066,2016-03-22,10:51 PM,48.0,,39.0,71%,30.06,10.0,South,17.3,,N/A,,Overcast
2067,2016-03-22,11:51 PM,46.9,,37.0,68%,30.04,10.0,SSW,17.3,,N/A,,Scattered Clouds
2068,2016-03-23,12:51 AM,46.0,39.3,37.9,73%,30.01,10.0,SSW,16.1,,N/A,,Scattered Clouds
2069,2016-03-23,1:51 AM,45.0,39.3,39.9,82%,30.00,10.0,South,11.5,,N/A,,Scattered Clouds
2070,2016-03-23,2:51 AM,45.0,40.6,39.0,80%,29.99,10.0,SSW,8.1,,N/A,,Mostly Cloudy
2071,2016-03-23,3:51 AM,48.0,,37.0,66%,29.97,10.0,SW,11.5,,N/A,,Mostly Cloudy
2072,2016-03-23,4:51 AM,48.9,,37.0,64%,29.95,10.0,SW,10.4,,N/A,,Mostly Cloudy
2073,2016-03-23,5:51 AM,48.9,,36.0,61%,29.94,10.0,SSW,10.4,,N/A,,Overcast
2074,2016-03-23,6:51 AM,48.0,,37.0,66%,29.94,10.0,SW,8.1,,N/A,,Mostly Cloudy
2075,2016-03-23,7:51 AM,48.0,,39.0,71%,29.96,10.0,WSW,8.1,,N/A,,Mostly Cloudy
2076,2016-03-23,8:51 AM,52.0,,37.0,57%,29.97,10.0,WSW,11.5,,N/A,,Mostly Cloudy
2077,2016-03-23,9:51 AM,57.0,,35.1,44%,29.97,10.0,WSW,16.1,,N/A,,Mostly Cloudy
2078,2016-03-23,10:51 AM,61.0,,34.0,36%,29.97,10.0,WSW,15.0,,N/A,,Mostly Cloudy
2079,2016-03-23,11:51 AM,64.0,,34.0,33%,29.96,10.0,SW,12.7,,N/A,,Mostly Cloudy
2080,2016-03-23,12:51 PM,66.9,,30.0,25%,29.96,10.0,WSW,16.1,,N/A,,Mostly Cloudy
2081,2016-03-23,1:51 PM,70.0,,27.0,20%,29.95,10.0,West,17.3,,N/A,,Mostly Cloudy
2082,2016-03-23,2:51 PM,71.1,,28.9,21%,29.95,10.0,West,13.8,,N/A,,Mostly Cloudy
2083,2016-03-23,3:51 PM,71.1,,28.9,21%,29.94,10.0,SW,8.1,,N/A,,Mostly Cloudy
2084,2016-03-23,4:51 PM,71.1,,30.9,23%,29.94,10.0,WSW,13.8,,N/A,,Mostly Cloudy
2085,2016-03-23,5:51 PM,63.0,,36.0,37%,29.96,10.0,South,9.2,,N/A,,Mostly Cloudy
2086,2016-03-23,6:51 PM,57.9,,39.0,49%,29.98,10.0,SSE,3.5,,N/A,,Mostly Cloudy
2087,2016-03-23,7:51 PM,53.1,,39.9,61%,29.99,10.0,South,6.9,,N/A,,Mostly Cloudy
2088,2016-03-23,8:51 PM,52.0,,42.1,69%,30.01,10.0,SE,3.5,,N/A,,Mostly Cloudy
2089,2016-03-23,9:51 PM,50.0,,43.0,77%,30.03,10.0,East,5.8,,N/A,,Mostly Cloudy
2090,2016-03-23,10:51 PM,50.0,,43.0,77%,30.04,10.0,East,3.5,,N/A,,Scattered Clouds
2091,2016-03-23,11:51 PM,51.1,,42.1,71%,30.06,10.0,NNE,4.6,,N/A,,Scattered Clouds
2092,2016-03-24,12:51 AM,52.0,,39.0,61%,30.06,10.0,NNE,6.9,,N/A,,Partly Cloudy
2093,2016-03-24,1:51 AM,48.9,,36.0,61%,30.06,10.0,NE,5.8,,N/A,,Partly Cloudy
2094,2016-03-24,2:51 AM,48.0,,39.9,74%,30.06,10.0,ENE,13.8,,N/A,,Scattered Clouds
2095,2016-03-24,3:51 AM,46.0,40.6,37.9,73%,30.07,10.0,East,11.5,,N/A,,Mostly Cloudy
2096,2016-03-24,4:51 AM,45.0,39.7,37.0,74%,30.08,10.0,ENE,10.4,,N/A,,Mostly Cloudy
2097,2016-03-24,5:51 AM,45.0,39.7,34.0,65%,30.10,10.0,NE,10.4,,N/A,,Mostly Cloudy
2098,2016-03-24,6:51 AM,45.0,40.1,33.1,63%,30.11,10.0,NNE,9.2,,N/A,,Mostly Cloudy
2099,2016-03-24,7:51 AM,46.0,40.2,34.0,63%,30.11,10.0,NNE,12.7,,N/A,,Mostly Cloudy
2100,2016-03-24,8:37 AM,46.4,41.1,35.6,66%,30.11,10.0,ENE,11.5,,N/A,,Mostly Cloudy
2101,2016-03-24,8:51 AM,48.0,,35.1,61%,30.11,10.0,ENE,12.7,,N/A,,Mostly Cloudy
2102,2016-03-24,9:51 AM,51.1,,37.0,59%,30.12,10.0,NE,11.5,,N/A,,Mostly Cloudy
2103,2016-03-24,10:25 AM,51.8,,37.4,58%,30.11,10.0,ENE,10.4,,N/A,,Mostly Cloudy
2104,2016-03-24,10:51 AM,52.0,,39.0,61%,30.12,10.0,ENE,6.9,,N/A,,Mostly Cloudy
2105,2016-03-24,11:51 AM,55.0,,39.9,57%,30.09,10.0,ENE,10.4,18.4,N/A,,Mostly Cloudy
2106,2016-03-24,12:51 PM,54.0,,39.9,59%,30.07,10.0,ESE,20.7,26.5,N/A,,Mostly Cloudy
2107,2016-03-24,1:51 PM,53.1,,41.0,64%,30.05,10.0,ESE,24.2,28.8,N/A,,Mostly Cloudy
2108,2016-03-24,2:51 PM,51.1,,41.0,68%,30.03,10.0,East,23.0,28.8,N/A,,Mostly Cloudy
2109,2016-03-24,3:00 PM,50.0,,39.2,66%,30.03,10.0,East,19.6,28.8,N/A,,Mostly Cloudy
2110,2016-03-24,3:51 PM,48.9,,39.9,71%,30.01,10.0,East,21.9,29.9,N/A,,Mostly Cloudy
2111,2016-03-24,4:51 PM,46.9,,42.1,83%,29.99,10.0,East,20.7,32.2,N/A,,Overcast
2112,2016-03-24,5:19 PM,46.4,39.0,42.8,87%,29.99,9.0,East,19.6,26.5,N/A,,Overcast
2113,2016-03-24,5:51 PM,46.0,38.8,42.1,86%,29.97,6.0,East,18.4,23.0,N/A,,Overcast
2114,2016-03-24,6:47 PM,44.6,36.9,42.8,93%,29.96,5.0,East,18.4,,N/A,,Overcast
2115,2016-03-24,6:51 PM,45.0,38.2,42.1,90%,29.96,5.0,East,15.0,23.0,N/A,,Overcast
2116,2016-03-24,7:51 PM,45.0,39.3,43.0,93%,29.95,4.0,East,11.5,,N/A,,Overcast
2117,2016-03-24,8:06 PM,44.6,39.7,42.8,93%,29.95,0.5,East,9.2,,N/A,,Overcast
2118,2016-03-24,8:51 PM,46.0,41.0,44.1,93%,29.94,0.5,East,10.4,,N/A,,Overcast
2119,2016-03-24,9:51 PM,46.9,,44.1,90%,29.93,0.5,East,9.2,,N/A,,Overcast
2120,2016-03-24,10:51 PM,46.9,,45.0,93%,29.90,0.5,East,10.4,,N/A,,Overcast
2121,2016-03-24,11:51 PM,46.9,,46.0,97%,29.88,0.5,East,6.9,,N/A,,Overcast
2122,2016-03-26,12:51 AM,46.0,39.3,33.1,61%,30.07,10.0,NNE,16.1,20.7,N/A,,Mostly Cloudy
2123,2016-03-26,1:51 AM,43.0,36.8,30.9,62%,30.10,10.0,North,11.5,,N/A,,Mostly Cloudy
2124,2016-03-26,2:51 AM,41.0,34.3,28.9,62%,30.14,10.0,North,11.5,,N/A,,Mostly Cloudy
2125,2016-03-26,3:51 AM,39.0,31.8,26.1,60%,30.17,10.0,North,11.5,,N/A,,Scattered Clouds
2126,2016-03-26,4:51 AM,39.0,29.9,25.0,57%,30.19,10.0,North,17.3,24.2,N/A,,Scattered Clouds
2127,2016-03-26,5:51 AM,37.9,28.9,25.0,60%,30.21,10.0,North,16.1,,N/A,,Scattered Clouds
2128,2016-03-26,6:51 AM,37.9,28.9,25.0,60%,30.25,10.0,North,16.1,,N/A,,Scattered Clouds
2129,2016-03-26,7:51 AM,39.0,31.4,26.1,60%,30.28,10.0,North,12.7,18.4,N/A,,Scattered Clouds
2130,2016-03-26,8:51 AM,42.1,34.9,27.0,55%,30.28,10.0,North,13.8,,N/A,,Scattered Clouds
2131,2016-03-26,9:51 AM,46.0,40.6,28.0,50%,30.31,10.0,North,11.5,,N/A,,Scattered Clouds
2132,2016-03-26,10:51 AM,46.9,,28.0,48%,30.34,10.0,NNE,6.9,,N/A,,Scattered Clouds
2133,2016-03-26,11:51 AM,50.0,,30.0,46%,30.34,10.0,Variable,6.9,,N/A,,Scattered Clouds
2134,2016-03-26,12:51 PM,50.0,,30.9,48%,30.34,10.0,SSE,4.6,,N/A,,Scattered Clouds
2135,2016-03-26,1:51 PM,51.1,,33.1,50%,30.33,10.0,SE,11.5,,N/A,,Scattered Clouds
2136,2016-03-26,2:51 PM,51.1,,34.0,52%,30.32,10.0,SSE,15.0,,N/A,,Scattered Clouds
2137,2016-03-26,3:51 PM,48.0,,35.1,61%,30.34,10.0,SSE,16.1,,N/A,,Mostly Cloudy
2138,2016-03-26,4:51 PM,46.9,,35.1,63%,30.35,10.0,SSE,15.0,,N/A,,Mostly Cloudy
2139,2016-03-26,5:51 PM,45.0,38.9,36.0,71%,30.38,10.0,SSE,12.7,,N/A,,Mostly Cloudy
2140,2016-03-26,6:51 PM,44.1,38.6,36.0,73%,30.38,10.0,ESE,10.4,,N/A,,Mostly Cloudy
2141,2016-03-26,7:51 PM,44.1,37.7,37.9,79%,30.39,10.0,ESE,12.7,,N/A,,Mostly Cloudy
2142,2016-03-26,8:04 PM,44.6,38.8,37.4,76%,30.38,10.0,ESE,11.5,,N/A,,Mostly Cloudy
2143,2016-03-26,8:47 PM,42.8,37.5,37.4,81%,30.40,10.0,SE,9.2,,N/A,,Scattered Clouds
2144,2016-03-26,8:51 PM,43.0,37.2,37.9,82%,30.40,10.0,SE,10.4,,N/A,,Scattered Clouds
2145,2016-03-26,9:51 PM,43.0,38.8,37.9,82%,30.41,10.0,SE,6.9,,N/A,,Scattered Clouds
2146,2016-03-26,10:51 PM,42.1,,37.0,82%,30.42,10.0,Calm,Calm,,N/A,,Scattered Clouds
2147,2016-03-26,11:51 PM,41.0,38.0,37.9,89%,30.40,10.0,East,4.6,,N/A,,Scattered Clouds
2148,2016-03-27,12:51 AM,41.0,38.0,37.0,86%,30.40,10.0,East,4.6,,N/A,,Scattered Clouds
2149,2016-03-27,1:51 AM,39.9,36.7,36.0,86%,30.41,10.0,ENE,4.6,,N/A,,Scattered Clouds
2150,2016-03-27,2:27 AM,41.0,39.0,37.4,87%,30.41,10.0,East,3.5,,N/A,,Mostly Cloudy
2151,2016-03-27,2:51 AM,41.0,38.0,37.0,86%,30.41,10.0,East,4.6,,N/A,,Mostly Cloudy
2152,2016-03-27,3:51 AM,42.1,40.2,37.9,85%,30.40,10.0,ENE,3.5,,N/A,,Overcast
2153,2016-03-27,4:51 AM,43.0,40.3,37.0,80%,30.40,10.0,NE,4.6,,N/A,,Overcast
2154,2016-03-27,5:51 AM,43.0,37.2,37.0,80%,30.38,10.0,NE,10.4,,N/A,,Overcast
2155,2016-03-27,6:51 AM,43.0,38.8,36.0,76%,30.40,10.0,East,6.9,,N/A,,Overcast
2156,2016-03-27,7:51 AM,43.0,37.2,36.0,76%,30.41,10.0,ENE,10.4,,N/A,,Mostly Cloudy
2157,2016-03-27,8:51 AM,44.1,38.1,36.0,73%,30.43,10.0,ENE,11.5,,N/A,,Mostly Cloudy
2158,2016-03-27,9:09 AM,44.6,39.2,35.6,71%,30.43,10.0,East,10.4,,N/A,,Mostly Cloudy
2159,2016-03-27,9:51 AM,46.0,41.9,35.1,66%,30.42,10.0,East,8.1,,N/A,,Mostly Cloudy
2160,2016-03-27,10:51 AM,48.0,,36.0,63%,30.41,10.0,SE,11.5,20.7,N/A,,Mostly Cloudy
2161,2016-03-27,11:51 AM,48.0,,36.0,63%,30.40,10.0,SE,12.7,,N/A,,Mostly Cloudy
2162,2016-03-27,12:51 PM,48.9,,36.0,61%,30.39,10.0,SE,12.7,,N/A,,Mostly Cloudy
2163,2016-03-27,1:51 PM,48.9,,35.1,59%,30.36,10.0,SE,13.8,,N/A,,Mostly Cloudy
2164,2016-03-27,2:51 PM,48.0,,35.1,61%,30.34,10.0,SE,15.0,,N/A,,Mostly Cloudy
2165,2016-03-27,3:51 PM,46.9,,35.1,63%,30.32,10.0,ESE,12.7,,N/A,,Mostly Cloudy
2166,2016-03-27,4:51 PM,45.0,39.3,35.1,68%,30.31,10.0,ESE,11.5,,N/A,,Overcast
2167,2016-03-27,5:51 PM,45.0,39.3,36.0,71%,30.29,10.0,SE,11.5,,N/A,,Overcast
2168,2016-03-27,6:51 PM,44.1,38.6,37.0,76%,30.27,10.0,ESE,10.4,,N/A,,Overcast
2169,2016-03-27,7:51 PM,44.1,39.0,37.9,79%,30.26,10.0,East,9.2,,N/A,,Overcast
2170,2016-03-27,8:51 PM,44.1,39.0,37.9,79%,30.25,10.0,ESE,9.2,,N/A,,Overcast
2171,2016-03-27,9:51 PM,44.1,38.6,39.0,82%,30.22,10.0,East,10.4,,N/A,,Overcast
2172,2016-03-27,10:41 PM,44.6,39.2,39.2,81%,30.21,10.0,East,10.4,,N/A,,Overcast
2173,2016-03-27,10:51 PM,44.1,38.1,39.0,82%,30.20,10.0,East,11.5,,N/A,,Overcast
2174,2016-03-27,11:51 PM,44.1,38.1,39.0,82%,30.18,10.0,East,11.5,,N/A,,Overcast
2175,2016-03-28,12:51 AM,45.0,40.1,39.0,80%,30.12,10.0,ENE,9.2,,N/A,,Overcast
2176,2016-03-28,1:51 AM,45.0,40.1,39.9,82%,30.08,10.0,ENE,9.2,,N/A,,Overcast
2177,2016-03-28,2:51 AM,45.0,38.9,37.9,76%,30.03,9.0,ENE,12.7,,0.00,Ra,Light Ra
2178,2016-03-28,3:18 AM,44.6,39.2,39.2,81%,30.01,10.0,NE,10.4,,0.01,Ra,Light Ra
2179,2016-03-28,3:51 AM,44.1,39.0,41.0,89%,29.99,7.0,NE,9.2,,0.03,Ra,Light Ra
2180,2016-03-28,4:27 AM,42.8,37.5,41.0,93%,29.95,5.0,ENE,9.2,,0.06,Ra,Light Ra
2181,2016-03-28,4:51 AM,43.0,36.4,41.0,93%,29.92,5.0,ENE,12.7,,0.07,Ra,Light Ra
2182,2016-03-28,5:51 AM,44.1,39.0,42.1,93%,29.89,5.0,NE,9.2,,0.04,Ra,Light Ra
2183,2016-03-28,6:51 AM,45.0,40.1,43.0,93%,29.85,3.0,ENE,9.2,,0.02,Ra,Light Ra
2184,2016-03-28,7:51 AM,45.0,38.9,44.1,97%,29.80,5.0,ENE,12.7,,0.11,Ra,Ra
2185,2016-03-28,8:51 AM,46.9,,45.0,93%,29.77,5.0,ENE,9.2,,0.05,Ra,Light Ra
2186,2016-03-28,9:51 AM,48.9,,46.9,93%,29.72,5.0,NE,8.1,,0.09,Ra,Light Ra
2187,2016-03-28,10:51 AM,48.9,,46.9,93%,29.69,7.0,ENE,5.8,,0.04,Ra,Light Ra
2188,2016-03-28,11:51 AM,51.1,,48.9,92%,29.62,8.0,East,9.2,,0.03,Ra,Light Ra
2189,2016-03-28,12:09 PM,51.8,,50.0,94%,29.60,9.0,East,12.7,,0.00,Ra,Light Ra
2190,2016-03-28,12:51 PM,53.1,,50.0,89%,29.60,8.0,NW,3.5,,0.00,,Overcast
2191,2016-03-28,1:20 PM,51.8,,48.2,88%,29.59,1.5,NW,10.4,,0.00,,Light Drizzle
2192,2016-03-28,1:51 PM,48.0,,46.9,96%,29.60,1.0,NW,12.7,,0.00,,Light Drizzle
2193,2016-03-28,2:44 PM,50.0,,46.4,87%,29.58,1.5,NW,9.2,,0.00,,Overcast
2194,2016-03-28,2:51 PM,50.0,,46.9,89%,29.58,1.5,NW,9.2,,0.00,,Overcast
2195,2016-03-28,3:24 PM,53.6,,48.2,82%,29.56,7.0,West,4.6,,N/A,,Mostly Cloudy
2196,2016-03-28,3:48 PM,55.4,,48.2,77%,29.54,9.0,WSW,11.5,,N/A,,Scattered Clouds
2197,2016-03-28,3:51 PM,55.9,,48.9,77%,29.54,9.0,West,9.2,,N/A,,Scattered Clouds
2198,2016-03-28,4:51 PM,62.1,,44.1,52%,29.52,10.0,West,21.9,32.2,N/A,,Scattered Clouds
2199,2016-03-28,5:51 PM,63.0,,35.1,35%,29.53,10.0,West,31.1,48.3,N/A,,Scattered Clouds
2200,2016-03-28,6:51 PM,59.0,,34.0,39%,29.55,10.0,West,27.6,41.4,N/A,,Scattered Clouds
2201,2016-03-28,7:51 PM,57.0,,35.1,44%,29.56,10.0,West,31.1,42.6,N/A,,Scattered Clouds
2202,2016-03-28,8:51 PM,57.0,,34.0,42%,29.60,10.0,West,25.3,43.7,N/A,,Mostly Cloudy
2203,2016-03-28,9:51 PM,54.0,,34.0,47%,29.63,10.0,WNW,28.8,41.4,N/A,,Mostly Cloudy
2204,2016-03-28,10:51 PM,53.1,,30.9,43%,29.66,10.0,WNW,32.2,48.3,N/A,,Mostly Cloudy
2205,2016-03-28,11:51 PM,51.1,,30.0,44%,29.69,10.0,WNW,26.5,39.1,N/A,,Mostly Cloudy
2206,2016-03-29,12:51 AM,50.0,,28.9,44%,29.72,10.0,WNW,25.3,35.7,N/A,,Mostly Cloudy
2207,2016-03-29,1:51 AM,48.9,,28.9,46%,29.73,10.0,WNW,26.5,44.9,N/A,,Mostly Cloudy
2208,2016-03-29,2:51 AM,48.0,,28.0,46%,29.74,10.0,WNW,29.9,47.2,N/A,,Mostly Cloudy
2209,2016-03-29,3:51 AM,46.9,,28.0,48%,29.76,10.0,WNW,33.4,41.4,N/A,,Mostly Cloudy
2210,2016-03-29,4:51 AM,46.9,,28.9,50%,29.78,10.0,WNW,20.7,34.5,N/A,,Mostly Cloudy
2211,2016-03-29,5:51 AM,46.0,37.2,27.0,47%,29.81,10.0,WNW,26.5,39.1,N/A,,Scattered Clouds
2212,2016-03-29,6:51 AM,45.0,35.6,27.0,49%,29.85,10.0,WNW,27.6,38.0,N/A,,Scattered Clouds
2213,2016-03-29,7:51 AM,46.0,39.0,26.1,46%,29.88,10.0,WNW,17.3,27.6,N/A,,Partly Cloudy
2214,2016-03-29,8:51 AM,46.9,,23.0,39%,29.91,10.0,WNW,28.8,39.1,N/A,,Partly Cloudy
2215,2016-03-29,9:51 AM,48.0,,19.9,33%,29.91,10.0,WNW,29.9,38.0,N/A,,Partly Cloudy
2216,2016-03-29,10:51 AM,50.0,,19.0,29%,29.94,10.0,WNW,28.8,40.3,N/A,,Partly Cloudy
2217,2016-03-29,11:51 AM,52.0,,18.0,26%,29.95,10.0,West,25.3,31.1,N/A,,Partly Cloudy
2218,2016-03-29,12:51 PM,52.0,,16.0,24%,29.95,10.0,NW,27.6,38.0,N/A,,Partly Cloudy
2219,2016-03-29,1:51 PM,54.0,,14.0,21%,29.95,10.0,WNW,27.6,34.5,N/A,,Partly Cloudy
2220,2016-03-29,2:51 PM,54.0,,12.9,20%,29.96,10.0,WNW,29.9,36.8,N/A,,Clear
2221,2016-03-29,3:51 PM,54.0,,12.0,19%,29.97,10.0,NW,16.1,35.7,N/A,,Clear
2222,2016-03-29,4:51 PM,53.1,,9.0,17%,29.99,10.0,WNW,25.3,36.8,N/A,,Clear
2223,2016-03-29,5:51 PM,53.1,,10.0,18%,30.02,10.0,NW,27.6,35.7,N/A,,Clear
2224,2016-03-29,6:51 PM,50.0,,8.1,18%,30.05,10.0,WNW,24.2,31.1,N/A,,Clear
2225,2016-03-29,7:51 PM,48.9,,6.1,18%,30.10,10.0,NNW,23.0,33.4,N/A,,Clear
2226,2016-03-29,8:51 PM,46.9,,6.1,19%,30.15,10.0,NW,23.0,35.7,N/A,,Clear
2227,2016-03-29,9:51 PM,45.0,36.2,7.0,21%,30.19,10.0,NNW,24.2,34.5,N/A,,Partly Cloudy
2228,2016-03-29,10:51 PM,43.0,34.8,9.0,25%,30.20,10.0,NNW,18.4,,N/A,,Partly Cloudy
2229,2016-03-29,11:51 PM,42.1,33.3,9.0,26%,30.23,10.0,North,19.6,25.3,N/A,,Partly Cloudy
2230,2016-03-30,12:51 AM,39.9,32.5,10.9,31%,30.26,10.0,NNW,12.7,,N/A,,Partly Cloudy
2231,2016-03-30,1:51 AM,39.0,34.0,12.0,33%,30.29,10.0,NW,6.9,,N/A,,Partly Cloudy
2232,2016-03-30,2:51 AM,39.0,33.4,10.9,32%,30.31,10.0,NW,8.1,,N/A,,Clear
2233,2016-03-30,3:51 AM,37.9,34.4,10.9,33%,30.31,10.0,NW,4.6,,N/A,,Clear
2234,2016-03-30,4:51 AM,37.9,34.4,12.9,36%,30.34,10.0,WNW,4.6,,N/A,,Clear
2235,2016-03-30,5:51 AM,36.0,,12.9,39%,30.35,10.0,Calm,Calm,,N/A,,Clear
2236,2016-03-30,6:51 AM,37.0,,12.9,37%,30.38,10.0,Calm,Calm,,N/A,,Scattered Clouds
2237,2016-03-30,7:51 AM,41.0,,14.0,33%,30.39,10.0,Calm,Calm,,N/A,,Partly Cloudy
2238,2016-03-30,8:51 AM,43.0,,12.9,30%,30.40,10.0,Calm,Calm,,N/A,,Partly Cloudy
2239,2016-03-30,9:51 AM,45.0,43.5,14.0,29%,30.40,10.0,SE,3.5,,N/A,,Partly Cloudy
2240,2016-03-30,10:51 AM,46.0,41.9,14.0,28%,30.39,10.0,SW,8.1,,N/A,,Scattered Clouds
2241,2016-03-30,11:51 AM,46.9,,10.9,23%,30.38,10.0,South,8.1,,N/A,,Partly Cloudy
2242,2016-03-30,12:51 PM,46.9,,12.0,24%,30.37,10.0,South,12.7,,N/A,,Partly Cloudy
2243,2016-03-30,1:51 PM,48.0,,21.0,34%,30.35,10.0,South,15.0,,N/A,,Scattered Clouds
2244,2016-03-30,2:51 PM,48.0,,26.1,42%,30.33,10.0,South,17.3,,N/A,,Scattered Clouds
2245,2016-03-30,3:51 PM,48.0,,28.9,48%,30.31,10.0,SSE,17.3,,N/A,,Mostly Cloudy
2246,2016-03-30,4:51 PM,48.0,,30.9,52%,30.28,10.0,South,19.6,,N/A,,Mostly Cloudy
2247,2016-03-30,5:51 PM,46.9,,33.1,59%,30.24,10.0,South,26.5,34.5,N/A,,Mostly Cloudy
2248,2016-03-30,6:51 PM,46.0,37.0,34.0,63%,30.22,10.0,South,27.6,38.0,N/A,,Mostly Cloudy
2249,2016-03-30,7:51 PM,45.0,36.4,36.0,71%,30.23,10.0,South,23.0,32.2,N/A,,Mostly Cloudy
2250,2016-03-30,8:51 PM,46.0,38.5,39.0,76%,30.23,10.0,South,19.6,,N/A,,Mostly Cloudy
2251,2016-03-30,9:51 PM,46.0,39.3,36.0,68%,30.23,10.0,SSW,16.1,,N/A,,Mostly Cloudy
2252,2016-03-30,10:51 PM,46.0,38.8,37.9,73%,30.19,10.0,SSW,18.4,,N/A,,Mostly Cloudy
2253,2016-03-30,11:51 PM,46.0,39.0,35.1,66%,30.19,10.0,SSW,17.3,,N/A,,Scattered Clouds
2254,2016-03-31,12:51 AM,46.0,39.3,39.0,76%,30.16,10.0,South,16.1,,N/A,,Mostly Cloudy
2255,2016-03-31,1:51 AM,46.9,,41.0,80%,30.14,10.0,SSW,13.8,,N/A,,Mostly Cloudy
2256,2016-03-31,2:51 AM,46.9,,42.1,83%,30.12,10.0,SSW,12.7,,N/A,,Mostly Cloudy
2257,2016-03-31,3:51 AM,46.9,,43.0,86%,30.10,10.0,South,10.4,,N/A,,Mostly Cloudy
2258,2016-03-31,4:51 AM,46.9,,44.1,90%,30.09,10.0,SSW,10.4,,N/A,,Scattered Clouds
2259,2016-03-31,5:51 AM,48.0,,45.0,89%,30.07,10.0,South,10.4,,N/A,,Scattered Clouds
2260,2016-03-31,6:51 AM,48.9,,45.0,86%,30.07,10.0,South,16.1,,N/A,,Mostly Cloudy
2261,2016-03-31,7:51 AM,51.1,,46.0,83%,30.08,10.0,South,16.1,,N/A,,Mostly Cloudy
2262,2016-03-31,8:51 AM,54.0,,46.0,75%,30.06,10.0,South,16.1,,N/A,,Mostly Cloudy
2263,2016-03-31,9:51 AM,57.0,,46.9,69%,30.04,10.0,South,18.4,,N/A,,Mostly Cloudy
2264,2016-03-31,10:51 AM,55.9,,46.0,69%,30.02,10.0,South,19.6,,N/A,,Mostly Cloudy
2265,2016-03-31,11:51 AM,60.1,,46.9,62%,30.00,10.0,South,21.9,28.8,N/A,,Mostly Cloudy
2266,2016-03-31,12:51 PM,61.0,,46.0,58%,29.98,10.0,South,27.6,33.4,N/A,,Mostly Cloudy
2267,2016-03-31,1:51 PM,64.0,,46.9,54%,29.96,10.0,South,23.0,32.2,N/A,,Mostly Cloudy
2268,2016-03-31,2:51 PM,62.1,,46.0,56%,29.94,10.0,South,29.9,35.7,N/A,,Mostly Cloudy
2269,2016-03-31,3:51 PM,62.1,,46.0,56%,29.91,10.0,South,27.6,33.4,N/A,,Mostly Cloudy
2270,2016-03-31,4:51 PM,59.0,,46.0,62%,29.89,10.0,South,25.3,34.5,N/A,,Mostly Cloudy
2271,2016-03-31,5:51 PM,57.0,,48.0,72%,29.87,10.0,South,27.6,34.5,N/A,,Mostly Cloudy
2272,2016-03-31,6:51 PM,55.9,,51.1,84%,29.86,10.0,South,23.0,33.4,N/A,,Mostly Cloudy
2273,2016-03-31,7:51 PM,54.0,,51.1,90%,29.86,10.0,South,21.9,,N/A,,Mostly Cloudy
2274,2016-03-31,8:51 PM,54.0,,52.0,93%,29.85,10.0,South,21.9,,N/A,,Mostly Cloudy
2275,2016-03-31,9:51 PM,54.0,,52.0,93%,29.84,7.0,South,23.0,,N/A,,Mostly Cloudy
2276,2016-03-31,10:44 PM,53.6,,51.8,94%,29.82,9.0,South,20.7,32.2,N/A,,Overcast
2277,2016-03-31,10:51 PM,54.0,,52.0,93%,29.82,9.0,South,24.2,32.2,N/A,,Overcast
2278,2016-03-31,11:51 PM,55.0,,54.0,96%,29.81,7.0,South,26.5,32.2,0.00,,Overcast
2279,2016-04-02,12:51 AM,60.1,,45.0,57%,29.65,10.0,North,9.2,,N/A,,Overcast
2280,2016-04-02,1:51 AM,59.0,,45.0,60%,29.66,10.0,NNE,9.2,,N/A,,Overcast
2281,2016-04-02,2:51 AM,55.9,,46.0,69%,29.65,10.0,ENE,5.8,,0.00,Ra,Light Ra
2282,2016-04-02,3:51 AM,55.0,,46.0,72%,29.65,10.0,North,6.9,,0.00,Ra,Light Ra
2283,2016-04-02,4:51 AM,53.1,,46.0,77%,29.64,10.0,NNE,11.5,,0.00,,Overcast
2284,2016-04-02,5:51 AM,53.1,,45.0,74%,29.63,10.0,NE,5.8,,N/A,,Overcast
2285,2016-04-02,6:51 AM,52.0,,44.1,74%,29.62,10.0,ESE,3.5,,N/A,,Overcast
2286,2016-04-02,7:51 AM,52.0,,46.0,80%,29.62,10.0,Calm,Calm,,0.00,Ra,Light Ra
2287,2016-04-02,8:51 AM,51.1,,46.9,86%,29.63,8.0,SE,5.8,,0.04,Ra,Light Ra
2288,2016-04-02,9:51 AM,48.9,,46.0,90%,29.62,6.0,ESE,3.5,,0.06,Ra,Light Ra
2289,2016-04-02,10:14 AM,48.2,,46.4,93%,29.63,4.0,Calm,Calm,,0.01,Ra,Ra
2290,2016-04-02,10:51 AM,48.0,,45.0,89%,29.64,5.0,Calm,Calm,,0.13,Ra,Ra
2291,2016-04-02,11:51 AM,48.9,,46.0,90%,29.58,9.0,South,4.6,,0.04,Ra,Light Ra
2292,2016-04-02,12:32 PM,48.2,,46.4,93%,29.55,9.0,South,5.8,,0.00,Ra,Light Ra
2293,2016-04-02,12:51 PM,48.9,,46.0,90%,29.54,10.0,SSE,8.1,,0.00,,Overcast
2294,2016-04-02,1:51 PM,48.0,,46.0,93%,29.49,10.0,SSE,8.1,,N/A,,Overcast
2295,2016-04-02,2:51 PM,48.9,,46.0,90%,29.47,10.0,South,15.0,,0.00,,Mostly Cloudy
2296,2016-04-02,3:43 PM,48.2,,46.4,93%,29.42,10.0,South,15.0,,N/A,,Mostly Cloudy
2297,2016-04-02,3:51 PM,48.9,,46.9,93%,29.40,10.0,SSE,11.5,,N/A,,Mostly Cloudy
2298,2016-04-02,4:51 PM,48.9,,46.0,90%,29.38,10.0,South,11.5,,N/A,,Mostly Cloudy
2299,2016-04-02,5:51 PM,48.9,,46.0,90%,29.39,10.0,South,18.4,27.6,N/A,,Mostly Cloudy
2300,2016-04-02,6:51 PM,48.0,,45.0,89%,29.38,10.0,South,19.6,,N/A,,Mostly Cloudy
2301,2016-04-02,7:14 PM,46.4,38.3,44.6,93%,29.38,0.5,South,23.0,27.6,N/A,,Overcast
2302,2016-04-02,7:51 PM,46.9,,45.0,93%,29.38,0.5,South,23.0,28.8,N/A,,Overcast
2303,2016-04-02,8:27 PM,48.2,,46.4,93%,29.37,10.0,South,24.2,29.9,N/A,,Mostly Cloudy
2304,2016-04-02,8:51 PM,48.0,,46.0,93%,29.38,10.0,SSW,21.9,27.6,N/A,,Mostly Cloudy
2305,2016-04-02,9:51 PM,48.0,,45.0,89%,29.38,10.0,South,17.3,,N/A,,Mostly Cloudy
2306,2016-04-02,10:51 PM,48.0,,45.0,89%,29.36,10.0,SSW,17.3,,N/A,,Mostly Cloudy
2307,2016-04-02,11:34 PM,46.4,39.2,44.6,93%,29.32,10.0,South,18.4,,N/A,,Mostly Cloudy
2308,2016-04-02,11:51 PM,48.0,,45.0,89%,29.32,10.0,South,18.4,25.3,N/A,,Mostly Cloudy
2309,2016-04-03,12:51 AM,48.0,,46.0,93%,29.25,10.0,South,21.9,,N/A,,Overcast
2310,2016-04-03,1:13 AM,48.2,,44.6,87%,29.27,6.0,SW,32.2,43.7,0.01,"Ra
	,
Thunderstorm",Light Thunderstorms and Ra
2311,2016-04-03,1:29 AM,44.6,35.7,39.2,81%,29.28,5.0,West,24.2,41.4,0.06,"Ra
	,
Thunderstorm",Light Thunderstorms and Ra
2312,2016-04-03,1:51 AM,44.1,37.4,39.0,82%,29.29,10.0,West,13.8,24.2,0.10,Ra,Light Ra
2313,2016-04-03,2:51 AM,44.1,35.4,37.0,76%,29.28,10.0,WNW,21.9,31.1,0.00,Ra,Light Ra
2314,2016-04-03,3:51 AM,42.1,31.3,30.0,62%,29.30,10.0,West,29.9,40.3,0.00,,Overcast
2315,2016-04-03,4:51 AM,42.1,31.0,28.0,58%,29.31,10.0,West,32.2,40.3,N/A,,Overcast
2316,2016-04-03,5:31 AM,39.2,25.2,32.0,75%,29.35,10.0,WNW,44.9,59.8,0.00,Ra,Light Ra
2317,2016-04-03,5:51 AM,39.0,26.2,32.0,76%,29.38,10.0,WNW,35.7,50.6,0.00,Ra,Light Ra
2318,2016-04-03,6:40 AM,37.4,24.8,26.6,65%,29.48,10.0,WNW,31.1,47.2,0.00,,Overcast
2319,2016-04-03,6:51 AM,37.9,23.7,24.1,57%,29.50,10.0,WNW,42.6,52.9,0.00,,Mostly Cloudy
2320,2016-04-03,7:51 AM,37.0,23.5,18.0,46%,29.60,10.0,WNW,35.7,50.6,N/A,,Mostly Cloudy
2321,2016-04-03,8:51 AM,36.0,22.0,12.9,39%,29.66,10.0,WNW,35.7,48.3,N/A,,Scattered Clouds
2322,2016-04-03,9:51 AM,36.0,22.6,10.9,36%,29.71,10.0,WNW,32.2,49.5,N/A,,Scattered Clouds
2323,2016-04-03,10:51 AM,37.0,24.3,10.0,33%,29.77,10.0,WNW,31.1,44.9,N/A,,Scattered Clouds
2324,2016-04-03,11:51 AM,37.9,26.8,7.0,28%,29.80,10.0,West,24.2,46.0,N/A,,Scattered Clouds
2325,2016-04-03,12:51 PM,39.0,26.2,8.1,28%,29.83,10.0,West,35.7,46.0,N/A,,Scattered Clouds
2326,2016-04-03,1:51 PM,39.9,29.5,5.0,23%,29.85,10.0,NW,24.2,39.1,N/A,,Partly Cloudy
2327,2016-04-03,2:51 PM,41.0,30.5,5.0,23%,29.87,10.0,West,26.5,40.3,N/A,,Scattered Clouds
2328,2016-04-03,3:51 PM,41.0,30.0,3.9,21%,29.89,10.0,WNW,28.8,40.3,N/A,,Scattered Clouds
2329,2016-04-03,4:51 PM,41.0,31.9,3.9,21%,29.91,10.0,NW,19.6,36.8,N/A,,Partly Cloudy
2330,2016-04-03,5:51 PM,42.1,33.1,6.1,23%,29.94,10.0,NW,20.7,27.6,N/A,,Partly Cloudy
2331,2016-04-03,6:51 PM,41.0,33.1,6.1,24%,29.96,10.0,WNW,15.0,,N/A,,Partly Cloudy
2332,2016-04-03,7:51 PM,39.0,31.8,7.0,27%,29.99,10.0,NW,11.5,,N/A,,Partly Cloudy
2333,2016-04-03,8:51 PM,39.0,32.8,7.0,27%,30.02,10.0,NNW,9.2,,N/A,,Scattered Clouds
2334,2016-04-03,9:51 PM,37.9,32.7,8.1,29%,30.05,10.0,NNW,6.9,,N/A,,Partly Cloudy
2335,2016-04-03,10:51 PM,39.0,33.4,9.0,29%,30.06,10.0,NNE,8.1,,N/A,,Mostly Cloudy
2336,2016-04-03,11:51 PM,37.0,31.6,10.0,33%,30.06,10.0,NE,6.9,,N/A,,Mostly Cloudy
2337,2016-04-04,12:51 AM,37.0,30.4,12.9,37%,30.06,10.0,East,9.2,,0.00,Snow,Light Snow
2338,2016-04-04,1:51 AM,36.0,29.6,15.1,43%,30.06,10.0,East,8.1,,0.00,Snow,Light Snow
2339,2016-04-04,2:51 AM,36.0,28.5,17.1,46%,30.04,10.0,East,10.4,,0.00,,Overcast
2340,2016-04-04,3:51 AM,37.9,30.5,21.0,51%,30.01,10.0,ESE,11.5,,N/A,,Overcast
2341,2016-04-04,4:51 AM,39.0,31.0,25.0,57%,29.98,10.0,ESE,13.8,,N/A,,Overcast
2342,2016-04-04,5:51 AM,42.1,34.5,28.0,58%,29.95,10.0,ESE,15.0,,N/A,,Overcast
2343,2016-04-04,6:51 AM,42.1,35.2,30.9,65%,29.94,10.0,ESE,12.7,,N/A,,Overcast
2344,2016-04-04,7:51 AM,43.0,36.8,35.1,74%,29.91,10.0,East,11.5,,0.01,,Overcast
2345,2016-04-04,8:51 AM,44.1,40.1,36.0,73%,29.88,10.0,East,6.9,,0.00,Ra,Light Ra
2346,2016-04-04,9:51 AM,45.0,39.7,39.9,82%,29.85,7.0,ESE,10.4,,0.02,Ra,Light Ra
2347,2016-04-04,10:51 AM,46.9,,43.0,86%,29.84,7.0,South,3.5,,0.03,Ra,Light Ra
2348,2016-04-04,11:51 AM,48.9,,41.0,74%,29.83,10.0,West,3.5,,0.01,Ra,Light Ra
2349,2016-04-04,12:51 PM,45.0,40.6,42.1,90%,29.82,8.0,North,8.1,,0.01,Ra,Light Ra
2350,2016-04-04,1:51 PM,46.0,43.9,42.1,86%,29.81,8.0,NE,4.6,,0.01,Ra,Light Ra
2351,2016-04-04,2:51 PM,46.0,43.1,43.0,89%,29.82,4.0,NE,5.8,,0.04,Ra,Light Ra
2352,2016-04-04,3:51 PM,46.0,42.5,43.0,89%,29.81,6.0,ENE,6.9,,0.05,Ra,Light Ra
2353,2016-04-04,4:51 PM,46.9,,44.1,90%,29.82,4.0,North,9.2,,0.03,Ra,Light Ra
2354,2016-04-04,5:51 PM,42.1,35.2,39.0,89%,29.84,3.0,NNE,12.7,,0.08,Ra,Ra
2355,2016-04-04,6:08 PM,39.2,29.8,37.4,93%,29.85,5.0,NNE,18.4,,0.02,Ra,Light Ra
2356,2016-04-04,6:51 PM,37.0,28.5,34.0,89%,29.91,8.0,NNE,13.8,21.9,0.03,Ra,Light Ra
2357,2016-04-04,7:51 PM,35.1,24.5,32.0,89%,29.95,8.0,NNE,18.4,,0.00,,Overcast
2358,2016-04-04,8:51 PM,33.1,23.0,30.0,89%,29.99,10.0,NNE,15.0,24.2,0.00,,Overcast
2359,2016-04-04,9:39 PM,33.8,23.5,26.6,75%,30.01,10.0,NNE,16.1,,N/A,,Overcast
2360,2016-04-04,9:51 PM,33.1,23.4,27.0,78%,30.01,10.0,NNE,13.8,,N/A,,Overcast
2361,2016-04-04,10:51 PM,32.0,21.2,25.0,75%,30.04,10.0,NNE,16.1,,N/A,,Overcast
2362,2016-04-04,11:51 PM,32.0,20.5,23.0,69%,30.06,10.0,North,18.4,24.2,N/A,,Overcast
2363,2016-04-05,12:51 AM,30.9,20.2,23.0,72%,30.09,10.0,North,15.0,,N/A,,Overcast
2364,2016-04-05,1:51 AM,30.0,18.3,21.9,72%,30.10,10.0,North,17.3,,N/A,,Overcast
2365,2016-04-05,2:51 AM,28.9,16.5,21.0,72%,30.10,10.0,North,18.4,,N/A,,Overcast
2366,2016-04-05,3:33 AM,28.4,15.8,19.4,69%,30.11,10.0,North,18.4,23.0,N/A,,Overcast
2367,2016-04-05,3:51 AM,28.9,16.9,19.0,67%,30.10,10.0,North,17.3,,N/A,,Overcast
2368,2016-04-05,4:51 AM,28.0,14.6,18.0,66%,30.13,10.0,North,20.7,27.6,N/A,,Overcast
2369,2016-04-05,5:51 AM,28.0,16.1,16.0,61%,30.20,10.0,North,16.1,25.3,N/A,,Overcast
2370,2016-04-05,6:51 AM,27.0,13.9,12.9,56%,30.23,10.0,North,18.4,26.5,N/A,,Mostly Cloudy
2371,2016-04-05,7:51 AM,28.0,13.0,10.0,47%,30.24,10.0,North,26.5,31.1,N/A,,Scattered Clouds
2372,2016-04-05,8:51 AM,28.9,15.8,7.0,40%,30.27,10.0,NNE,20.7,29.9,N/A,,Scattered Clouds
2373,2016-04-05,9:51 AM,30.9,17.5,7.0,37%,30.30,10.0,North,24.2,31.1,N/A,,Scattered Clouds
2374,2016-04-05,10:51 AM,33.1,21.2,8.1,35%,30.32,10.0,NNE,20.7,26.5,N/A,,Scattered Clouds
2375,2016-04-05,11:51 AM,36.0,26.0,6.1,29%,30.32,10.0,North,17.3,29.9,N/A,,Partly Cloudy
2376,2016-04-05,12:51 PM,37.9,28.9,8.1,29%,30.32,10.0,North,16.1,24.2,N/A,,Partly Cloudy
2377,2016-04-05,1:51 PM,39.0,30.3,3.9,23%,30.31,10.0,North,16.1,31.1,N/A,,Partly Cloudy
2378,2016-04-05,2:51 PM,39.9,30.2,1.9,20%,30.30,10.0,NNW,20.7,33.4,N/A,,Clear
2379,2016-04-05,3:51 PM,41.0,33.9,5.0,23%,30.29,10.0,North,12.7,23.0,N/A,,Clear
2380,2016-04-05,4:51 PM,42.1,34.9,7.0,24%,30.29,10.0,North,13.8,,N/A,,Clear
2381,2016-04-05,5:51 PM,42.1,35.2,6.1,23%,30.30,10.0,North,12.7,18.4,N/A,,Clear
2382,2016-04-05,6:51 PM,41.0,35.8,5.0,23%,30.31,10.0,North,8.1,,N/A,,Clear
2383,2016-04-05,7:51 PM,39.0,32.8,3.0,22%,30.32,10.0,North,9.2,,N/A,,Clear
2384,2016-04-05,8:51 PM,39.0,31.4,0.9,19%,30.36,10.0,NNW,12.7,,N/A,,Clear
2385,2016-04-05,9:51 PM,37.0,29.3,0.0,21%,30.38,10.0,NNW,11.5,,N/A,,Clear
2386,2016-04-05,10:51 PM,36.0,27.5,0.0,22%,30.38,10.0,NNW,12.7,,N/A,,Clear
2387,2016-04-05,11:51 PM,35.1,26.4,3.0,26%,30.40,10.0,NNW,12.7,,N/A,,Clear
2388,2016-04-06,12:51 AM,33.1,24.9,5.0,31%,30.39,10.0,NNW,10.4,,N/A,,Clear
2389,2016-04-06,1:51 AM,32.0,25.6,6.1,34%,30.38,10.0,North,6.9,,N/A,,Clear
2390,2016-04-06,2:51 AM,30.9,24.3,6.1,35%,30.39,10.0,North,6.9,,N/A,,Clear
2391,2016-04-06,3:51 AM,30.9,27.5,6.1,35%,30.38,10.0,North,3.5,,N/A,,Clear
2392,2016-04-06,4:51 AM,28.9,,10.9,47%,30.38,10.0,Calm,Calm,,N/A,,Clear
2393,2016-04-06,5:51 AM,28.9,25.2,9.0,43%,30.39,10.0,NE,3.5,,N/A,,Partly Cloudy
2394,2016-04-06,6:51 AM,30.0,26.5,10.0,43%,30.39,10.0,ENE,3.5,,N/A,,Scattered Clouds
2395,2016-04-06,7:51 AM,34.0,,8.1,34%,30.41,10.0,Calm,Calm,,N/A,,Scattered Clouds
2396,2016-04-06,8:51 AM,36.0,,7.0,30%,30.42,10.0,Calm,Calm,,N/A,,Scattered Clouds
2397,2016-04-06,9:51 AM,37.0,33.3,10.9,34%,30.43,10.0,SW,4.6,,N/A,,Scattered Clouds
2398,2016-04-06,10:51 AM,37.9,30.9,14.0,38%,30.41,10.0,South,10.4,,N/A,,Mostly Cloudy
2399,2016-04-06,11:51 AM,41.0,35.2,19.0,41%,30.38,10.0,SSE,9.2,,N/A,,Mostly Cloudy
2400,2016-04-06,12:51 PM,42.1,34.2,19.0,40%,30.34,10.0,South,16.1,,N/A,,Mostly Cloudy
2401,2016-04-06,1:51 PM,45.0,36.6,21.0,39%,30.30,10.0,South,21.9,,N/A,,Mostly Cloudy
2402,2016-04-06,2:51 PM,44.1,35.4,21.9,42%,30.25,10.0,SSE,21.9,28.8,N/A,,Mostly Cloudy
2403,2016-04-06,3:51 PM,45.0,36.0,21.9,40%,30.21,10.0,SSE,25.3,31.1,N/A,,Mostly Cloudy
2404,2016-04-06,4:51 PM,44.1,34.0,24.1,45%,30.16,10.0,South,29.9,35.7,N/A,,Mostly Cloudy
2405,2016-04-06,5:51 PM,45.0,36.2,24.1,44%,30.13,10.0,South,24.2,32.2,N/A,,Mostly Cloudy
2406,2016-04-06,6:51 PM,44.1,35.0,28.9,55%,30.12,10.0,South,24.2,29.9,N/A,,Mostly Cloudy
2407,2016-04-06,7:51 PM,44.1,35.0,32.0,63%,30.10,10.0,South,24.2,29.9,N/A,,Mostly Cloudy
2408,2016-04-06,8:51 PM,45.0,37.1,35.1,68%,30.08,10.0,South,19.6,25.3,N/A,,Mostly Cloudy
2409,2016-04-06,9:51 PM,45.0,38.2,39.9,82%,30.05,10.0,South,15.0,,N/A,,Mostly Cloudy
2410,2016-04-06,10:51 PM,45.0,40.1,41.0,86%,30.02,10.0,South,9.2,,N/A,,Overcast
2411,2016-04-06,11:51 PM,46.0,41.9,42.1,86%,30.00,10.0,South,8.1,,N/A,,Mostly Cloudy
2412,2016-04-08,12:51 AM,50.0,,37.9,63%,29.50,10.0,West,23.0,,N/A,,Scattered Clouds
2413,2016-04-08,1:51 AM,48.9,,37.9,66%,29.50,10.0,West,17.3,25.3,N/A,,Scattered Clouds
2414,2016-04-08,2:51 AM,48.0,,39.0,71%,29.51,10.0,WSW,13.8,,N/A,,Scattered Clouds
2415,2016-04-08,3:51 AM,46.9,,37.9,71%,29.51,10.0,West,20.7,25.3,N/A,,Partly Cloudy
2416,2016-04-08,4:51 AM,46.0,38.3,33.1,61%,29.52,10.0,West,20.7,28.8,N/A,,Partly Cloudy
2417,2016-04-08,5:51 AM,45.0,38.2,32.0,60%,29.54,10.0,West,15.0,,N/A,,Partly Cloudy
2418,2016-04-08,6:51 AM,44.1,36.5,32.0,63%,29.56,10.0,WSW,17.3,,N/A,,Scattered Clouds
2419,2016-04-08,7:51 AM,46.0,39.0,32.0,58%,29.58,10.0,West,17.3,,N/A,,Scattered Clouds
2420,2016-04-08,8:51 AM,46.9,,33.1,59%,29.60,10.0,WSW,20.7,28.8,N/A,,Scattered Clouds
2421,2016-04-08,9:51 AM,48.9,,30.0,48%,29.60,10.0,West,19.6,28.8,N/A,,Scattered Clouds
2422,2016-04-08,10:51 AM,46.9,,30.0,52%,29.62,10.0,WNW,17.3,23.0,0.00,Ra,Light Ra
2423,2016-04-08,11:51 AM,48.0,,27.0,44%,29.63,10.0,West,19.6,,0.00,,Mostly Cloudy
2424,2016-04-08,12:51 PM,48.9,,26.1,41%,29.63,10.0,West,20.7,,N/A,,Mostly Cloudy
2425,2016-04-08,1:51 PM,48.9,,24.1,38%,29.64,10.0,WSW,18.4,28.8,N/A,,Mostly Cloudy
2426,2016-04-08,2:51 PM,48.0,,23.0,37%,29.65,10.0,West,21.9,31.1,N/A,,Mostly Cloudy
2427,2016-04-08,3:51 PM,46.0,38.0,21.0,37%,29.68,10.0,West,21.9,,N/A,,Mostly Cloudy
2428,2016-04-08,4:51 PM,46.9,,21.0,36%,29.69,10.0,West,21.9,27.6,N/A,,Mostly Cloudy
2429,2016-04-08,5:51 PM,46.9,,18.0,32%,29.70,10.0,West,18.4,27.6,N/A,,Mostly Cloudy
2430,2016-04-08,6:51 PM,46.0,39.3,19.9,35%,29.73,10.0,West,16.1,25.3,N/A,,Mostly Cloudy
2431,2016-04-08,7:51 PM,46.0,39.0,19.9,35%,29.77,10.0,West,17.3,24.2,N/A,,Mostly Cloudy
2432,2016-04-08,8:51 PM,45.0,39.7,19.0,36%,29.80,10.0,West,10.4,18.4,N/A,,Scattered Clouds
2433,2016-04-08,9:51 PM,45.0,39.7,18.0,34%,29.81,10.0,WNW,10.4,,N/A,,Scattered Clouds
2434,2016-04-08,10:51 PM,43.0,38.8,21.0,42%,29.81,10.0,West,6.9,,N/A,,Scattered Clouds
2435,2016-04-08,11:51 PM,42.1,38.4,21.0,43%,29.79,10.0,NNE,5.8,,N/A,,Scattered Clouds
2436,2016-04-09,12:51 AM,39.9,35.8,23.0,51%,29.79,10.0,NNE,5.8,,N/A,,Partly Cloudy
2437,2016-04-09,1:51 AM,39.0,34.0,21.9,50%,29.78,10.0,North,6.9,,N/A,,Partly Cloudy
2438,2016-04-09,2:51 AM,36.0,32.1,21.9,57%,29.77,10.0,NE,4.6,,N/A,,Scattered Clouds
2439,2016-04-09,3:51 AM,37.0,,21.9,54%,29.78,10.0,Calm,Calm,,N/A,,Mostly Cloudy
2440,2016-04-09,4:51 AM,35.1,,21.0,57%,29.77,10.0,Calm,Calm,,N/A,,Scattered Clouds
2441,2016-04-09,5:51 AM,34.0,29.8,23.0,64%,29.77,10.0,East,4.6,,N/A,,Scattered Clouds
2442,2016-04-09,6:51 AM,35.1,27.9,24.1,64%,29.77,10.0,ENE,9.2,,N/A,,Mostly Cloudy
2443,2016-04-09,7:51 AM,39.9,34.5,24.1,53%,29.78,10.0,ENE,8.1,,N/A,,Mostly Cloudy
2444,2016-04-09,8:51 AM,42.1,36.6,24.1,49%,29.76,10.0,ENE,9.2,,N/A,,Mostly Cloudy
2445,2016-04-09,9:51 AM,43.0,37.2,25.0,49%,29.75,10.0,ENE,10.4,,N/A,,Mostly Cloudy
2446,2016-04-09,10:51 AM,44.1,39.0,26.1,49%,29.73,10.0,NE,9.2,,N/A,,Overcast
2447,2016-04-09,11:51 AM,45.0,40.1,27.0,49%,29.73,10.0,NE,9.2,,N/A,,Overcast
2448,2016-04-09,12:29 PM,42.8,35.4,30.2,61%,29.73,8.0,ESE,15.0,24.2,0.00,Ra,Light Ra
2449,2016-04-09,12:51 PM,41.0,33.9,33.1,73%,29.73,6.0,ENE,12.7,,0.02,Ra,Light Ra
2450,2016-04-09,1:51 PM,41.0,33.9,36.0,82%,29.73,7.0,NNE,12.7,,0.02,Ra,Light Ra
2451,2016-04-09,2:22 PM,39.2,31.2,35.6,87%,29.73,6.0,NNE,13.8,,0.02,Ra,Light Ra
2452,2016-04-09,2:51 PM,39.0,30.6,36.0,89%,29.74,7.0,North,15.0,,0.03,Ra,Light Ra
2453,2016-04-09,3:51 PM,39.0,31.4,35.1,86%,29.75,9.0,North,12.7,,0.00,Ra,Light Ra
2454,2016-04-09,4:51 PM,39.0,29.9,34.0,82%,29.77,9.0,North,17.3,20.7,0.01,Ra,Light Ra
2455,2016-04-09,5:51 PM,39.0,30.6,35.1,86%,29.78,9.0,North,15.0,,0.01,Ra,Light Ra
2456,2016-04-09,6:51 PM,39.0,34.0,34.0,82%,29.81,10.0,North,6.9,,0.00,,Overcast
2457,2016-04-09,7:51 PM,42.1,36.6,34.0,73%,29.83,10.0,WNW,9.2,,N/A,,Overcast
2458,2016-04-09,8:51 PM,43.0,35.4,30.9,62%,29.87,10.0,NW,16.1,,N/A,,Overcast
2459,2016-04-09,9:51 PM,42.1,33.3,28.9,60%,29.91,10.0,NW,19.6,25.3,N/A,,Mostly Cloudy
2460,2016-04-09,10:51 PM,42.1,34.2,25.0,51%,29.95,10.0,NW,16.1,,N/A,,Overcast
2461,2016-04-09,11:51 PM,39.9,31.1,19.9,45%,30.00,10.0,NW,17.3,25.3,N/A,,Mostly Cloudy
2462,2016-04-10,12:51 AM,37.9,27.3,17.1,43%,30.05,10.0,NW,21.9,28.8,N/A,,Scattered Clouds
2463,2016-04-10,1:51 AM,35.1,23.5,12.9,40%,30.09,10.0,NW,21.9,,N/A,,Scattered Clouds
2464,2016-04-10,2:51 AM,34.0,22.4,10.9,38%,30.13,10.0,NNW,20.7,,N/A,,Scattered Clouds
2465,2016-04-10,3:51 AM,33.1,21.2,12.0,42%,30.16,10.0,NNW,20.7,26.5,N/A,,Partly Cloudy
2466,2016-04-10,4:51 AM,33.1,21.5,14.0,46%,30.18,10.0,NNW,19.6,27.6,N/A,,Partly Cloudy
2467,2016-04-10,5:51 AM,32.0,23.0,15.1,50%,30.22,10.0,NW,11.5,20.7,N/A,,Clear
2468,2016-04-10,6:51 AM,32.0,24.2,15.1,50%,30.27,10.0,NW,9.2,,N/A,,Partly Cloudy
2469,2016-04-10,7:51 AM,34.0,24.6,15.1,46%,30.30,10.0,NW,13.8,,N/A,,Partly Cloudy
2470,2016-04-10,8:51 AM,37.0,29.3,16.0,42%,30.32,10.0,NNW,11.5,19.6,N/A,,Clear
2471,2016-04-10,9:51 AM,37.9,31.5,16.0,41%,30.34,10.0,WNW,9.2,,N/A,,Clear
2472,2016-04-10,10:51 AM,39.9,33.9,17.1,40%,30.35,10.0,WNW,9.2,,N/A,,Partly Cloudy
2473,2016-04-10,11:51 AM,42.1,37.1,17.1,37%,30.34,10.0,WSW,8.1,,N/A,,Partly Cloudy
2474,2016-04-10,12:51 PM,44.1,39.0,15.1,31%,30.33,10.0,SSW,9.2,16.1,N/A,,Partly Cloudy
2475,2016-04-10,1:51 PM,45.0,38.5,19.0,36%,30.33,10.0,SW,13.8,,N/A,,Partly Cloudy
2476,2016-04-10,2:51 PM,46.9,,18.0,32%,30.32,10.0,SSW,12.7,,N/A,,Partly Cloudy
2477,2016-04-10,3:51 PM,46.0,39.0,21.9,39%,30.30,10.0,South,17.3,,N/A,,Scattered Clouds
2478,2016-04-10,4:51 PM,44.1,35.9,24.1,45%,30.31,10.0,South,19.6,,N/A,,Scattered Clouds
2479,2016-04-10,5:51 PM,44.1,36.2,28.9,55%,30.32,10.0,South,18.4,,N/A,,Scattered Clouds
2480,2016-04-10,6:51 PM,44.1,36.2,30.0,58%,30.30,10.0,South,18.4,,N/A,,Scattered Clouds
2481,2016-04-10,7:51 PM,43.0,34.5,30.9,62%,30.30,10.0,South,19.6,,N/A,,Scattered Clouds
2482,2016-04-10,8:51 PM,44.1,36.5,34.0,68%,30.32,10.0,South,17.3,,N/A,,Scattered Clouds
2483,2016-04-10,9:51 PM,44.1,36.8,32.0,63%,30.33,10.0,SSW,16.1,,N/A,,Mostly Cloudy
2484,2016-04-10,10:51 PM,44.1,35.9,30.9,60%,30.33,10.0,South,19.6,,N/A,,Overcast
2485,2016-04-10,11:51 PM,43.0,34.5,30.0,60%,30.34,10.0,SSW,19.6,,N/A,,Mostly Cloudy
2486,2016-04-11,12:51 AM,44.1,36.5,32.0,63%,30.35,10.0,SSW,17.3,,N/A,,Overcast
2487,2016-04-11,1:51 AM,44.1,37.1,35.1,71%,30.32,10.0,SSW,15.0,,N/A,,Mostly Cloudy
2488,2016-04-11,2:51 AM,45.0,37.9,37.9,76%,30.30,10.0,South,16.1,,N/A,,Overcast
2489,2016-04-11,3:51 AM,45.0,37.9,36.0,71%,30.29,10.0,South,16.1,,N/A,,Overcast
2490,2016-04-11,4:51 AM,45.0,37.4,37.0,74%,30.29,10.0,South,18.4,,N/A,,Overcast
2491,2016-04-11,5:51 AM,46.0,38.3,37.9,73%,30.28,10.0,South,20.7,,0.00,,Overcast
2492,2016-04-11,6:51 AM,46.0,38.5,39.0,76%,30.27,10.0,South,19.6,,N/A,,Overcast
2493,2016-04-11,7:51 AM,46.9,,41.0,80%,30.26,10.0,South,19.6,,N/A,,Overcast
2494,2016-04-11,8:51 AM,48.0,,41.0,77%,30.25,10.0,South,18.4,,N/A,,Overcast
2495,2016-04-11,9:51 AM,48.9,,42.1,77%,30.24,10.0,South,17.3,,N/A,,Overcast
2496,2016-04-11,10:51 AM,50.0,,42.1,74%,30.22,10.0,South,23.0,27.6,N/A,,Overcast
2497,2016-04-11,11:51 AM,52.0,,41.0,66%,30.20,10.0,South,21.9,27.6,N/A,,Mostly Cloudy
2498,2016-04-11,12:51 PM,54.0,,42.1,64%,30.16,10.0,South,25.3,31.1,N/A,,Mostly Cloudy
2499,2016-04-11,1:51 PM,54.0,,42.1,64%,30.14,10.0,South,24.2,31.1,N/A,,Mostly Cloudy
2500,2016-04-11,2:51 PM,54.0,,41.0,62%,30.11,10.0,South,26.5,33.4,N/A,,Scattered Clouds
2501,2016-04-11,3:51 PM,54.0,,41.0,62%,30.08,10.0,South,25.3,33.4,N/A,,Scattered Clouds
2502,2016-04-11,4:51 PM,53.1,,41.0,64%,30.06,10.0,South,26.5,34.5,N/A,,Scattered Clouds
2503,2016-04-11,5:51 PM,52.0,,43.0,71%,30.04,10.0,South,25.3,32.2,N/A,,Mostly Cloudy
2504,2016-04-11,6:51 PM,51.1,,46.0,83%,30.06,10.0,South,21.9,29.9,N/A,,Mostly Cloudy
2505,2016-04-11,7:51 PM,53.1,,46.0,77%,30.04,10.0,South,21.9,,N/A,,Mostly Cloudy
2506,2016-04-11,8:51 PM,51.1,,46.9,86%,30.05,10.0,South,20.7,,N/A,,Mostly Cloudy
2507,2016-04-11,9:51 PM,51.1,,46.9,86%,30.05,10.0,South,17.3,,N/A,,Mostly Cloudy
2508,2016-04-11,10:51 PM,52.0,,46.9,83%,30.03,10.0,South,26.5,,N/A,,Mostly Cloudy
2509,2016-04-11,11:51 PM,52.0,,46.9,83%,30.01,10.0,South,28.8,,N/A,,Mostly Cloudy
2510,2016-04-12,12:51 AM,52.0,,46.9,83%,30.02,10.0,South,23.0,31.1,N/A,,Mostly Cloudy
2511,2016-04-12,1:51 AM,51.1,,46.9,86%,29.99,10.0,South,20.7,27.6,N/A,,Mostly Cloudy
2512,2016-04-12,2:51 AM,52.0,,46.9,83%,29.96,10.0,South,25.3,32.2,N/A,,Overcast
2513,2016-04-12,3:51 AM,52.0,,48.0,86%,29.95,10.0,South,23.0,33.4,N/A,,Overcast
2514,2016-04-12,4:51 AM,51.1,,48.0,89%,29.95,10.0,South,25.3,33.4,N/A,,Overcast
2515,2016-04-12,5:51 AM,51.1,,48.0,89%,29.95,10.0,South,21.9,,0.00,Ra,Light Ra
2516,2016-04-12,6:51 AM,51.1,,48.0,89%,29.97,8.0,South,23.0,31.1,0.00,,Overcast
2517,2016-04-12,7:51 AM,51.1,,48.9,92%,29.98,6.0,South,18.4,,0.01,Ra,Light Ra
2518,2016-04-12,8:40 AM,51.8,,48.2,88%,29.99,4.0,South,18.4,,0.02,Ra,Light Ra
2519,2016-04-12,8:51 AM,51.1,,48.9,92%,29.98,4.0,South,17.3,,0.03,Ra,Light Ra
2520,2016-04-12,9:51 AM,51.1,,48.9,92%,29.99,5.0,South,12.7,,0.03,Ra,Light Ra
2521,2016-04-12,10:48 AM,51.8,,50.0,94%,30.00,4.0,South,11.5,,0.05,Ra,Light Ra
2522,2016-04-12,10:51 AM,51.1,,50.0,96%,30.03,4.0,South,11.5,,0.05,Ra,Light Ra
2523,2016-04-12,10:55 AM,51.8,,50.0,94%,30.02,0.5,South,11.5,,0.00,Ra,Light Ra
2524,2016-04-12,11:04 AM,51.8,,48.2,88%,30.03,2.5,NNW,20.7,24.2,0.04,Ra,Heavy Ra
2525,2016-04-12,11:14 AM,50.0,,46.4,87%,30.03,7.0,NNW,17.3,,0.04,Ra,Light Ra
2526,2016-04-12,11:51 AM,46.9,,42.1,83%,30.06,6.0,NNW,13.8,,0.04,Ra,Light Ra
2527,2016-04-12,12:19 PM,46.4,40.7,42.8,87%,30.06,7.0,NNW,12.7,,0.01,Ra,Light Ra
2528,2016-04-12,12:51 PM,46.9,,42.1,83%,30.07,10.0,NNW,13.8,,0.01,,Overcast
2529,2016-04-12,1:51 PM,48.9,,39.0,69%,30.07,10.0,NW,17.3,,0.00,,Mostly Cloudy
2530,2016-04-12,2:51 PM,52.0,,37.0,57%,30.08,10.0,NW,11.5,,N/A,,Mostly Cloudy
2531,2016-04-12,3:51 PM,57.9,,34.0,41%,30.07,10.0,NNW,19.6,25.3,N/A,,Mostly Cloudy
2532,2016-04-12,4:51 PM,59.0,,28.9,32%,30.09,10.0,NW,18.4,25.3,N/A,,Scattered Clouds
2533,2016-04-12,5:51 PM,57.9,,27.0,31%,30.12,10.0,NW,15.0,25.3,N/A,,Scattered Clouds
2534,2016-04-12,6:51 PM,55.9,,24.1,29%,30.14,10.0,NNW,18.4,27.6,N/A,,Scattered Clouds
2535,2016-04-12,7:51 PM,53.1,,21.9,30%,30.19,10.0,NNW,19.6,34.5,N/A,,Scattered Clouds
2536,2016-04-12,8:51 PM,50.0,,21.0,32%,30.24,10.0,NNW,15.0,24.2,N/A,,Partly Cloudy
2537,2016-04-12,9:51 PM,48.0,,19.9,33%,30.27,10.0,North,16.1,,N/A,,Partly Cloudy
2538,2016-04-12,10:51 PM,46.9,,19.9,34%,30.29,10.0,North,16.1,20.7,N/A,,Partly Cloudy
2539,2016-04-12,11:51 PM,46.0,41.0,19.0,34%,30.30,10.0,North,10.4,,N/A,,Clear
2540,2016-04-13,12:51 AM,44.1,39.0,19.9,38%,30.31,10.0,North,9.2,,N/A,,Clear
2541,2016-04-13,1:51 AM,42.1,37.7,21.0,43%,30.33,10.0,North,6.9,,N/A,,Clear
2542,2016-04-13,2:51 AM,41.0,39.0,21.9,47%,30.34,10.0,NNE,3.5,,N/A,,Clear
2543,2016-04-13,3:51 AM,37.9,34.4,24.1,57%,30.35,10.0,NE,4.6,,N/A,,Clear
2544,2016-04-13,4:51 AM,39.0,34.0,25.0,57%,30.36,10.0,North,6.9,,N/A,,Clear
2545,2016-04-13,5:51 AM,39.0,33.4,25.0,57%,30.39,10.0,North,8.1,,N/A,,Clear
2546,2016-04-13,6:51 AM,39.9,34.5,25.0,55%,30.42,10.0,North,8.1,,N/A,,Clear
2547,2016-04-13,7:51 AM,43.0,35.7,24.1,47%,30.43,10.0,North,15.0,,N/A,,Clear
2548,2016-04-13,8:51 AM,45.0,37.6,21.9,40%,30.43,10.0,North,17.3,24.2,N/A,,Clear
2549,2016-04-13,9:51 AM,48.0,,24.1,39%,30.42,10.0,NNE,13.8,,N/A,,Partly Cloudy
2550,2016-04-13,10:51 AM,48.9,,25.0,39%,30.42,10.0,North,10.4,,N/A,,Partly Cloudy
2551,2016-04-13,11:51 AM,51.1,,24.1,35%,30.40,10.0,Variable,4.6,16.1,N/A,,Partly Cloudy
2552,2016-04-13,12:51 PM,53.1,,21.9,30%,30.38,10.0,NNE,9.2,,N/A,,Partly Cloudy
2553,2016-04-13,1:51 PM,54.0,,19.9,26%,30.36,10.0,Variable,5.8,,N/A,,Partly Cloudy
2554,2016-04-13,2:51 PM,50.0,,28.0,43%,30.34,10.0,South,10.4,,N/A,,Scattered Clouds
2555,2016-04-13,3:51 PM,52.0,,28.9,41%,30.32,10.0,SSW,11.5,,N/A,,Scattered Clouds
2556,2016-04-13,4:51 PM,50.0,,28.9,44%,30.33,10.0,South,11.5,,N/A,,Scattered Clouds
2557,2016-04-13,5:51 PM,48.9,,30.9,50%,30.35,10.0,SSW,11.5,,N/A,,Partly Cloudy
2558,2016-04-13,6:51 PM,48.0,,33.1,56%,30.33,10.0,SSE,9.2,,N/A,,Scattered Clouds
2559,2016-04-13,7:51 PM,46.0,43.1,33.1,61%,30.33,10.0,SSE,5.8,,N/A,,Scattered Clouds
2560,2016-04-13,8:51 PM,45.0,41.8,34.0,65%,30.33,10.0,SSE,5.8,,N/A,,Partly Cloudy
2561,2016-04-13,9:51 PM,44.1,41.5,35.1,71%,30.33,10.0,South,4.6,,N/A,,Mostly Cloudy
2562,2016-04-13,10:51 PM,43.0,39.5,35.1,74%,30.33,10.0,SSW,5.8,,N/A,,Mostly Cloudy
2563,2016-04-13,11:51 PM,43.0,40.3,36.0,76%,30.34,10.0,SW,4.6,,N/A,,Mostly Cloudy
2564,2016-04-14,12:51 AM,43.0,38.2,36.0,76%,30.33,10.0,SW,8.1,,N/A,,Mostly Cloudy
2565,2016-04-14,1:51 AM,42.1,39.2,35.1,76%,30.31,10.0,SSW,4.6,,N/A,,Partly Cloudy
2566,2016-04-14,2:51 AM,41.0,38.0,34.0,76%,30.30,10.0,South,4.6,,N/A,,Scattered Clouds
2567,2016-04-14,3:51 AM,41.0,,34.0,76%,30.31,10.0,Calm,Calm,,N/A,,Scattered Clouds
2568,2016-04-14,4:51 AM,37.9,33.5,34.0,86%,30.32,10.0,ENE,5.8,,N/A,,Partly Cloudy
2569,2016-04-14,5:51 AM,39.0,34.0,35.1,86%,30.33,10.0,NE,6.9,,N/A,,Scattered Clouds
2570,2016-04-14,6:51 AM,39.9,35.1,36.0,86%,30.36,10.0,NNE,6.9,,N/A,,Scattered Clouds
2571,2016-04-14,7:51 AM,45.0,41.2,37.0,74%,30.38,10.0,NE,6.9,,N/A,,Scattered Clouds
2572,2016-04-14,8:51 AM,48.0,,35.1,61%,30.38,10.0,NE,10.4,,N/A,,Scattered Clouds
2573,2016-04-14,9:51 AM,50.0,,34.0,54%,30.39,10.0,NE,8.1,,N/A,,Scattered Clouds
2574,2016-04-14,10:51 AM,53.1,,30.9,43%,30.39,10.0,ENE,8.1,,N/A,,Scattered Clouds
2575,2016-04-14,11:51 AM,55.0,,26.1,33%,30.39,10.0,North,5.8,,N/A,,Partly Cloudy
2576,2016-04-14,12:51 PM,54.0,,33.1,45%,30.37,10.0,SW,3.5,,N/A,,Partly Cloudy
2577,2016-04-14,1:51 PM,54.0,,34.0,47%,30.35,10.0,South,12.7,,N/A,,Partly Cloudy
2578,2016-04-14,2:51 PM,54.0,,34.0,47%,30.35,10.0,SSW,12.7,,N/A,,Partly Cloudy
2579,2016-04-14,3:51 PM,53.1,,28.9,40%,30.33,10.0,South,10.4,,N/A,,Clear
2580,2016-04-14,4:51 PM,53.1,,30.9,43%,30.32,10.0,SSE,10.4,,N/A,,Clear
2581,2016-04-14,5:51 PM,51.1,,32.0,48%,30.32,10.0,South,10.4,,N/A,,Clear
2582,2016-04-14,6:51 PM,50.0,,35.1,57%,30.32,10.0,SE,10.4,,N/A,,Clear
2583,2016-04-14,7:51 PM,46.9,,33.1,59%,30.34,10.0,SE,11.5,,N/A,,Clear
2584,2016-04-14,8:51 PM,46.0,41.0,34.0,63%,30.37,10.0,SE,10.4,,N/A,,Clear
2585,2016-04-14,9:51 PM,46.0,41.4,36.0,68%,30.39,10.0,SE,9.2,,N/A,,Clear
2586,2016-04-14,10:51 PM,45.0,43.5,34.0,65%,30.40,10.0,SSE,3.5,,N/A,,Clear
2587,2016-04-14,11:51 PM,44.1,42.5,32.0,63%,30.42,10.0,SE,3.5,,N/A,,Clear
2588,2016-04-15,12:51 AM,44.1,,30.9,60%,30.42,10.0,Calm,Calm,,N/A,,Clear
2589,2016-04-15,1:51 AM,44.1,,30.9,60%,30.41,10.0,Calm,Calm,,N/A,,Clear
2590,2016-04-15,2:51 AM,41.0,,30.9,67%,30.40,10.0,Calm,Calm,,N/A,,Clear
2591,2016-04-15,3:51 AM,43.0,41.3,32.0,65%,30.40,10.0,North,3.5,,N/A,,Clear
2592,2016-04-15,4:51 AM,39.0,35.7,32.0,76%,30.40,10.0,NE,4.6,,N/A,,Clear
2593,2016-04-15,5:51 AM,41.0,37.1,34.0,76%,30.41,10.0,North,5.8,,N/A,,Clear
2594,2016-04-15,6:51 AM,42.1,37.7,36.0,79%,30.42,10.0,North,6.9,,N/A,,Clear
2595,2016-04-15,7:51 AM,46.9,,37.0,68%,30.44,10.0,North,6.9,,N/A,,Partly Cloudy
2596,2016-04-15,8:51 AM,50.0,,35.1,57%,30.45,10.0,North,9.2,,N/A,,Clear
2597,2016-04-15,9:51 AM,53.1,,27.0,37%,30.46,10.0,NNE,10.4,,N/A,,Clear
2598,2016-04-15,10:51 AM,55.0,,21.9,28%,30.48,10.0,Variable,5.8,,N/A,,Partly Cloudy
2599,2016-04-15,11:51 AM,57.0,,19.0,23%,30.47,10.0,Calm,Calm,,N/A,,Partly Cloudy
2600,2016-04-15,12:51 PM,55.0,,30.0,38%,30.46,10.0,South,4.6,,N/A,,Partly Cloudy
2601,2016-04-15,1:51 PM,55.0,,30.0,38%,30.45,10.0,SSW,13.8,,N/A,,Partly Cloudy
2602,2016-04-15,2:51 PM,55.0,,32.0,42%,30.44,10.0,South,11.5,,N/A,,Partly Cloudy
2603,2016-04-15,3:51 PM,54.0,,30.9,41%,30.41,10.0,South,9.2,,N/A,,Partly Cloudy
2604,2016-04-15,4:51 PM,54.0,,33.1,45%,30.40,10.0,SSW,10.4,,N/A,,Partly Cloudy
2605,2016-04-15,5:51 PM,52.0,,34.0,50%,30.40,10.0,South,10.4,,N/A,,Partly Cloudy
2606,2016-04-15,6:51 PM,50.0,,33.1,52%,30.39,10.0,SSE,9.2,,N/A,,Clear
2607,2016-04-15,7:51 PM,48.0,,35.1,61%,30.40,10.0,SSE,6.9,,N/A,,Clear
2608,2016-04-15,8:51 PM,46.9,,34.0,61%,30.42,10.0,SSE,10.4,,N/A,,Clear
2609,2016-04-15,9:51 PM,46.9,,35.1,63%,30.43,10.0,SSE,8.1,,N/A,,Clear
2610,2016-04-15,10:51 PM,44.1,40.8,33.1,65%,30.44,10.0,South,5.8,,N/A,,Clear
2611,2016-04-15,11:51 PM,44.1,40.8,34.0,68%,30.43,10.0,SSW,5.8,,N/A,,Clear
2612,2016-04-16,12:51 AM,46.0,41.4,33.1,61%,30.43,10.0,SSW,9.2,,N/A,,Clear
2613,2016-04-16,1:51 AM,44.1,40.8,32.0,63%,30.42,10.0,SSW,5.8,,N/A,,Clear
2614,2016-04-16,2:51 AM,41.0,38.0,33.1,73%,30.41,10.0,East,4.6,,N/A,,Clear
2615,2016-04-16,3:51 AM,39.9,35.8,35.1,83%,30.42,10.0,ENE,5.8,,N/A,,Partly Cloudy
2616,2016-04-16,4:51 AM,39.0,34.8,34.0,82%,30.43,10.0,ENE,5.8,,N/A,,Clear
2617,2016-04-16,5:51 AM,39.9,34.5,33.1,77%,30.44,10.0,NE,8.1,,N/A,,Partly Cloudy
2618,2016-04-16,6:51 AM,43.0,39.5,28.9,58%,30.46,10.0,North,5.8,,N/A,,Partly Cloudy
2619,2016-04-16,7:51 AM,48.0,,30.0,50%,30.48,10.0,NE,9.2,,N/A,,Partly Cloudy
2620,2016-04-16,8:51 AM,52.0,,18.0,26%,30.49,10.0,NNE,15.0,19.6,N/A,,Mostly Cloudy
2621,2016-04-16,9:51 AM,53.1,,14.0,21%,30.48,10.0,NNE,12.7,24.2,N/A,,Mostly Cloudy
2622,2016-04-16,10:51 AM,55.0,,12.9,19%,30.48,10.0,NE,13.8,20.7,N/A,,Mostly Cloudy
2623,2016-04-16,11:51 AM,57.9,,14.0,18%,30.46,10.0,NE,11.5,,N/A,,Mostly Cloudy
2624,2016-04-16,12:51 PM,61.0,,14.0,16%,30.44,10.0,North,12.7,25.3,N/A,,Mostly Cloudy
2625,2016-04-16,1:51 PM,63.0,,12.0,14%,30.43,10.0,NNE,10.4,,N/A,,Mostly Cloudy
2626,2016-04-16,2:51 PM,64.9,,10.9,12%,30.41,10.0,NNE,10.4,18.4,N/A,,Mostly Cloudy
2627,2016-04-16,3:51 PM,64.9,,12.0,13%,30.40,10.0,NNW,10.4,18.4,N/A,,Mostly Cloudy
2628,2016-04-16,4:42 PM,57.2,,26.6,31%,30.39,10.0,South,9.2,,N/A,,Mostly Cloudy
2629,2016-04-16,4:51 PM,59.0,,26.1,28%,30.40,10.0,South,10.4,,N/A,,Mostly Cloudy
2630,2016-04-16,5:51 PM,57.9,,25.0,28%,30.40,10.0,SSE,9.2,,N/A,,Mostly Cloudy
2631,2016-04-16,6:51 PM,52.0,,34.0,50%,30.42,10.0,SE,11.5,,N/A,,Mostly Cloudy
2632,2016-04-16,7:51 PM,48.9,,35.1,59%,30.43,10.0,SE,10.4,,N/A,,Mostly Cloudy
2633,2016-04-16,8:51 PM,48.0,,37.0,66%,30.45,10.0,ESE,9.2,,N/A,,Mostly Cloudy
2634,2016-04-16,9:51 PM,48.0,,37.9,68%,30.46,10.0,ESE,6.9,,N/A,,Mostly Cloudy
2635,2016-04-16,10:51 PM,46.0,44.8,37.9,73%,30.47,10.0,East,3.5,,N/A,,Mostly Cloudy
2636,2016-04-16,11:51 PM,46.9,,37.9,71%,30.47,10.0,Calm,Calm,,N/A,,Mostly Cloudy
2637,2016-04-17,12:51 AM,45.0,,37.9,76%,30.47,10.0,Calm,Calm,,N/A,,Scattered Clouds
2638,2016-04-17,1:51 AM,46.0,43.1,35.1,66%,30.46,10.0,North,5.8,,N/A,,Clear
2639,2016-04-17,2:51 AM,45.0,42.6,35.1,68%,30.44,10.0,NNW,4.6,,N/A,,Partly Cloudy
2640,2016-04-17,3:51 AM,45.0,42.6,34.0,65%,30.44,10.0,North,4.6,,N/A,,Clear
2641,2016-04-17,4:51 AM,44.1,40.8,35.1,71%,30.44,10.0,North,5.8,,N/A,,Clear
2642,2016-04-17,5:51 AM,44.1,41.5,37.9,79%,30.45,10.0,NNW,4.6,,N/A,,Clear
2643,2016-04-17,6:51 AM,45.0,41.8,39.0,80%,30.47,10.0,North,5.8,,N/A,,Partly Cloudy
2644,2016-04-17,7:51 AM,50.0,,37.9,63%,30.47,10.0,North,8.1,,N/A,,Partly Cloudy
2645,2016-04-17,8:51 AM,55.0,,30.9,40%,30.46,10.0,North,9.2,,N/A,,Partly Cloudy
2646,2016-04-17,9:51 AM,57.9,,26.1,30%,30.47,10.0,NNE,6.9,,N/A,,Partly Cloudy
2647,2016-04-17,10:51 AM,60.1,,24.1,25%,30.45,10.0,North,4.6,,N/A,,Partly Cloudy
2648,2016-04-17,11:51 AM,63.0,,19.9,19%,30.43,10.0,North,8.1,,N/A,,Partly Cloudy
2649,2016-04-17,12:51 PM,64.9,,18.0,16%,30.40,10.0,Variable,3.5,,N/A,,Partly Cloudy
2650,2016-04-17,1:51 PM,68.0,,21.0,17%,30.38,10.0,Variable,4.6,,N/A,,Partly Cloudy
2651,2016-04-17,2:51 PM,64.0,,25.0,23%,30.36,10.0,South,10.4,,N/A,,Partly Cloudy
2652,2016-04-17,3:51 PM,63.0,,30.0,29%,30.33,10.0,South,10.4,,N/A,,Partly Cloudy
2653,2016-04-17,4:51 PM,61.0,,30.0,31%,30.31,10.0,SSE,11.5,,N/A,,Scattered Clouds
2654,2016-04-17,5:51 PM,57.0,,33.1,40%,30.30,10.0,South,11.5,,N/A,,Scattered Clouds
2655,2016-04-17,6:51 PM,55.0,,30.0,38%,30.30,10.0,South,11.5,,N/A,,Scattered Clouds
2656,2016-04-17,7:51 PM,53.1,,30.9,43%,30.30,10.0,SSE,4.6,,N/A,,Scattered Clouds
2657,2016-04-17,8:51 PM,51.1,,34.0,52%,30.30,10.0,SSE,5.8,,N/A,,Scattered Clouds
2658,2016-04-17,9:51 PM,51.1,,34.0,52%,30.30,10.0,SSE,8.1,,N/A,,Partly Cloudy
2659,2016-04-17,10:51 PM,50.0,,34.0,54%,30.30,10.0,South,8.1,,N/A,,Partly Cloudy
2660,2016-04-17,11:51 PM,51.1,,30.9,46%,30.29,10.0,South,8.1,,N/A,,Clear
2661,2016-04-26,12:51 AM,54.0,,50.0,86%,29.86,10.0,NE,6.9,,N/A,,Scattered Clouds
2662,2016-04-26,1:51 AM,52.0,,48.9,89%,29.81,10.0,ENE,3.5,,N/A,,Mostly Cloudy
2663,2016-04-26,2:51 AM,54.0,,51.1,90%,29.77,10.0,ENE,6.9,,N/A,,Overcast
2664,2016-04-26,3:51 AM,55.0,,50.0,83%,29.84,10.0,NW,28.8,35.7,N/A,,Overcast
2665,2016-04-26,4:03 AM,53.6,,48.2,82%,29.81,5.0,NW,23.0,38.0,0.01,Ra,Ra
2666,2016-04-26,4:08 AM,53.6,,48.2,82%,29.79,8.0,NNE,13.8,24.2,0.02,"Ra
	,
Thunderstorm",Light Thunderstorms and Ra
2667,2016-04-26,4:33 AM,51.8,,48.2,88%,29.76,10.0,NE,19.6,25.3,0.02,,Overcast
2668,2016-04-26,4:51 AM,52.0,,50.0,93%,29.77,10.0,NE,13.8,,0.02,,Overcast
2669,2016-04-26,5:51 AM,53.1,,50.0,89%,29.76,10.0,East,6.9,,N/A,,Overcast
2670,2016-04-26,6:51 AM,54.0,,51.1,90%,29.77,10.0,ENE,4.6,,N/A,,Mostly Cloudy
2671,2016-04-26,7:18 AM,53.6,,51.8,94%,29.76,10.0,East,4.6,,N/A,,Overcast
2672,2016-04-26,7:51 AM,55.0,,51.1,86%,29.76,10.0,East,5.8,,N/A,,Mostly Cloudy
2673,2016-04-26,8:02 AM,55.4,,51.8,88%,29.75,10.0,East,8.1,,N/A,,Mostly Cloudy
2674,2016-04-26,8:51 AM,57.9,,52.0,81%,29.73,10.0,East,5.8,,N/A,,Mostly Cloudy
2675,2016-04-26,9:51 AM,60.1,,53.1,78%,29.70,10.0,SSE,4.6,,N/A,,Mostly Cloudy
2676,2016-04-26,10:51 AM,60.1,,53.1,78%,29.70,10.0,WSW,5.8,,N/A,,Overcast
2677,2016-04-26,11:51 AM,59.0,,52.0,78%,29.68,9.0,NNE,8.1,,0.00,Ra,Light Ra
2678,2016-04-26,12:51 PM,63.0,,55.0,75%,29.67,10.0,North,8.1,,0.00,,Mostly Cloudy
2679,2016-04-26,1:51 PM,63.0,,50.0,63%,29.66,10.0,North,11.5,,N/A,,Mostly Cloudy
2680,2016-04-26,2:51 PM,64.0,,50.0,60%,29.65,10.0,NE,12.7,,N/A,,Mostly Cloudy
2681,2016-04-26,3:51 PM,61.0,,48.9,64%,29.65,10.0,NE,15.0,,N/A,,Mostly Cloudy
2682,2016-04-26,4:51 PM,55.9,,51.1,84%,29.72,10.0,ENE,6.9,,0.00,Ra,Light Ra
2683,2016-04-26,5:38 PM,55.4,,51.8,88%,29.72,9.0,NE,11.5,,0.02,,Overcast
2684,2016-04-26,5:51 PM,54.0,,51.1,90%,29.73,9.0,ENE,12.7,,0.02,,Overcast
2685,2016-04-26,6:51 PM,52.0,,48.0,86%,29.76,9.0,ENE,9.2,,N/A,,Overcast
2686,2016-04-26,7:51 PM,50.0,,46.0,86%,29.78,7.0,NE,16.1,,N/A,,Overcast
2687,2016-04-26,8:51 PM,48.0,,43.0,83%,29.84,10.0,ENE,12.7,,N/A,,Overcast
2688,2016-04-26,9:51 PM,46.9,,42.1,83%,29.86,10.0,NE,13.8,,N/A,,Overcast
2689,2016-04-26,10:51 PM,46.9,,41.0,80%,29.87,10.0,NE,13.8,,N/A,,Overcast
2690,2016-04-26,11:28 PM,46.4,39.8,39.2,76%,29.88,10.0,NE,16.1,,N/A,,Overcast
2691,2016-04-26,11:51 PM,46.9,,41.0,80%,29.88,10.0,NE,9.2,,N/A,,Overcast
2692,2016-04-27,12:44 AM,46.4,40.7,39.2,76%,29.89,10.0,NE,12.7,,N/A,,Overcast
2693,2016-04-27,12:51 AM,46.9,,39.0,74%,29.88,10.0,NE,10.4,,N/A,,Overcast
2694,2016-04-27,1:51 AM,46.9,,37.9,71%,29.89,10.0,NE,10.4,,N/A,,Overcast
2695,2016-04-27,2:51 AM,46.0,41.9,39.0,76%,29.89,10.0,NE,8.1,,N/A,,Overcast
2696,2016-04-27,3:51 AM,46.9,,39.0,74%,29.92,10.0,NNE,8.1,,N/A,,Overcast
2697,2016-04-27,4:51 AM,46.0,41.9,37.9,73%,29.93,10.0,NNE,8.1,,N/A,,Overcast
2698,2016-04-27,5:51 AM,46.9,,39.0,74%,29.93,10.0,NNE,6.9,,N/A,,Overcast
2699,2016-04-27,6:51 AM,46.9,,39.0,74%,29.94,10.0,NNE,5.8,,N/A,,Mostly Cloudy
2700,2016-04-27,7:51 AM,48.0,,39.0,71%,29.94,10.0,North,10.4,,N/A,,Mostly Cloudy
2701,2016-04-27,8:51 AM,50.0,,37.9,63%,29.95,10.0,NNE,5.8,,N/A,,Mostly Cloudy
2702,2016-04-27,9:51 AM,52.0,,36.0,54%,29.96,10.0,North,4.6,,N/A,,Mostly Cloudy
2703,2016-04-27,10:51 AM,52.0,,35.1,53%,29.96,10.0,Calm,Calm,,N/A,,Mostly Cloudy
2704,2016-04-27,11:51 AM,52.0,,39.0,61%,29.95,10.0,South,10.4,,N/A,,Mostly Cloudy
2705,2016-04-27,12:51 PM,53.1,,41.0,64%,29.94,10.0,SSW,10.4,,N/A,,Scattered Clouds
2706,2016-04-27,1:51 PM,53.1,,39.9,61%,29.94,10.0,South,11.5,,N/A,,Scattered Clouds
2707,2016-04-27,2:51 PM,53.1,,39.9,61%,29.92,10.0,South,10.4,,N/A,,Mostly Cloudy
2708,2016-04-27,3:51 PM,54.0,,39.9,59%,29.91,10.0,South,10.4,,N/A,,Mostly Cloudy
2709,2016-04-27,4:51 PM,53.1,,41.0,64%,29.92,10.0,South,12.7,,N/A,,Mostly Cloudy
2710,2016-04-27,5:51 PM,53.1,,42.1,66%,29.91,10.0,South,12.7,,N/A,,Mostly Cloudy
2711,2016-04-27,6:51 PM,52.0,,42.1,69%,29.90,10.0,South,13.8,,N/A,,Mostly Cloudy
2712,2016-04-27,7:51 PM,51.1,,45.0,80%,29.89,10.0,South,12.7,,N/A,,Mostly Cloudy
2713,2016-04-27,8:51 PM,51.1,,45.0,80%,29.90,10.0,SSW,17.3,,N/A,,Partly Cloudy
2714,2016-04-27,9:51 PM,52.0,,46.0,80%,29.91,10.0,SSW,15.0,,N/A,,Partly Cloudy
2715,2016-04-27,10:51 PM,51.1,,46.0,83%,29.92,10.0,SW,11.5,,N/A,,Partly Cloudy
2716,2016-04-27,11:51 PM,52.0,,46.9,83%,29.93,10.0,WSW,9.2,,N/A,,Scattered Clouds
2717,2016-05-01,12:51 AM,48.9,,37.9,66%,30.25,10.0,SSE,6.9,,N/A,,Overcast
2718,2016-05-01,1:51 AM,48.9,,37.9,66%,30.23,10.0,SE,6.9,,N/A,,Overcast
2719,2016-05-01,2:51 AM,48.9,,37.9,66%,30.22,10.0,SSE,4.6,,N/A,,Overcast
2720,2016-05-01,3:51 AM,48.9,,37.0,64%,30.22,10.0,SE,4.6,,N/A,,Overcast
2721,2016-05-01,4:51 AM,48.9,,37.9,66%,30.21,10.0,ESE,5.8,,N/A,,Overcast
2722,2016-05-01,5:51 AM,48.9,,37.9,66%,30.22,10.0,East,6.9,,N/A,,Overcast
2723,2016-05-01,6:51 AM,48.9,,37.9,66%,30.23,10.0,ESE,5.8,,N/A,,Overcast
2724,2016-05-01,7:51 AM,50.0,,42.1,74%,30.23,10.0,SE,6.9,,0.00,Ra,Light Ra
2725,2016-05-01,8:51 AM,48.9,,45.0,86%,30.25,10.0,SE,3.5,,0.00,Ra,Light Ra
2726,2016-05-01,9:51 AM,50.0,,46.0,86%,30.22,9.0,ESE,10.4,,0.02,Ra,Light Ra
2727,2016-05-01,10:51 AM,48.9,,45.0,86%,30.22,6.0,ESE,10.4,,0.04,Ra,Light Ra
2728,2016-05-01,11:47 AM,48.2,,46.4,93%,30.22,4.0,ESE,11.5,,0.05,Ra,Ra
2729,2016-05-01,11:48 AM,48.9,,46.0,90%,30.22,4.0,SE,11.5,,0.05,Ra,Light Ra
2730,2016-05-01,12:51 PM,48.0,,44.1,86%,30.19,7.0,SE,8.1,,0.04,Ra,Light Ra
2731,2016-05-01,1:51 PM,48.0,,44.1,86%,30.18,10.0,East,10.4,,0.01,Ra,Light Ra
2732,2016-05-01,2:27 PM,48.2,,42.8,82%,30.16,10.0,ESE,11.5,,0.00,Ra,Light Ra
2733,2016-05-01,2:51 PM,48.0,,43.0,83%,30.17,10.0,ESE,11.5,,0.00,,Light Drizzle
2734,2016-05-01,3:51 PM,48.0,,44.1,86%,30.15,2.5,ESE,12.7,,0.01,Ra,Light Ra
2735,2016-05-01,4:24 PM,48.2,,44.6,87%,30.14,3.0,ESE,11.5,,0.02,Ra,Light Ra
2736,2016-05-01,4:51 PM,48.0,,46.0,93%,30.14,6.0,East,9.2,,0.02,Ra,Light Ra
2737,2016-05-01,5:51 PM,48.0,,46.0,93%,30.12,3.0,East,10.4,,0.01,,Light Drizzle
2738,2016-05-01,6:51 PM,46.9,,45.0,93%,30.12,4.0,NE,12.7,,0.01,,Light Drizzle
2739,2016-05-01,7:51 PM,46.9,,45.0,93%,30.11,2.5,ENE,8.1,,0.00,,Light Drizzle
2740,2016-05-01,8:51 PM,45.0,40.1,43.0,93%,30.12,5.0,ENE,9.2,,0.01,,Overcast
2741,2016-05-01,9:51 PM,45.0,41.2,43.0,93%,30.12,5.0,NE,6.9,,N/A,,Overcast
2742,2016-05-01,10:51 PM,45.0,41.2,42.1,90%,30.09,5.0,NE,6.9,,N/A,,Overcast
2743,2016-05-01,11:51 PM,45.0,40.1,42.1,90%,30.10,3.0,NNE,9.2,,0.00,,Light Drizzle
2744,2016-05-02,12:51 AM,46.0,43.1,43.0,89%,30.08,3.0,NNE,5.8,,0.00,,Light Drizzle
2745,2016-05-02,1:51 AM,46.0,42.5,44.1,93%,30.05,6.0,NE,6.9,,0.00,,Overcast
2746,2016-05-02,2:51 AM,46.9,,44.1,90%,30.05,6.0,North,5.8,,N/A,,Overcast
2747,2016-05-02,3:43 AM,46.4,42.4,44.6,93%,30.04,0.5,North,8.1,,N/A,,Overcast
2748,2016-05-02,3:51 AM,46.0,42.5,44.1,93%,30.04,0.5,North,6.9,,N/A,,Overcast
2749,2016-05-02,4:51 AM,46.0,41.4,44.1,93%,30.01,1.0,NNE,9.2,,N/A,,Overcast
2750,2016-05-02,5:51 AM,46.0,41.9,44.1,93%,30.01,1.5,NE,8.1,,N/A,,Overcast
2751,2016-05-02,6:51 AM,46.9,,45.0,93%,30.02,1.5,ENE,5.8,,N/A,,Overcast
2752,2016-05-02,7:51 AM,48.0,,46.0,93%,30.01,2.0,ENE,5.8,,N/A,,Overcast
2753,2016-05-02,8:51 AM,48.9,,46.9,93%,30.01,2.0,Calm,Calm,,N/A,,Overcast
2754,2016-05-02,9:51 AM,50.0,,46.9,89%,30.02,3.0,SSE,3.5,,N/A,,Overcast
2755,2016-05-02,10:51 AM,51.1,,48.0,89%,29.98,7.0,SSE,8.1,,N/A,,Overcast
2756,2016-05-02,11:51 AM,51.1,,48.0,89%,29.98,10.0,SSE,5.8,,N/A,,Overcast
2757,2016-05-02,12:51 PM,52.0,,48.9,89%,29.96,10.0,SSE,8.1,,N/A,,Overcast
2758,2016-05-02,1:51 PM,52.0,,50.0,93%,29.95,10.0,SSW,3.5,,N/A,,Overcast
2759,2016-05-02,2:51 PM,55.0,,50.0,83%,29.93,10.0,South,8.1,,N/A,,Mostly Cloudy
2760,2016-05-02,3:04 PM,55.4,,50.0,82%,29.93,10.0,SSW,4.6,,N/A,,Overcast
2761,2016-05-02,3:51 PM,54.0,,50.0,86%,29.92,10.0,SSW,5.8,,N/A,,Overcast
2762,2016-05-02,4:12 PM,55.4,,50.0,82%,29.91,10.0,South,5.8,,N/A,,Mostly Cloudy
2763,2016-05-02,4:51 PM,55.9,,50.0,80%,29.91,10.0,SW,5.8,,N/A,,Mostly Cloudy
2764,2016-05-02,5:51 PM,55.0,,51.1,86%,29.92,10.0,SSW,6.9,,N/A,,Mostly Cloudy
2765,2016-05-02,6:35 PM,53.6,,51.8,94%,29.92,10.0,South,4.6,,N/A,,Mostly Cloudy
2766,2016-05-02,6:51 PM,54.0,,50.0,86%,29.92,10.0,South,5.8,,N/A,,Mostly Cloudy
2767,2016-05-02,7:51 PM,52.0,,48.9,89%,29.95,10.0,South,3.5,,N/A,,Mostly Cloudy
2768,2016-05-02,8:51 PM,52.0,,48.9,89%,29.94,10.0,South,4.6,,N/A,,Mostly Cloudy
2769,2016-05-02,9:51 PM,52.0,,50.0,93%,29.95,10.0,SSE,4.6,,N/A,,Mostly Cloudy
2770,2016-05-02,10:51 PM,52.0,,48.9,89%,29.95,10.0,East,3.5,,N/A,,Mostly Cloudy
2771,2016-05-02,11:51 PM,53.1,,50.0,89%,29.97,8.0,SSW,9.2,,0.00,Ra,Light Ra
2772,2016-05-05,12:51 AM,48.9,,43.0,80%,29.75,10.0,NE,15.0,,N/A,,Overcast
2773,2016-05-05,1:51 AM,48.0,,42.1,80%,29.73,10.0,NNE,12.7,,N/A,,Overcast
2774,2016-05-05,2:51 AM,48.0,,42.1,80%,29.73,10.0,NNE,12.7,,N/A,,Overcast
2775,2016-05-05,3:06 AM,48.2,,42.8,82%,29.71,10.0,NNE,15.0,,N/A,,Overcast
2776,2016-05-05,3:51 AM,46.9,,43.0,86%,29.71,10.0,North,10.4,,N/A,,Overcast
2777,2016-05-05,4:51 AM,46.9,,43.0,86%,29.72,10.0,North,11.5,,N/A,,Overcast
2778,2016-05-05,5:51 AM,46.9,,42.1,83%,29.69,10.0,North,15.0,,N/A,,Overcast
2779,2016-05-05,6:22 AM,46.4,41.9,42.8,87%,29.70,10.0,NNE,9.2,,N/A,,Overcast
2780,2016-05-05,6:51 AM,46.9,,42.1,83%,29.70,10.0,NE,13.8,,N/A,,Overcast
2781,2016-05-05,7:51 AM,48.0,,42.1,80%,29.71,10.0,NNE,12.7,,N/A,,Overcast
2782,2016-05-05,8:23 AM,48.2,,42.8,82%,29.71,10.0,NNE,10.4,,N/A,,Overcast
2783,2016-05-05,8:51 AM,48.9,,42.1,77%,29.71,10.0,NNE,12.7,,N/A,,Overcast
2784,2016-05-05,9:51 AM,50.0,,42.1,74%,29.71,10.0,NNE,18.4,24.2,N/A,,Overcast
2785,2016-05-05,10:51 AM,50.0,,42.1,74%,29.71,10.0,NNE,17.3,24.2,N/A,,Overcast
2786,2016-05-05,11:51 AM,53.1,,42.1,66%,29.71,10.0,NNE,16.1,,N/A,,Overcast
2787,2016-05-05,12:51 PM,53.1,,42.1,66%,29.69,10.0,NNE,15.0,,N/A,,Overcast
2788,2016-05-05,1:51 PM,55.0,,42.1,62%,29.68,10.0,NE,17.3,,N/A,,Overcast
2789,2016-05-05,2:51 PM,55.9,,42.1,60%,29.65,10.0,NNE,19.6,26.5,N/A,,Overcast
2790,2016-05-05,3:51 PM,57.0,,42.1,57%,29.64,10.0,NNE,17.3,,N/A,,Overcast
2791,2016-05-05,4:51 PM,55.9,,43.0,62%,29.64,10.0,NNE,15.0,24.2,N/A,,Overcast
2792,2016-05-05,5:51 PM,55.9,,43.0,62%,29.64,10.0,NNE,17.3,,N/A,,Overcast
2793,2016-05-05,6:51 PM,55.0,,43.0,64%,29.64,10.0,NE,23.0,28.8,N/A,,Overcast
2794,2016-05-05,7:51 PM,54.0,,44.1,69%,29.66,10.0,NNE,17.3,,N/A,,Overcast
2795,2016-05-05,8:51 PM,54.0,,45.0,72%,29.67,10.0,NNE,16.1,20.7,N/A,,Overcast
2796,2016-05-05,9:51 PM,53.1,,45.0,74%,29.69,10.0,NE,17.3,20.7,N/A,,Overcast
2797,2016-05-05,10:51 PM,52.0,,45.0,77%,29.69,10.0,NNE,13.8,23.0,N/A,,Overcast
2798,2016-05-05,11:43 PM,51.8,,44.6,76%,29.68,10.0,NNE,13.8,25.3,N/A,,Overcast
2799,2016-05-05,11:51 PM,52.0,,44.1,74%,29.68,10.0,NE,16.1,,N/A,,Overcast
2800,2016-05-16,12:51 AM,46.9,,27.0,46%,30.00,10.0,West,20.7,26.5,N/A,,Clear
2801,2016-05-16,1:51 AM,46.0,39.0,27.0,47%,30.01,10.0,West,17.3,23.0,N/A,,Clear
2802,2016-05-16,2:51 AM,45.0,37.9,25.0,46%,30.02,10.0,West,16.1,27.6,N/A,,Clear
2803,2016-05-16,3:51 AM,45.0,37.9,25.0,46%,30.02,10.0,West,16.1,24.2,N/A,,Clear
2804,2016-05-16,4:51 AM,44.1,36.2,27.0,51%,30.04,10.0,West,18.4,,N/A,,Clear
2805,2016-05-16,5:51 AM,44.1,36.5,27.0,51%,30.06,10.0,West,17.3,28.8,N/A,,Partly Cloudy
2806,2016-05-16,6:51 AM,45.0,36.4,28.0,52%,30.07,10.0,West,23.0,32.2,N/A,,Scattered Clouds
2807,2016-05-16,7:51 AM,46.9,,26.1,44%,30.09,10.0,WNW,24.2,31.1,N/A,,Scattered Clouds
2808,2016-05-16,8:51 AM,48.9,,26.1,41%,30.09,10.0,West,17.3,31.1,N/A,,Scattered Clouds
2809,2016-05-16,9:51 AM,51.1,,24.1,35%,30.08,10.0,WNW,19.6,33.4,N/A,,Mostly Cloudy
2810,2016-05-16,10:51 AM,54.0,,24.1,31%,30.07,10.0,WNW,20.7,32.2,N/A,,Scattered Clouds
2811,2016-05-16,11:51 AM,57.0,,24.1,28%,30.07,10.0,West,20.7,32.2,N/A,,Scattered Clouds
2812,2016-05-16,12:51 PM,57.9,,23.0,26%,30.06,10.0,WNW,20.7,29.9,N/A,,Partly Cloudy
2813,2016-05-16,1:51 PM,61.0,,26.1,26%,30.04,10.0,West,21.9,31.1,N/A,,Partly Cloudy
2814,2016-05-16,2:51 PM,63.0,,26.1,25%,30.03,10.0,West,20.7,33.4,N/A,,Partly Cloudy
2815,2016-05-16,3:51 PM,66.0,,25.0,21%,30.02,10.0,West,23.0,33.4,N/A,,Partly Cloudy
2816,2016-05-16,4:51 PM,68.0,,24.1,19%,30.02,10.0,NW,25.3,33.4,N/A,,Partly Cloudy
2817,2016-05-16,5:51 PM,68.0,,26.1,21%,30.04,10.0,WNW,19.6,31.1,N/A,,Partly Cloudy
2818,2016-05-16,6:51 PM,66.9,,25.0,21%,30.06,10.0,WNW,25.3,32.2,N/A,,Scattered Clouds
2819,2016-05-16,7:51 PM,66.0,,26.1,22%,30.08,10.0,NW,19.6,26.5,N/A,,Scattered Clouds
2820,2016-05-16,8:51 PM,64.0,,33.1,31%,30.10,10.0,WSW,11.5,,N/A,,Scattered Clouds
2821,2016-05-16,9:51 PM,60.1,,36.0,41%,30.13,10.0,WSW,11.5,,N/A,,Scattered Clouds
2822,2016-05-16,10:51 PM,60.1,,41.0,49%,30.15,10.0,SW,15.0,,N/A,,Partly Cloudy
2823,2016-05-16,11:51 PM,57.9,,39.0,49%,30.15,10.0,WSW,13.8,,N/A,,Partly Cloudy
2824,2016-05-25,12:51 AM,62.1,,57.0,84%,30.01,10.0,WSW,4.6,,N/A,,Scattered Clouds
2825,2016-05-25,1:51 AM,61.0,,57.0,87%,30.01,10.0,West,5.8,,N/A,,Partly Cloudy
2826,2016-05-25,2:51 AM,59.0,,55.9,90%,30.01,10.0,WSW,4.6,,N/A,,Partly Cloudy
2827,2016-05-25,3:51 AM,60.1,,55.0,83%,30.02,10.0,Calm,Calm,,N/A,,Partly Cloudy
2828,2016-05-25,4:51 AM,60.1,,53.1,78%,30.04,10.0,West,4.6,,N/A,,Clear
2829,2016-05-25,5:51 AM,61.0,,55.0,81%,30.04,10.0,West,10.4,,N/A,,Partly Cloudy
2830,2016-05-25,6:51 AM,63.0,,55.0,75%,30.06,10.0,WSW,6.9,,N/A,,Partly Cloudy
2831,2016-05-25,7:51 AM,66.9,,55.0,66%,30.07,10.0,WSW,6.9,,N/A,,Partly Cloudy
2832,2016-05-25,8:51 AM,73.0,,50.0,44%,30.08,10.0,West,6.9,,N/A,,Partly Cloudy
2833,2016-05-25,9:51 AM,75.0,,51.1,43%,30.08,10.0,SW,6.9,,N/A,,Partly Cloudy
2834,2016-05-25,10:51 AM,79.0,,50.0,36%,30.08,10.0,WSW,9.2,,N/A,,Partly Cloudy
2835,2016-05-25,11:51 AM,79.0,,53.1,40%,30.07,10.0,SW,11.5,,N/A,,Partly Cloudy
2836,2016-05-25,12:51 PM,82.0,81.2,53.1,37%,30.07,10.0,SW,15.0,,N/A,,Partly Cloudy
2837,2016-05-25,1:51 PM,84.0,,50.0,31%,30.06,10.0,SW,15.0,,N/A,,Partly Cloudy
2838,2016-05-25,2:51 PM,86.0,,46.0,25%,30.05,10.0,SW,17.3,21.9,N/A,,Scattered Clouds
2839,2016-05-25,3:51 PM,86.0,,43.0,22%,30.04,10.0,SSW,13.8,21.9,N/A,,Scattered Clouds
2840,2016-05-25,4:51 PM,84.9,,45.0,25%,30.03,10.0,SW,13.8,,N/A,,Scattered Clouds
2841,2016-05-25,5:24 PM,78.8,,53.6,42%,30.03,10.0,South,13.8,,N/A,,Scattered Clouds
2842,2016-05-25,5:51 PM,77.0,,52.0,42%,30.04,10.0,South,10.4,,N/A,,Scattered Clouds
2843,2016-05-25,6:51 PM,75.0,,53.1,46%,30.04,10.0,South,10.4,,N/A,,Scattered Clouds
2844,2016-05-25,7:51 PM,73.0,,54.0,51%,30.04,10.0,South,6.9,,N/A,,Partly Cloudy
2845,2016-05-25,8:51 PM,75.0,,48.9,40%,30.05,10.0,SW,10.4,,N/A,,Partly Cloudy
2846,2016-05-25,9:51 PM,75.9,,48.0,37%,30.06,10.0,SSW,11.5,,N/A,,Partly Cloudy
2847,2016-05-25,10:51 PM,73.9,,48.9,41%,30.06,10.0,WSW,9.2,,N/A,,Partly Cloudy
2848,2016-05-25,11:51 PM,71.1,,52.0,51%,30.06,10.0,WSW,6.9,,N/A,,Partly Cloudy
2849,2016-05-26,12:51 AM,73.9,,51.1,45%,30.07,10.0,West,9.2,,N/A,,Scattered Clouds
2850,2016-05-26,1:51 AM,70.0,,53.1,55%,30.07,10.0,WSW,8.1,,N/A,,Scattered Clouds
2851,2016-05-26,2:51 AM,66.9,,53.1,61%,30.08,10.0,WSW,4.6,,N/A,,Scattered Clouds
2852,2016-05-26,3:51 AM,64.0,,57.0,78%,30.08,10.0,SSW,6.9,,N/A,,Scattered Clouds
2853,2016-05-26,4:51 AM,64.0,,57.9,80%,30.09,10.0,SSW,8.1,,N/A,,Scattered Clouds
2854,2016-05-26,5:51 AM,63.0,,55.9,78%,30.10,10.0,SW,6.9,,N/A,,Mostly Cloudy
2855,2016-05-26,6:51 AM,66.9,,57.9,73%,30.11,10.0,SW,4.6,,N/A,,Scattered Clouds
2856,2016-05-26,7:51 AM,72.0,,55.0,55%,30.12,10.0,SW,3.5,,N/A,,Scattered Clouds
2857,2016-05-26,8:51 AM,75.0,,54.0,48%,30.12,10.0,SSW,4.6,,N/A,,Mostly Cloudy
2858,2016-05-26,9:51 AM,77.0,,54.0,45%,30.11,10.0,SSW,5.8,,N/A,,Mostly Cloudy
2859,2016-05-26,10:51 AM,75.9,,55.9,50%,30.11,10.0,SSW,9.2,,N/A,,Mostly Cloudy
2860,2016-05-26,11:51 AM,80.1,80.1,55.0,42%,30.10,10.0,SSW,8.1,,N/A,,Mostly Cloudy
2861,2016-05-26,12:51 PM,82.0,81.4,55.0,39%,30.08,10.0,South,9.2,,N/A,,Mostly Cloudy
2862,2016-05-26,1:51 PM,82.0,81.6,55.9,41%,30.08,10.0,South,11.5,,N/A,,Mostly Cloudy
2863,2016-05-26,2:51 PM,81.0,80.4,53.1,38%,30.07,10.0,South,15.0,,N/A,,Mostly Cloudy
2864,2016-05-26,3:51 PM,80.1,,50.0,35%,30.06,10.0,South,19.6,,N/A,,Mostly Cloudy
2865,2016-05-26,4:51 PM,80.1,,50.0,35%,30.06,10.0,South,17.3,,N/A,,Mostly Cloudy
2866,2016-05-26,5:51 PM,77.0,,50.0,39%,30.05,10.0,South,19.6,,N/A,,Mostly Cloudy
2867,2016-05-26,6:51 PM,73.9,,52.0,46%,30.05,10.0,South,15.0,,N/A,,Mostly Cloudy
2868,2016-05-26,7:51 PM,70.0,,54.0,57%,30.05,10.0,South,15.0,,N/A,,Mostly Cloudy
2869,2016-05-26,8:51 PM,69.1,,55.9,63%,30.06,10.0,South,12.7,,N/A,,Mostly Cloudy
2870,2016-05-26,9:51 PM,69.1,,57.9,68%,30.07,10.0,South,11.5,,N/A,,Mostly Cloudy
2871,2016-05-26,10:51 PM,66.0,,60.1,81%,30.08,10.0,South,8.1,,N/A,,Mostly Cloudy
2872,2016-05-26,11:51 PM,64.9,,60.1,84%,30.08,10.0,South,5.8,,N/A,,Mostly Cloudy
2873,2016-06-01,12:51 AM,66.0,,64.0,93%,29.99,10.0,Calm,Calm,,N/A,,Scattered Clouds
2874,2016-06-01,1:51 AM,66.0,,63.0,90%,30.00,10.0,NE,4.6,,N/A,,Mostly Cloudy
2875,2016-06-01,2:51 AM,66.9,,64.0,90%,30.01,10.0,Calm,Calm,,N/A,,Mostly Cloudy
2876,2016-06-01,3:51 AM,66.0,,64.0,93%,30.02,10.0,Calm,Calm,,N/A,,Mostly Cloudy
2877,2016-06-01,4:51 AM,66.9,,60.1,79%,30.03,10.0,NE,4.6,,N/A,,Mostly Cloudy
2878,2016-06-01,5:51 AM,68.0,,57.0,68%,30.05,10.0,NNE,9.2,,N/A,,Mostly Cloudy
2879,2016-06-01,6:51 AM,71.1,,59.0,66%,30.07,10.0,North,5.8,,N/A,,Scattered Clouds
2880,2016-06-01,7:51 AM,73.9,,52.0,46%,30.09,10.0,NE,6.9,,N/A,,Mostly Cloudy
2881,2016-06-01,8:51 AM,78.1,,48.0,35%,30.09,10.0,NNE,9.2,,N/A,,Scattered Clouds
2882,2016-06-01,9:51 AM,80.1,,48.0,32%,30.10,10.0,NE,4.6,,N/A,,Mostly Cloudy
2883,2016-06-01,10:51 AM,82.0,,48.9,31%,30.10,10.0,ENE,5.8,,N/A,,Mostly Cloudy
2884,2016-06-01,11:51 AM,84.9,,50.0,30%,30.09,10.0,East,5.8,,N/A,,Mostly Cloudy
2885,2016-06-01,12:51 PM,82.9,82.0,55.0,38%,30.10,10.0,SSE,13.8,,N/A,,Mostly Cloudy
2886,2016-06-01,1:51 PM,82.0,,51.1,34%,30.09,10.0,SE,11.5,,N/A,,Mostly Cloudy
2887,2016-06-01,2:51 PM,78.1,,55.0,45%,30.11,10.0,ESE,17.3,,N/A,,Mostly Cloudy
2888,2016-06-01,3:51 PM,75.9,,57.0,52%,30.11,10.0,ESE,13.8,,N/A,,Mostly Cloudy
2889,2016-06-01,4:51 PM,75.0,,54.0,48%,30.11,10.0,ESE,18.4,25.3,N/A,,Mostly Cloudy
2890,2016-06-01,5:51 PM,73.0,,55.0,53%,30.11,10.0,East,20.7,,N/A,,Mostly Cloudy
2891,2016-06-01,6:51 PM,70.0,,55.0,59%,30.12,10.0,ESE,17.3,24.2,N/A,,Scattered Clouds
2892,2016-06-01,7:51 PM,68.0,,55.0,63%,30.13,10.0,East,12.7,,N/A,,Scattered Clouds
2893,2016-06-01,8:51 PM,66.0,,57.0,73%,30.13,10.0,East,15.0,,N/A,,Scattered Clouds
2894,2016-06-01,9:51 PM,66.0,,57.9,75%,30.15,10.0,East,10.4,,N/A,,Scattered Clouds
2895,2016-06-01,10:51 PM,64.9,,57.9,78%,30.15,10.0,East,8.1,,N/A,,Scattered Clouds
2896,2016-06-01,11:51 PM,64.0,,59.0,84%,30.16,10.0,ENE,4.6,,N/A,,Scattered Clouds
2897,2016-06-06,12:46 AM,66.2,,64.4,94%,29.67,10.0,SW,13.8,,N/A,,Mostly Cloudy
2898,2016-06-06,12:51 AM,66.9,,64.9,93%,29.67,10.0,SW,10.4,,N/A,,Mostly Cloudy
2899,2016-06-06,1:08 AM,66.2,,64.4,94%,29.66,10.0,SW,10.4,,N/A,,Mostly Cloudy
2900,2016-06-06,1:51 AM,68.0,,64.9,90%,29.66,10.0,WSW,11.5,,N/A,,Overcast
2901,2016-06-06,2:51 AM,68.0,,64.9,90%,29.66,10.0,WSW,9.2,,N/A,,Overcast
2902,2016-06-06,3:51 AM,68.0,,64.9,90%,29.66,10.0,SW,8.1,,N/A,,Overcast
2903,2016-06-06,4:39 AM,66.2,,64.4,94%,29.66,9.0,SW,8.1,,N/A,,Mostly Cloudy
2904,2016-06-06,4:46 AM,66.2,,64.4,94%,29.66,9.0,SW,8.1,,N/A,,Mostly Cloudy
2905,2016-06-06,4:51 AM,66.9,,64.0,90%,29.66,9.0,SW,8.1,,N/A,,Mostly Cloudy
2906,2016-06-06,5:51 AM,66.9,,64.9,93%,29.66,5.0,WSW,8.1,,N/A,,Scattered Clouds
2907,2016-06-06,6:51 AM,69.1,,64.9,87%,29.68,8.0,WSW,10.4,,N/A,,Scattered Clouds
2908,2016-06-06,7:51 AM,71.1,,64.9,81%,29.68,10.0,West,9.2,,N/A,,Scattered Clouds
2909,2016-06-06,8:51 AM,73.9,,64.0,71%,29.70,10.0,West,13.8,,N/A,,Scattered Clouds
2910,2016-06-06,9:51 AM,75.9,,61.0,60%,29.70,10.0,West,17.3,,N/A,,Scattered Clouds
2911,2016-06-06,10:51 AM,78.1,,59.0,52%,29.70,10.0,West,16.1,23.0,N/A,,Scattered Clouds
2912,2016-06-06,11:51 AM,80.1,80.4,57.0,45%,29.70,10.0,West,16.1,20.7,N/A,,Partly Cloudy
2913,2016-06-06,12:51 PM,81.0,81.1,57.9,45%,29.69,10.0,WSW,13.8,,N/A,,Partly Cloudy
2914,2016-06-06,1:51 PM,82.0,81.6,55.9,41%,29.68,10.0,SW,18.4,,N/A,,Partly Cloudy
2915,2016-06-06,2:51 PM,82.9,82.0,55.0,38%,29.67,10.0,SSW,17.3,,N/A,,Partly Cloudy
2916,2016-06-06,3:51 PM,80.1,80.6,57.9,47%,29.67,10.0,South,13.8,,N/A,,Mostly Cloudy
2917,2016-06-06,4:51 PM,79.0,,59.0,50%,29.65,10.0,South,12.7,,N/A,,Scattered Clouds
2918,2016-06-06,5:51 PM,78.1,,61.0,56%,29.65,10.0,South,11.5,,N/A,,Scattered Clouds
2919,2016-06-06,6:51 PM,75.0,,62.1,64%,29.65,10.0,South,9.2,,N/A,,Mostly Cloudy
2920,2016-06-06,7:51 PM,75.0,,62.1,64%,29.66,10.0,South,10.4,,N/A,,Mostly Cloudy
2921,2016-06-06,8:51 PM,73.0,,64.0,73%,29.66,10.0,South,9.2,,N/A,,Mostly Cloudy
2922,2016-06-06,9:51 PM,73.0,,64.0,73%,29.67,10.0,South,9.2,,N/A,,Mostly Cloudy
2923,2016-06-06,10:51 PM,73.9,,63.0,68%,29.66,10.0,SSW,12.7,,N/A,,Mostly Cloudy
2924,2016-06-06,11:51 PM,71.1,,63.0,75%,29.65,10.0,South,5.8,,N/A,,Mostly Cloudy
2925,2016-06-07,12:51 AM,72.0,,63.0,73%,29.64,10.0,SSW,9.2,,N/A,,Overcast
2926,2016-06-07,1:51 AM,71.1,,63.0,75%,29.63,10.0,SSW,8.1,,N/A,,Overcast
2927,2016-06-07,2:51 AM,69.1,,63.0,81%,29.61,10.0,South,3.5,,N/A,,Overcast
2928,2016-06-07,3:51 AM,69.1,,63.0,81%,29.59,10.0,South,3.5,,N/A,,Mostly Cloudy
2929,2016-06-07,4:51 AM,68.0,,64.0,87%,29.59,10.0,SW,5.8,,N/A,,Mostly Cloudy
2930,2016-06-07,5:51 AM,68.0,,64.0,87%,29.58,10.0,SW,6.9,,N/A,,Scattered Clouds
2931,2016-06-07,6:51 AM,72.0,,64.9,78%,29.58,10.0,SW,8.1,,N/A,,Scattered Clouds
2932,2016-06-07,7:51 AM,73.9,,63.0,68%,29.57,10.0,SSW,6.9,,N/A,,Scattered Clouds
2933,2016-06-07,8:51 AM,75.9,,62.1,62%,29.57,10.0,SW,8.1,,N/A,,Scattered Clouds
2934,2016-06-07,9:51 AM,77.0,,63.0,62%,29.56,10.0,SSW,9.2,,N/A,,Scattered Clouds
2935,2016-06-07,10:51 AM,78.1,,61.0,56%,29.54,10.0,SSW,11.5,,N/A,,Scattered Clouds
2936,2016-06-07,11:51 AM,79.0,,62.1,56%,29.55,10.0,SSW,13.8,,N/A,,Scattered Clouds
2937,2016-06-07,12:51 PM,81.0,81.9,62.1,52%,29.52,10.0,South,10.4,,N/A,,Scattered Clouds
2938,2016-06-07,1:51 PM,82.9,83.2,60.1,46%,29.49,10.0,SSW,12.7,,N/A,,Scattered Clouds
2939,2016-06-07,2:51 PM,80.1,81.1,61.0,52%,29.47,10.0,South,12.7,,N/A,,Mostly Cloudy
2940,2016-06-07,3:51 PM,82.0,,48.9,31%,29.47,10.0,NW,12.7,,N/A,,Mostly Cloudy
2941,2016-06-07,4:51 PM,78.1,,50.0,37%,29.47,10.0,West,9.2,,N/A,,Mostly Cloudy
2942,2016-06-07,5:18 PM,73.4,,55.4,53%,29.48,10.0,SSW,11.5,,N/A,,Mostly Cloudy
2943,2016-06-07,5:51 PM,75.9,,52.0,43%,29.47,10.0,SW,12.7,,N/A,,Mostly Cloudy
2944,2016-06-07,6:51 PM,73.9,,55.9,53%,29.48,10.0,WSW,13.8,,N/A,,Mostly Cloudy
2945,2016-06-07,7:51 PM,77.0,,50.0,39%,29.49,10.0,NW,15.0,,N/A,,Scattered Clouds
2946,2016-06-07,8:51 PM,73.9,,48.9,41%,29.51,10.0,NW,11.5,,N/A,,Scattered Clouds
2947,2016-06-07,9:51 PM,73.0,,48.9,42%,29.54,10.0,NW,15.0,21.9,N/A,,Scattered Clouds
2948,2016-06-07,10:51 PM,71.1,,51.1,49%,29.56,10.0,NW,23.0,33.4,N/A,,Mostly Cloudy
2949,2016-06-07,11:51 PM,66.9,,45.0,45%,29.58,10.0,NW,19.6,26.5,N/A,,Partly Cloudy
2950,2016-06-11,12:51 AM,66.9,,36.0,32%,30.05,10.0,NNW,5.8,,N/A,,Partly Cloudy
2951,2016-06-11,1:51 AM,66.0,,37.0,34%,30.04,10.0,NW,3.5,,N/A,,Clear
2952,2016-06-11,2:51 AM,61.0,,50.0,67%,30.04,10.0,WSW,5.8,,N/A,,Partly Cloudy
2953,2016-06-11,3:51 AM,62.1,,46.9,58%,30.05,10.0,WSW,5.8,,N/A,,Scattered Clouds
2954,2016-06-11,4:51 AM,62.1,,48.9,62%,30.04,10.0,SW,4.6,,N/A,,Scattered Clouds
2955,2016-06-11,5:51 AM,60.1,,55.0,83%,30.03,10.0,SW,4.6,,N/A,,Mostly Cloudy
2956,2016-06-11,6:51 AM,64.0,,53.1,67%,30.02,10.0,Calm,Calm,,N/A,,Mostly Cloudy
2957,2016-06-11,7:51 AM,68.0,,50.0,52%,30.01,10.0,SSW,3.5,,N/A,,Mostly Cloudy
2958,2016-06-11,8:51 AM,66.9,,48.9,52%,30.00,10.0,South,5.8,,N/A,,Mostly Cloudy
2959,2016-06-11,9:51 AM,69.1,,52.0,54%,29.98,10.0,South,9.2,,N/A,,Mostly Cloudy
2960,2016-06-11,10:51 AM,70.0,,55.9,61%,29.95,10.0,South,11.5,,N/A,,Mostly Cloudy
2961,2016-06-11,11:51 AM,72.0,,60.1,66%,29.90,10.0,South,17.3,,N/A,,Mostly Cloudy
2962,2016-06-11,12:51 PM,71.1,,62.1,73%,29.86,10.0,South,16.1,24.2,N/A,,Mostly Cloudy
2963,2016-06-11,1:51 PM,72.0,,61.0,68%,29.83,10.0,SSW,15.0,21.9,N/A,,Mostly Cloudy
2964,2016-06-11,2:51 PM,72.0,,62.1,71%,29.81,10.0,South,12.7,,0.00,Ra,Light Ra
2965,2016-06-11,3:51 PM,81.0,82.5,64.0,56%,29.78,10.0,South,10.4,,N/A,,Mostly Cloudy
2966,2016-06-11,4:51 PM,80.1,81.5,63.0,56%,29.75,10.0,South,10.4,,N/A,,Mostly Cloudy
2967,2016-06-11,5:51 PM,75.9,,62.1,62%,29.73,10.0,South,12.7,,N/A,,Mostly Cloudy
2968,2016-06-11,6:51 PM,75.9,,64.9,69%,29.72,10.0,South,11.5,,N/A,,Mostly Cloudy
2969,2016-06-11,7:51 PM,79.0,,66.0,64%,29.71,10.0,SSE,5.8,,N/A,,Scattered Clouds
2970,2016-06-11,8:51 PM,81.0,84.4,70.0,69%,29.72,10.0,SW,11.5,,N/A,,Mostly Cloudy
2971,2016-06-11,9:51 PM,80.1,82.3,66.9,64%,29.72,10.0,SSW,8.1,,N/A,,Mostly Cloudy
2972,2016-06-11,10:51 PM,84.9,87.6,66.9,55%,29.73,10.0,WNW,8.1,,N/A,,Mostly Cloudy
2973,2016-06-11,11:51 PM,84.9,86.6,64.9,51%,29.73,10.0,West,9.2,,N/A,,Scattered Clouds
2974,2016-06-12,12:51 AM,82.9,84.6,64.9,54%,29.73,10.0,West,10.4,,N/A,,Scattered Clouds
2975,2016-06-12,1:51 AM,75.0,,64.0,69%,29.71,10.0,SW,5.8,,N/A,,Partly Cloudy
2976,2016-06-12,2:51 AM,73.9,,61.0,64%,29.69,10.0,WSW,9.2,,N/A,,Partly Cloudy
2977,2016-06-12,3:51 AM,75.0,,63.0,66%,29.67,10.0,SW,12.7,20.7,N/A,,Scattered Clouds
2978,2016-06-12,4:51 AM,73.0,,64.0,73%,29.65,10.0,WSW,9.2,,N/A,,Scattered Clouds
2979,2016-06-12,5:51 AM,73.9,,64.9,73%,29.65,10.0,SW,10.4,,N/A,,Scattered Clouds
2980,2016-06-12,6:51 AM,79.0,,66.0,64%,29.65,10.0,WSW,12.7,,N/A,,Scattered Clouds
2981,2016-06-12,7:51 AM,82.0,84.5,66.9,60%,29.65,10.0,West,15.0,,N/A,,Scattered Clouds
2982,2016-06-12,8:51 AM,84.0,86.3,66.0,55%,29.63,10.0,WSW,19.6,25.3,N/A,,Scattered Clouds
2983,2016-06-12,9:51 AM,86.0,85.0,57.9,38%,29.62,10.0,West,26.5,35.7,N/A,,Scattered Clouds
2984,2016-06-12,10:51 AM,87.1,,46.0,24%,29.60,10.0,WNW,27.6,39.1,N/A,,Scattered Clouds
2985,2016-06-12,11:51 AM,86.0,,30.0,13%,29.62,10.0,WNW,27.6,42.6,N/A,,Scattered Clouds
2986,2016-06-12,12:51 PM,86.0,,37.9,18%,29.61,10.0,WNW,23.0,32.2,N/A,,Partly Cloudy
2987,2016-06-12,1:51 PM,84.9,,36.0,17%,29.61,10.0,West,23.0,34.5,N/A,,Scattered Clouds
2988,2016-06-12,2:51 PM,84.0,,39.0,20%,29.62,10.0,WNW,27.6,40.3,N/A,,Scattered Clouds
2989,2016-06-12,3:51 PM,82.9,,42.1,24%,29.64,10.0,NW,28.8,38.0,N/A,,Scattered Clouds
2990,2016-06-12,4:51 PM,80.1,,44.1,28%,29.65,10.0,NNW,28.8,35.7,N/A,,Scattered Clouds
2991,2016-06-12,5:51 PM,78.1,,44.1,30%,29.68,10.0,NNW,26.5,35.7,N/A,,Scattered Clouds
2992,2016-06-12,6:51 PM,73.9,,44.1,34%,29.72,10.0,North,26.5,33.4,N/A,,Scattered Clouds
2993,2016-06-12,7:51 PM,71.1,,43.0,36%,29.74,10.0,NW,24.2,39.1,N/A,,Scattered Clouds
2994,2016-06-12,8:51 PM,68.0,,42.1,39%,29.76,10.0,NNW,20.7,39.1,N/A,,Scattered Clouds
2995,2016-06-12,9:51 PM,66.0,,43.0,43%,29.78,10.0,NNW,21.9,31.1,N/A,,Scattered Clouds
2996,2016-06-12,10:51 PM,64.9,,43.0,45%,29.79,10.0,NNW,27.6,33.4,N/A,,Partly Cloudy
2997,2016-06-12,11:51 PM,64.0,,43.0,46%,29.81,10.0,NW,24.2,38.0,N/A,,Scattered Clouds
2998,2016-06-19,12:51 AM,66.0,,60.1,81%,30.31,10.0,East,3.5,,N/A,,Mostly Cloudy
2999,2016-06-19,1:51 AM,66.0,,61.0,84%,30.30,10.0,SE,5.8,,N/A,,Mostly Cloudy
3000,2016-06-19,2:51 AM,66.0,,59.0,78%,30.30,10.0,South,5.8,,N/A,,Mostly Cloudy
3001,2016-06-19,3:51 AM,64.9,,57.9,78%,30.30,10.0,South,3.5,,N/A,,Mostly Cloudy
3002,2016-06-19,4:51 AM,63.0,,57.9,84%,30.30,10.0,South,5.8,,N/A,,Mostly Cloudy
3003,2016-06-19,5:51 AM,64.0,,59.0,84%,30.31,10.0,SW,4.6,,N/A,,Mostly Cloudy
3004,2016-06-19,6:51 AM,66.9,,57.0,70%,30.31,10.0,SW,8.1,,N/A,,Mostly Cloudy
3005,2016-06-19,7:51 AM,70.0,,57.0,63%,30.31,10.0,SW,5.8,,N/A,,Mostly Cloudy
3006,2016-06-19,8:51 AM,73.0,,55.0,53%,30.31,10.0,SSW,4.6,,N/A,,Mostly Cloudy
3007,2016-06-19,9:51 AM,77.0,,55.9,48%,30.31,10.0,SSE,3.5,,N/A,,Mostly Cloudy
3008,2016-06-19,10:51 AM,78.1,,57.0,48%,30.31,10.0,South,6.9,,N/A,,Mostly Cloudy
3009,2016-06-19,11:51 AM,80.1,80.4,57.0,45%,30.31,10.0,SE,6.9,,N/A,,Scattered Clouds
3010,2016-06-19,12:51 PM,77.0,,57.9,52%,30.30,10.0,SE,12.7,,N/A,,Scattered Clouds
3011,2016-06-19,1:51 PM,75.9,,57.9,54%,30.29,10.0,SE,11.5,,N/A,,Scattered Clouds
3012,2016-06-19,2:51 PM,75.0,,59.0,57%,30.28,10.0,SE,10.4,,N/A,,Scattered Clouds
3013,2016-06-19,3:51 PM,73.9,,59.0,59%,30.28,10.0,SE,12.7,,N/A,,Scattered Clouds
3014,2016-06-19,4:51 PM,73.0,,59.0,61%,30.28,10.0,SSE,12.7,,N/A,,Scattered Clouds
3015,2016-06-19,5:51 PM,72.0,,57.0,59%,30.27,10.0,SSE,13.8,,N/A,,Mostly Cloudy
3016,2016-06-19,6:51 PM,71.1,,55.9,59%,30.28,10.0,SE,11.5,,N/A,,Mostly Cloudy
3017,2016-06-19,7:51 PM,69.1,,55.0,61%,30.28,10.0,ESE,10.4,,N/A,,Mostly Cloudy
3018,2016-06-19,8:51 PM,66.9,,57.0,70%,30.28,10.0,ESE,9.2,,N/A,,Mostly Cloudy
3019,2016-06-19,9:51 PM,66.0,,61.0,84%,30.29,10.0,SE,9.2,,N/A,,Scattered Clouds
3020,2016-06-19,10:51 PM,66.0,,60.1,81%,30.28,10.0,SE,6.9,,N/A,,Scattered Clouds
3021,2016-06-19,11:51 PM,66.0,,60.1,81%,30.27,10.0,SE,8.1,,N/A,,Partly Cloudy
3022,2016-06-21,12:51 AM,75.0,,61.0,62%,29.86,10.0,SW,11.5,,N/A,,Mostly Cloudy
3023,2016-06-21,1:51 AM,73.9,,61.0,64%,29.85,10.0,WSW,11.5,,N/A,,Mostly Cloudy
3024,2016-06-21,2:51 AM,70.0,,62.1,76%,29.82,10.0,SSW,6.9,,N/A,,Scattered Clouds
3025,2016-06-21,3:51 AM,71.1,,64.0,78%,29.80,10.0,SSW,6.9,,N/A,,Scattered Clouds
3026,2016-06-21,4:51 AM,73.9,,64.0,71%,29.79,10.0,WSW,15.0,,N/A,,Mostly Cloudy
3027,2016-06-21,5:51 AM,75.9,,64.0,67%,29.79,10.0,WSW,13.8,,N/A,,Overcast
3028,2016-06-21,6:51 AM,78.1,,63.0,60%,29.81,10.0,WNW,15.0,,0.00,Ra,Light Ra
3029,2016-06-21,7:51 AM,77.0,,57.9,52%,29.77,10.0,North,6.9,,0.00,,Mostly Cloudy
3030,2016-06-21,8:51 AM,80.1,80.2,55.9,43%,29.82,10.0,NW,16.1,,N/A,,Mostly Cloudy
3031,2016-06-21,9:51 AM,82.0,,50.0,33%,29.83,10.0,NW,9.2,,N/A,,Scattered Clouds
3032,2016-06-21,10:51 AM,82.9,,48.0,29%,29.85,10.0,NNW,6.9,,N/A,,Scattered Clouds
3033,2016-06-21,11:51 AM,84.9,,52.0,32%,29.85,10.0,WSW,10.4,,N/A,,Scattered Clouds
3034,2016-06-21,12:51 PM,86.0,84.2,54.0,33%,29.83,10.0,South,12.7,19.6,N/A,,Scattered Clouds
3035,2016-06-21,1:51 PM,84.9,83.2,53.1,33%,29.82,10.0,SSW,12.7,,N/A,,Mostly Cloudy
3036,2016-06-21,2:51 PM,88.0,86.7,57.0,35%,29.80,10.0,SSW,11.5,,N/A,,Mostly Cloudy
3037,2016-06-21,3:51 PM,84.0,83.5,57.9,41%,29.78,10.0,South,16.1,23.0,N/A,,Mostly Cloudy
3038,2016-06-21,4:51 PM,84.9,83.7,55.9,37%,29.77,10.0,South,17.3,,N/A,,Mostly Cloudy
3039,2016-06-21,5:51 PM,80.1,81.9,64.9,60%,29.76,10.0,South,19.6,,N/A,,Mostly Cloudy
3040,2016-06-21,6:51 PM,79.0,,64.0,60%,29.76,10.0,SW,11.5,,N/A,,Scattered Clouds
3041,2016-06-21,7:51 PM,78.1,,66.9,68%,29.76,10.0,SSW,6.9,,N/A,,Scattered Clouds
3042,2016-06-21,8:51 PM,75.9,,62.1,62%,29.78,10.0,SW,8.1,,N/A,,Mostly Cloudy
3043,2016-06-21,9:51 PM,81.0,81.7,61.0,50%,29.80,10.0,North,9.2,,N/A,,Mostly Cloudy
3044,2016-06-21,10:51 PM,80.1,,46.9,31%,29.81,10.0,North,9.2,,N/A,,Mostly Cloudy
3045,2016-06-21,11:51 PM,78.1,,44.1,30%,29.82,10.0,NNE,6.9,,N/A,,Scattered Clouds
3046,2016-06-22,12:51 AM,75.9,,46.0,35%,29.82,10.0,ESE,4.6,,N/A,,Scattered Clouds
3047,2016-06-22,1:51 AM,73.9,,48.9,41%,29.81,10.0,Calm,Calm,,N/A,,Mostly Cloudy
3048,2016-06-22,2:51 AM,71.1,,53.1,53%,29.81,10.0,Calm,Calm,,N/A,,Scattered Clouds
3049,2016-06-22,3:51 AM,69.1,,53.1,57%,29.82,10.0,Calm,Calm,,N/A,,Partly Cloudy
3050,2016-06-22,4:51 AM,68.0,,50.0,52%,29.81,10.0,Calm,Calm,,N/A,,Partly Cloudy
3051,2016-06-22,5:51 AM,71.1,,50.0,47%,29.81,10.0,Calm,Calm,,N/A,,Mostly Cloudy
3052,2016-06-22,6:51 AM,72.0,,51.1,48%,29.81,10.0,NNE,3.5,,N/A,,Mostly Cloudy
3053,2016-06-22,7:51 AM,75.9,,53.1,45%,29.81,10.0,NE,3.5,,N/A,,Scattered Clouds
3054,2016-06-22,8:51 AM,78.1,,52.0,40%,29.81,10.0,South,4.6,,N/A,,Partly Cloudy
3055,2016-06-22,9:51 AM,81.0,80.4,53.1,38%,29.81,10.0,WSW,8.1,,N/A,,Partly Cloudy
3056,2016-06-22,10:51 AM,81.0,80.7,55.0,41%,29.82,10.0,SSW,11.5,,N/A,,Partly Cloudy
3057,2016-06-22,11:51 AM,84.9,83.7,55.9,37%,29.81,10.0,SW,18.4,,N/A,,Scattered Clouds
3058,2016-06-22,12:51 PM,90.0,,42.1,19%,29.81,10.0,West,18.4,32.2,N/A,,Scattered Clouds
3059,2016-06-22,1:51 PM,91.9,,43.0,18%,29.81,10.0,WNW,18.4,28.8,N/A,,Scattered Clouds
3060,2016-06-22,2:51 PM,91.9,,42.1,18%,29.82,10.0,NW,23.0,29.9,N/A,,Scattered Clouds
3061,2016-06-22,3:51 PM,90.0,,41.0,18%,29.82,10.0,WNW,21.9,34.5,N/A,,Scattered Clouds
3062,2016-06-22,4:51 PM,89.1,,41.0,19%,29.84,10.0,WNW,18.4,29.9,N/A,,Scattered Clouds
3063,2016-06-22,5:51 PM,89.1,,43.0,20%,29.83,10.0,WNW,15.0,,N/A,,Scattered Clouds
3064,2016-06-22,6:51 PM,86.0,,44.1,23%,29.85,10.0,WNW,16.1,21.9,N/A,,Scattered Clouds
3065,2016-06-22,7:51 PM,84.9,,45.0,25%,29.86,10.0,WNW,8.1,,N/A,,Scattered Clouds
3066,2016-06-22,8:51 PM,84.0,,46.0,26%,29.88,10.0,WNW,10.4,,N/A,,Scattered Clouds
3067,2016-06-22,9:51 PM,81.0,,46.0,29%,29.90,10.0,NNE,8.1,,N/A,,Scattered Clouds
3068,2016-06-22,10:51 PM,78.1,,48.0,35%,29.93,10.0,Calm,Calm,,N/A,,Scattered Clouds
3069,2016-06-22,11:51 PM,75.0,,55.0,50%,29.93,10.0,SE,3.5,,N/A,,Scattered Clouds
3070,2016-06-23,12:51 AM,73.9,,54.0,50%,29.92,10.0,ESE,4.6,,N/A,,Partly Cloudy
3071,2016-06-23,1:51 AM,72.0,,55.0,55%,29.91,10.0,Calm,Calm,,N/A,,Partly Cloudy
3072,2016-06-23,2:51 AM,71.1,,55.0,57%,29.92,10.0,ENE,3.5,,N/A,,Mostly Cloudy
3073,2016-06-23,3:51 AM,71.1,,55.0,57%,29.89,10.0,Calm,Calm,,N/A,,Mostly Cloudy
3074,2016-06-23,4:51 AM,71.1,,53.1,53%,29.89,10.0,ENE,4.6,,N/A,,Overcast
3075,2016-06-23,5:51 AM,71.1,,53.1,53%,29.88,10.0,East,4.6,,N/A,,Mostly Cloudy
3076,2016-06-23,6:51 AM,72.0,,59.0,64%,29.90,10.0,SW,4.6,,N/A,,Overcast
3077,2016-06-23,7:51 AM,75.9,,60.1,58%,29.89,10.0,West,3.5,,N/A,,Overcast
3078,2016-06-23,8:51 AM,78.1,,57.0,48%,29.88,10.0,WSW,3.5,,N/A,,Overcast
3079,2016-06-23,9:51 AM,79.0,,57.0,47%,29.89,10.0,SW,5.8,,N/A,,Overcast
3080,2016-06-23,10:51 AM,78.1,,57.9,50%,29.88,10.0,SW,6.9,,0.00,,Overcast
3081,2016-06-23,11:51 AM,77.0,,57.9,52%,29.86,10.0,Variable,3.5,,N/A,,Overcast
3082,2016-06-23,12:51 PM,77.0,,60.1,56%,29.85,10.0,SSE,6.9,,0.00,,Mostly Cloudy
3083,2016-06-23,1:51 PM,81.0,81.1,57.9,45%,29.83,10.0,SE,4.6,,N/A,,Mostly Cloudy
3084,2016-06-23,2:51 PM,82.0,82.0,57.9,44%,29.83,10.0,SE,10.4,,N/A,,Mostly Cloudy
3085,2016-06-23,3:51 PM,82.0,82.0,57.9,44%,29.84,10.0,SSE,9.2,,N/A,,Mostly Cloudy
3086,2016-06-23,4:51 PM,81.0,82.2,63.0,54%,29.83,10.0,SSE,10.4,,N/A,,Mostly Cloudy
3087,2016-06-23,5:51 PM,79.0,,64.9,62%,29.82,10.0,SE,9.2,,N/A,,Mostly Cloudy
3088,2016-06-23,6:51 PM,75.9,,66.0,71%,29.83,10.0,SSE,9.2,,N/A,,Mostly Cloudy
3089,2016-06-23,7:51 PM,73.9,,62.1,66%,29.84,10.0,SE,5.8,,N/A,,Mostly Cloudy
3090,2016-06-23,8:51 PM,73.9,,63.0,68%,29.85,10.0,SSE,4.6,,N/A,,Mostly Cloudy
3091,2016-06-23,9:51 PM,73.0,,63.0,71%,29.87,10.0,East,4.6,,N/A,,Mostly Cloudy
3092,2016-06-23,10:51 PM,73.0,,64.0,73%,29.88,9.0,East,4.6,,N/A,,Scattered Clouds
3093,2016-06-23,11:51 PM,72.0,,70.0,93%,29.89,10.0,Calm,Calm,,N/A,,Mostly Cloudy
3094,2016-06-24,12:51 AM,71.1,,66.0,84%,29.89,5.0,East,4.6,,N/A,,Haze
3095,2016-06-24,1:51 AM,70.0,,64.9,84%,29.90,5.0,East,3.5,,N/A,,Haze
3096,2016-06-24,2:51 AM,70.0,,64.9,84%,29.92,5.0,ENE,3.5,,N/A,,Haze
3097,2016-06-24,3:51 AM,69.1,,64.0,84%,29.92,5.0,ENE,4.6,,N/A,,Haze
3098,2016-06-24,4:51 AM,69.1,,64.0,84%,29.94,5.0,NNE,6.9,,N/A,,Haze
3099,2016-06-24,5:51 AM,71.1,,64.0,78%,29.96,6.0,NNE,6.9,,N/A,,Haze
3100,2016-06-24,6:51 AM,72.0,,62.1,71%,29.97,8.0,NE,9.2,,N/A,,Partly Cloudy
3101,2016-06-24,7:51 AM,75.0,,60.1,60%,30.00,10.0,NE,11.5,,N/A,,Partly Cloudy
3102,2016-06-24,8:51 AM,78.1,,55.9,46%,30.02,10.0,ENE,11.5,,N/A,,Partly Cloudy
3103,2016-06-24,9:51 AM,81.0,80.4,53.1,38%,30.04,10.0,NE,11.5,,N/A,,Partly Cloudy
3104,2016-06-24,10:51 AM,84.0,82.9,55.0,37%,30.05,10.0,East,9.2,,N/A,,Partly Cloudy
3105,2016-06-24,11:51 AM,84.0,,50.0,31%,30.06,10.0,ESE,16.1,,N/A,,Scattered Clouds
3106,2016-06-24,12:51 PM,84.0,,51.1,32%,30.06,10.0,East,20.7,,N/A,,Partly Cloudy
3107,2016-06-24,1:51 PM,82.0,,51.1,34%,30.06,10.0,ESE,21.9,,N/A,,Partly Cloudy
3108,2016-06-24,2:51 PM,80.1,,51.1,36%,30.07,10.0,ESE,21.9,,N/A,,Scattered Clouds
3109,2016-06-24,3:51 PM,78.1,,57.0,48%,30.08,10.0,ESE,18.4,,N/A,,Scattered Clouds
3110,2016-06-24,4:51 PM,78.1,,55.9,46%,30.07,10.0,ESE,17.3,,N/A,,Scattered Clouds
3111,2016-06-24,5:51 PM,75.9,,57.0,52%,30.08,10.0,ESE,17.3,,N/A,,Scattered Clouds
3112,2016-06-24,6:51 PM,73.9,,57.9,57%,30.09,10.0,ESE,12.7,,N/A,,Scattered Clouds
3113,2016-06-24,7:51 PM,73.0,,61.0,66%,30.09,10.0,ESE,9.2,,N/A,,Scattered Clouds
3114,2016-06-24,8:51 PM,70.0,,62.1,76%,30.10,10.0,ESE,4.6,,N/A,,Scattered Clouds
3115,2016-06-24,9:51 PM,70.0,,62.1,76%,30.12,10.0,ENE,5.8,,N/A,,Partly Cloudy
3116,2016-06-24,10:51 PM,69.1,,63.0,81%,30.12,10.0,NE,3.5,,N/A,,Partly Cloudy
3117,2016-06-24,11:51 PM,68.0,,62.1,81%,30.12,10.0,ENE,4.6,,N/A,,Partly Cloudy
3118,2016-06-25,12:51 AM,68.0,,60.1,76%,30.12,10.0,ENE,5.8,,N/A,,Scattered Clouds
3119,2016-06-25,1:51 AM,68.0,,61.0,78%,30.13,10.0,NE,5.8,,N/A,,Partly Cloudy
3120,2016-06-25,2:51 AM,66.9,,60.1,79%,30.12,10.0,NE,8.1,,N/A,,Partly Cloudy
3121,2016-06-25,3:51 AM,66.0,,61.0,84%,30.13,10.0,NNE,5.8,,N/A,,Partly Cloudy
3122,2016-06-25,4:51 AM,66.0,,60.1,81%,30.14,10.0,NNE,6.9,,N/A,,Partly Cloudy
3123,2016-06-25,5:51 AM,66.0,,59.0,78%,30.16,10.0,NNE,6.9,,N/A,,Partly Cloudy
3124,2016-06-25,6:51 AM,68.0,,61.0,78%,30.18,10.0,NNE,10.4,,N/A,,Clear
3125,2016-06-25,7:51 AM,72.0,,63.0,73%,30.19,10.0,NNE,6.9,,N/A,,Clear
3126,2016-06-25,8:51 AM,75.0,,59.0,57%,30.19,10.0,NE,8.1,,N/A,,Clear
3127,2016-06-25,9:51 AM,78.1,,53.1,42%,30.19,10.0,NE,6.9,,N/A,,Clear
3128,2016-06-25,10:51 AM,80.1,80.1,55.0,42%,30.19,10.0,SE,6.9,,N/A,,Clear
3129,2016-06-25,11:51 AM,80.1,80.2,55.9,43%,30.20,10.0,SSE,12.7,,N/A,,Partly Cloudy
3130,2016-06-25,12:51 PM,80.1,80.0,54.0,40%,30.21,10.0,SSE,10.4,,N/A,,Scattered Clouds
3131,2016-06-25,1:51 PM,80.1,,51.1,36%,30.21,10.0,SE,10.4,,N/A,,Scattered Clouds
3132,2016-06-25,2:51 PM,80.1,,50.0,35%,30.20,10.0,SSE,12.7,20.7,N/A,,Partly Cloudy
3133,2016-06-25,3:51 PM,79.0,,46.9,32%,30.19,10.0,SSE,15.0,,N/A,,Partly Cloudy
3134,2016-06-25,4:51 PM,79.0,,46.9,32%,30.20,10.0,SSE,11.5,,N/A,,Partly Cloudy
3135,2016-06-25,5:51 PM,78.1,,44.1,30%,30.19,10.0,SSE,12.7,,N/A,,Partly Cloudy
3136,2016-06-25,6:51 PM,75.0,,50.0,41%,30.19,10.0,SSE,8.1,,N/A,,Partly Cloudy
3137,2016-06-25,7:51 PM,73.0,,55.9,55%,30.19,10.0,SE,9.2,,N/A,,Mostly Cloudy
3138,2016-06-25,8:51 PM,71.1,,57.0,61%,30.20,10.0,SE,8.1,,N/A,,Scattered Clouds
3139,2016-06-25,9:51 PM,70.0,,62.1,76%,30.22,10.0,SSE,5.8,,N/A,,Scattered Clouds
3140,2016-06-25,10:51 PM,70.0,,57.9,65%,30.22,10.0,SE,5.8,,N/A,,Scattered Clouds
3141,2016-06-25,11:51 PM,69.1,,57.0,65%,30.22,10.0,SE,5.8,,N/A,,Partly Cloudy
3142,2016-06-27,12:51 AM,68.0,,55.0,63%,30.15,10.0,SSW,8.1,,N/A,,Partly Cloudy
3143,2016-06-27,1:51 AM,70.0,,54.0,57%,30.15,10.0,SW,10.4,,N/A,,Partly Cloudy
3144,2016-06-27,2:51 AM,69.1,,53.1,57%,30.14,10.0,SW,11.5,,N/A,,Partly Cloudy
3145,2016-06-27,3:51 AM,68.0,,53.1,59%,30.13,10.0,SW,10.4,,N/A,,Partly Cloudy
3146,2016-06-27,4:51 AM,66.0,,57.0,73%,30.13,10.0,SW,10.4,,N/A,,Partly Cloudy
3147,2016-06-27,5:51 AM,66.9,,61.0,81%,30.13,10.0,SW,10.4,,N/A,,Scattered Clouds
3148,2016-06-27,6:51 AM,69.1,,62.1,78%,30.13,10.0,SSW,10.4,,N/A,,Mostly Cloudy
3149,2016-06-27,7:51 AM,70.0,,66.0,87%,30.12,10.0,South,10.4,,N/A,,Mostly Cloudy
3150,2016-06-27,8:51 AM,73.0,,62.1,68%,30.12,10.0,SSW,11.5,,N/A,,Mostly Cloudy
3151,2016-06-27,9:51 AM,73.9,,62.1,66%,30.12,10.0,South,12.7,,N/A,,Mostly Cloudy
3152,2016-06-27,10:51 AM,77.0,,63.0,62%,30.10,10.0,South,10.4,,N/A,,Mostly Cloudy
3153,2016-06-27,11:51 AM,77.0,,64.0,64%,30.09,10.0,South,13.8,,N/A,,Mostly Cloudy
3154,2016-06-27,12:51 PM,78.1,,64.9,64%,30.08,10.0,South,13.8,,N/A,,Mostly Cloudy
3155,2016-06-27,1:51 PM,79.0,,68.0,69%,30.06,10.0,SSE,19.6,,N/A,,Mostly Cloudy
3156,2016-06-27,2:51 PM,80.1,82.3,66.9,64%,30.04,10.0,South,23.0,31.1,N/A,,Mostly Cloudy
3157,2016-06-27,3:51 PM,79.0,,66.0,64%,30.02,10.0,South,25.3,31.1,N/A,,Mostly Cloudy
3158,2016-06-27,4:51 PM,79.0,,66.0,64%,30.01,10.0,South,25.3,32.2,N/A,,Mostly Cloudy
3159,2016-06-27,5:51 PM,77.0,,69.1,76%,30.00,10.0,South,25.3,33.4,N/A,,Mostly Cloudy
3160,2016-06-27,6:51 PM,75.0,,59.0,57%,30.00,10.0,South,19.6,28.8,N/A,,Mostly Cloudy
3161,2016-06-27,7:51 PM,73.9,,60.1,62%,30.01,10.0,South,21.9,,N/A,,Overcast
3162,2016-06-27,8:51 PM,73.0,,63.0,71%,30.01,10.0,South,19.6,31.1,0.00,Ra,Light Ra
3163,2016-06-27,9:51 PM,72.0,,64.9,78%,30.03,10.0,South,19.6,,0.00,Ra,Light Ra
3164,2016-06-27,10:51 PM,72.0,,69.1,91%,30.03,10.0,South,16.1,,0.01,Ra,Light Ra
3165,2016-06-27,11:51 PM,72.0,,66.9,84%,30.01,10.0,South,13.8,,0.02,Ra,Light Ra
3166,2016-06-29,12:43 AM,71.1,,68.0,90%,29.88,2.0,SW,6.9,,N/A,,Overcast
3167,2016-06-29,12:51 AM,71.1,,68.0,90%,29.88,2.0,SW,6.9,,N/A,,Overcast
3168,2016-06-29,1:43 AM,71.1,,68.0,90%,29.86,6.0,South,6.9,,N/A,,Overcast
3169,2016-06-29,1:51 AM,72.0,,69.1,91%,29.86,7.0,South,5.8,,N/A,,Overcast
3170,2016-06-29,2:38 AM,71.1,,68.0,90%,29.87,6.0,South,8.1,,N/A,,Overcast
3171,2016-06-29,2:44 AM,71.1,,68.0,90%,29.87,2.0,South,10.4,,N/A,,Overcast
3172,2016-06-29,2:51 AM,71.1,,68.0,90%,29.87,0.2,SSW,8.1,,N/A,,Overcast
3173,2016-06-29,3:51 AM,71.1,,66.9,87%,29.87,0.2,SSW,5.8,,N/A,,Overcast
3174,2016-06-29,4:51 AM,71.1,,66.9,87%,29.86,6.0,SSW,5.8,,N/A,,Overcast
3175,2016-06-29,5:51 AM,70.0,,66.9,90%,29.87,4.0,SW,3.5,,N/A,,Overcast
3176,2016-06-29,6:22 AM,72.0,,68.0,87%,29.88,6.0,WNW,3.5,,N/A,,Mostly Cloudy
3177,2016-06-29,6:51 AM,73.0,,68.0,84%,29.88,6.0,NNW,5.8,,N/A,,Haze
3178,2016-06-29,7:22 AM,73.9,,66.9,79%,29.88,6.0,NNE,3.5,,N/A,,Haze
3179,2016-06-29,7:51 AM,75.0,,68.0,79%,29.89,7.0,North,4.6,,N/A,,Scattered Clouds
3180,2016-06-29,8:51 AM,78.1,,66.0,66%,29.89,10.0,NE,3.5,,N/A,,Scattered Clouds
3181,2016-06-29,9:51 AM,80.1,81.9,64.9,60%,29.89,10.0,Calm,Calm,,N/A,,Mostly Cloudy
3182,2016-06-29,10:51 AM,80.1,81.5,63.0,56%,29.89,10.0,WNW,5.8,,N/A,,Mostly Cloudy
3183,2016-06-29,11:51 AM,82.0,83.1,63.0,52%,29.88,10.0,NW,6.9,,N/A,,Scattered Clouds
3184,2016-06-29,12:51 PM,84.9,85.4,62.1,46%,29.87,10.0,NNW,10.4,,N/A,,Scattered Clouds
3185,2016-06-29,1:51 PM,84.9,84.4,59.0,41%,29.86,10.0,NNW,9.2,17.3,N/A,,Scattered Clouds
3186,2016-06-29,2:51 PM,87.1,85.9,57.0,36%,29.86,10.0,West,11.5,18.4,N/A,,Scattered Clouds
3187,2016-06-29,3:51 PM,87.1,85.7,55.9,35%,29.86,10.0,West,11.5,,N/A,,Scattered Clouds
3188,2016-06-29,4:51 PM,89.1,86.9,54.0,30%,29.87,10.0,West,12.7,,N/A,,Mostly Cloudy
3189,2016-06-29,5:51 PM,87.1,,52.0,30%,29.86,10.0,West,15.0,20.7,N/A,,Scattered Clouds
3190,2016-06-29,6:51 PM,86.0,84.0,53.1,32%,29.87,10.0,WNW,9.2,,N/A,,Scattered Clouds
3191,2016-06-29,7:51 PM,82.9,82.0,55.0,38%,29.88,10.0,NNW,13.8,,N/A,,Scattered Clouds
3192,2016-06-29,8:51 PM,82.0,81.2,53.1,37%,29.90,10.0,WNW,13.8,,N/A,,Scattered Clouds
3193,2016-06-29,9:51 PM,80.1,79.9,53.1,39%,29.92,10.0,NW,10.4,,N/A,,Partly Cloudy
3194,2016-06-29,10:51 PM,78.1,,54.0,43%,29.94,10.0,NNW,9.2,,N/A,,Partly Cloudy
3195,2016-06-29,11:51 PM,77.0,,54.0,45%,29.94,10.0,NW,10.4,,N/A,,Partly Cloudy
3196,2016-06-30,12:51 AM,75.9,,55.0,48%,29.95,10.0,NW,9.2,,N/A,,Partly Cloudy
3197,2016-06-30,1:51 AM,73.9,,55.0,52%,29.95,10.0,NNW,10.4,,N/A,,Clear
3198,2016-06-30,2:51 AM,73.0,,55.9,55%,29.96,10.0,NNW,9.2,,N/A,,Clear
3199,2016-06-30,3:51 AM,71.1,,55.9,59%,29.96,10.0,NNW,5.8,,N/A,,Clear
3200,2016-06-30,4:51 AM,71.1,,57.0,61%,29.98,10.0,NW,5.8,,N/A,,Clear
3201,2016-06-30,5:51 AM,71.1,,55.9,59%,29.99,10.0,NW,5.8,,N/A,,Clear
3202,2016-06-30,6:51 AM,73.0,,55.9,55%,30.01,10.0,NNW,5.8,,N/A,,Clear
3203,2016-06-30,7:51 AM,75.9,,55.9,50%,30.01,10.0,North,6.9,,N/A,,Clear
3204,2016-06-30,8:51 AM,78.1,,54.0,43%,30.02,10.0,North,8.1,,N/A,,Partly Cloudy
3205,2016-06-30,9:51 AM,80.1,80.1,55.0,42%,30.02,10.0,NNE,6.9,,N/A,,Partly Cloudy
3206,2016-06-30,10:51 AM,81.0,,52.0,36%,30.03,10.0,Variable,5.8,,N/A,,Partly Cloudy
3207,2016-06-30,11:51 AM,82.0,81.2,53.1,37%,30.03,10.0,Calm,Calm,,N/A,,Scattered Clouds
3208,2016-06-30,12:51 PM,82.0,81.6,55.9,41%,30.03,10.0,South,13.8,,N/A,,Scattered Clouds
3209,2016-06-30,1:51 PM,82.9,82.0,55.0,38%,30.02,10.0,South,13.8,,N/A,,Scattered Clouds
3210,2016-06-30,2:51 PM,84.0,83.0,55.9,38%,30.01,10.0,South,15.0,,N/A,,Scattered Clouds
3211,2016-06-30,3:51 PM,82.9,82.4,57.0,41%,30.00,10.0,South,13.8,,N/A,,Scattered Clouds
3212,2016-06-30,4:51 PM,80.1,80.9,60.1,50%,30.00,10.0,South,20.7,,N/A,,Scattered Clouds
3213,2016-06-30,5:51 PM,78.1,,62.1,58%,30.01,10.0,South,23.0,31.1,N/A,,Scattered Clouds
3214,2016-06-30,6:51 PM,77.0,,63.0,62%,30.01,10.0,South,19.6,,N/A,,Scattered Clouds
3215,2016-06-30,7:51 PM,75.0,,66.9,76%,30.02,10.0,South,17.3,,N/A,,Scattered Clouds
3216,2016-06-30,8:51 PM,75.0,,66.0,73%,30.02,10.0,South,13.8,,N/A,,Partly Cloudy
3217,2016-06-30,9:51 PM,73.9,,68.0,82%,30.04,10.0,South,15.0,,N/A,,Partly Cloudy
3218,2016-06-30,10:51 PM,73.9,,69.1,85%,30.03,10.0,South,11.5,,N/A,,Partly Cloudy
3219,2016-06-30,11:51 PM,73.0,,69.1,87%,30.03,10.0,South,10.4,,N/A,,Partly Cloudy
3220,2016-07-01,12:51 AM,72.0,,64.9,78%,30.04,10.0,South,9.2,,N/A,,Partly Cloudy
3221,2016-07-01,1:51 AM,72.0,,64.9,78%,30.04,10.0,South,9.2,,N/A,,Partly Cloudy
3222,2016-07-01,2:51 AM,71.1,,66.0,84%,30.02,10.0,South,6.9,,N/A,,Scattered Clouds
3223,2016-07-01,3:51 AM,70.0,,66.9,90%,30.02,10.0,South,3.5,,N/A,,Scattered Clouds
3224,2016-07-01,4:51 AM,69.1,,66.0,90%,30.02,10.0,SSE,5.8,,N/A,,Scattered Clouds
3225,2016-07-01,5:51 AM,70.0,,66.0,87%,30.03,10.0,SSE,4.6,,N/A,,Scattered Clouds
3226,2016-07-01,6:51 AM,72.0,,66.9,84%,30.03,10.0,South,6.9,,N/A,,Mostly Cloudy
3227,2016-07-01,7:51 AM,73.9,,68.0,82%,30.02,10.0,South,10.4,,N/A,,Mostly Cloudy
3228,2016-07-01,8:51 AM,75.0,,71.1,87%,30.02,10.0,SSE,8.1,,N/A,,Mostly Cloudy
3229,2016-07-01,9:51 AM,75.9,,70.0,82%,30.01,10.0,SSE,9.2,,N/A,,Mostly Cloudy
3230,2016-07-01,10:51 AM,77.0,,70.0,79%,29.99,10.0,SSE,10.4,,N/A,,Mostly Cloudy
3231,2016-07-01,11:19 AM,77.0,,73.0,88%,30.00,10.0,SE,9.2,,N/A,,Mostly Cloudy
3232,2016-07-01,11:51 AM,77.0,,70.0,79%,29.99,10.0,SSE,11.5,,N/A,,Mostly Cloudy
3233,2016-07-01,12:39 PM,79.0,,68.0,69%,29.97,10.0,ESE,11.5,,N/A,,Mostly Cloudy
3234,2016-07-01,12:51 PM,78.1,,70.0,76%,29.97,10.0,SE,15.0,,N/A,,Mostly Cloudy
3235,2016-07-01,1:25 PM,80.1,83.6,71.1,74%,29.97,10.0,SSE,16.1,,N/A,,Overcast
3236,2016-07-01,1:51 PM,80.1,84.2,73.0,79%,29.96,10.0,SE,16.1,,N/A,,Mostly Cloudy
3237,2016-07-01,2:32 PM,78.1,,70.0,76%,29.94,10.0,SE,12.7,,N/A,,Mostly Cloudy
3238,2016-07-01,2:51 PM,77.0,,73.0,88%,29.92,10.0,SE,11.5,,N/A,,Overcast
3239,2016-07-01,3:51 PM,75.0,,70.0,84%,29.91,8.0,SSE,16.1,,N/A,,Overcast
3240,2016-07-01,4:18 PM,75.0,,71.1,87%,29.88,2.5,SSE,16.1,,0.00,Ra,Light Ra
3241,2016-07-01,4:42 PM,73.9,,71.1,91%,29.88,0.5,SSE,16.1,27.6,0.01,,Overcast
3242,2016-07-01,4:51 PM,73.9,,71.1,91%,29.88,0.5,South,19.6,25.3,0.01,,Overcast
3243,2016-07-01,5:05 PM,75.0,,69.1,82%,29.87,9.0,South,23.0,33.4,0.00,Ra,Light Ra
3244,2016-07-01,5:51 PM,72.0,,68.0,87%,29.89,8.0,South,17.3,,0.00,Ra,Light Ra
3245,2016-07-01,6:20 PM,71.1,,66.9,87%,29.89,0.5,WSW,15.0,26.5,0.20,Ra,Heavy Ra
3246,2016-07-01,6:35 PM,72.0,,68.0,87%,29.89,6.0,SW,9.2,,0.40,Ra,Light Ra
3247,2016-07-01,6:51 PM,73.0,,68.0,84%,29.89,9.0,South,9.2,,0.41,Ra,Light Ra
3248,2016-07-01,7:30 PM,73.9,,69.1,85%,29.89,8.0,South,4.6,,0.00,Ra,Light Ra
3249,2016-07-01,7:37 PM,73.9,,70.0,87%,29.89,8.0,SSE,8.1,,0.00,,Mostly Cloudy
3250,2016-07-01,7:51 PM,73.9,,71.1,91%,29.87,5.0,South,8.1,,0.00,Ra,Light Ra
3251,2016-07-01,8:10 PM,72.0,,66.0,81%,29.87,7.0,Variable,3.5,,0.03,Ra,Light Ra
3252,2016-07-01,8:51 PM,73.0,,68.0,84%,29.87,10.0,NE,5.8,,0.03,,Mostly Cloudy
3253,2016-07-01,9:13 PM,73.0,,69.1,87%,29.87,7.0,Variable,3.5,,0.00,Ra,Light Ra
3254,2016-07-01,9:37 PM,72.0,,66.9,84%,29.88,10.0,ESE,6.9,,0.00,,Mostly Cloudy
3255,2016-07-01,9:51 PM,72.0,,68.0,87%,29.88,10.0,SE,5.8,,0.00,,Mostly Cloudy
3256,2016-07-01,10:26 PM,73.9,,71.1,91%,29.90,10.0,NNW,12.7,,N/A,Thunderstorm,Thunderstorm
3257,2016-07-01,10:51 PM,73.0,,68.0,84%,29.88,10.0,ENE,4.6,,N/A,,Mostly Cloudy
3258,2016-07-01,11:51 PM,72.0,,68.0,87%,29.87,10.0,ESE,4.6,,N/A,,Scattered Clouds
3259,2016-07-04,12:51 AM,71.1,,64.0,78%,30.09,10.0,WSW,11.5,,N/A,,Overcast
3260,2016-07-04,1:51 AM,70.0,,63.0,78%,30.08,10.0,WSW,8.1,,N/A,,Overcast
3261,2016-07-04,2:51 AM,69.1,,60.1,73%,30.08,10.0,WSW,9.2,,N/A,,Overcast
3262,2016-07-04,3:51 AM,69.1,,60.1,73%,30.07,10.0,WSW,8.1,,N/A,,Overcast
3263,2016-07-04,4:51 AM,66.9,,59.0,76%,30.07,10.0,WSW,5.8,,N/A,,Mostly Cloudy
3264,2016-07-04,5:51 AM,66.0,,61.0,84%,30.09,10.0,SW,6.9,,N/A,,Mostly Cloudy
3265,2016-07-04,6:51 AM,70.0,,61.0,73%,30.10,10.0,WSW,8.1,,N/A,,Scattered Clouds
3266,2016-07-04,7:51 AM,72.0,,61.0,68%,30.10,10.0,WSW,5.8,,N/A,,Partly Cloudy
3267,2016-07-04,8:51 AM,73.9,,61.0,64%,30.10,10.0,South,5.8,,N/A,,Partly Cloudy
3268,2016-07-04,9:51 AM,77.0,,60.1,56%,30.10,10.0,SW,4.6,,N/A,,Partly Cloudy
3269,2016-07-04,10:51 AM,79.0,,60.1,52%,30.10,10.0,SSW,10.4,,N/A,,Partly Cloudy
3270,2016-07-04,11:51 AM,81.0,80.8,55.9,42%,30.09,10.0,South,11.5,,N/A,,Partly Cloudy
3271,2016-07-04,12:51 PM,82.0,,52.0,35%,30.08,10.0,South,11.5,,N/A,,Partly Cloudy
3272,2016-07-04,1:51 PM,82.0,81.4,55.0,39%,30.06,10.0,South,13.8,,N/A,,Scattered Clouds
3273,2016-07-04,2:51 PM,82.0,81.6,55.9,41%,30.05,10.0,South,17.3,,N/A,,Mostly Cloudy
3274,2016-07-04,3:51 PM,79.0,,57.9,48%,30.04,10.0,South,16.1,,N/A,,Mostly Cloudy
3275,2016-07-04,4:51 PM,78.1,,64.9,64%,30.02,10.0,South,19.6,,N/A,,Mostly Cloudy
3276,2016-07-04,5:51 PM,75.0,,66.9,76%,30.00,10.0,South,21.9,29.9,N/A,,Overcast
3277,2016-07-04,6:51 PM,73.9,,66.0,76%,29.98,10.0,South,21.9,27.6,N/A,,Overcast
3278,2016-07-04,7:51 PM,73.0,,64.9,76%,29.99,10.0,South,19.6,,N/A,,Overcast
3279,2016-07-04,8:51 PM,72.0,,66.0,81%,29.99,10.0,South,17.3,,0.00,,Overcast
3280,2016-07-04,9:51 PM,72.0,,64.0,76%,29.98,10.0,South,12.7,,0.00,,Overcast
3281,2016-07-04,10:03 PM,73.0,,64.9,76%,29.97,10.0,South,12.7,,0.00,Ra,Light Ra
3282,2016-07-04,10:51 PM,72.0,,66.0,81%,29.96,10.0,South,13.8,,0.00,Ra,Light Ra
3283,2016-07-04,11:42 PM,71.1,,68.0,90%,29.94,5.0,South,10.4,,0.06,Ra,Ra
3284,2016-07-04,11:51 PM,71.1,,68.0,90%,29.93,5.0,South,10.4,,0.09,Ra,Heavy Ra
3285,2016-07-05,12:44 AM,72.0,,69.1,91%,29.89,3.0,SSE,10.4,,0.30,Ra,Ra
3286,2016-07-05,12:51 AM,72.0,,69.1,91%,29.88,2.5,South,10.4,,0.34,Ra,Heavy Ra
3287,2016-07-05,1:30 AM,72.0,,69.1,91%,29.86,1.0,South,13.8,,0.14,Ra,Light Ra
3288,2016-07-05,1:51 AM,72.0,,69.1,91%,29.86,1.0,South,16.1,,0.14,Ra,Light Ra
3289,2016-07-05,2:39 AM,72.0,,70.0,93%,29.83,0.5,SSW,15.0,,0.33,Ra,Heavy Ra
3290,2016-07-05,2:51 AM,72.0,,69.1,91%,29.83,0.5,SSW,13.8,,0.34,Ra,Light Ra
3291,2016-07-05,3:51 AM,72.0,,69.1,91%,29.81,0.5,SSW,8.1,,0.01,Ra,Light Ra
3292,2016-07-05,4:37 AM,72.0,,69.1,91%,29.81,5.0,Calm,Calm,,0.01,Ra,Light Ra
3293,2016-07-05,4:51 AM,72.0,,70.0,93%,29.80,5.0,Calm,Calm,,0.02,Ra,Light Ra
3294,2016-07-05,5:51 AM,73.0,,70.0,90%,29.79,5.0,WSW,5.8,,0.04,Ra,Light Ra
3295,2016-07-05,6:17 AM,73.9,,70.0,87%,29.79,10.0,SW,6.9,,0.01,Ra,Light Ra
3296,2016-07-05,6:51 AM,73.9,,71.1,91%,29.78,10.0,SW,5.8,,0.01,Ra,Light Ra
3297,2016-07-05,7:51 AM,75.0,,70.0,84%,29.78,10.0,West,6.9,,0.00,,Overcast
3298,2016-07-05,8:42 AM,75.9,,70.0,82%,29.77,10.0,NW,6.9,,N/A,,Mostly Cloudy
3299,2016-07-05,8:51 AM,75.9,,70.0,82%,29.78,10.0,WNW,6.9,,N/A,,Mostly Cloudy
3300,2016-07-05,9:51 AM,78.1,,70.0,76%,29.77,10.0,NNW,9.2,,N/A,,Mostly Cloudy
3301,2016-07-05,10:51 AM,81.0,84.4,70.0,69%,29.78,10.0,North,12.7,,N/A,,Mostly Cloudy
3302,2016-07-05,11:51 AM,81.0,83.8,68.0,65%,29.78,10.0,NW,9.2,,N/A,,Mostly Cloudy
3303,2016-07-05,12:33 PM,82.0,84.9,68.0,62%,29.78,10.0,NNW,10.4,,N/A,,Mostly Cloudy
3304,2016-07-05,12:51 PM,80.1,82.3,66.9,64%,29.78,10.0,NNW,10.4,21.9,N/A,,Mostly Cloudy
3305,2016-07-05,1:51 PM,84.0,86.5,66.9,56%,29.78,10.0,North,8.1,,N/A,,Mostly Cloudy
3306,2016-07-05,2:51 PM,86.0,88.8,66.9,53%,29.78,10.0,WNW,10.4,,N/A,,Mostly Cloudy
3307,2016-07-05,3:51 PM,87.1,89.2,66.0,49%,29.78,10.0,WNW,13.8,,N/A,,Mostly Cloudy
3308,2016-07-05,4:51 PM,89.1,91.0,64.9,45%,29.77,10.0,NW,12.7,,N/A,,Scattered Clouds
3309,2016-07-05,5:51 PM,89.1,90.3,64.0,43%,29.77,10.0,West,12.7,,N/A,,Scattered Clouds
3310,2016-07-05,6:51 PM,89.1,90.0,63.0,42%,29.77,10.0,WNW,12.7,,N/A,,Scattered Clouds
3311,2016-07-05,7:51 PM,82.9,85.4,66.9,58%,29.78,10.0,SSW,9.2,,N/A,,Scattered Clouds
3312,2016-07-05,8:51 PM,82.0,84.9,68.0,62%,29.80,10.0,WSW,10.4,,N/A,,Mostly Cloudy
3313,2016-07-05,9:51 PM,82.0,84.9,68.0,62%,29.82,10.0,WSW,10.4,,N/A,,Mostly Cloudy
3314,2016-07-05,10:51 PM,80.1,83.6,71.1,74%,29.83,10.0,WSW,10.4,,N/A,,Mostly Cloudy
3315,2016-07-05,11:51 PM,78.1,,71.1,79%,29.85,10.0,WSW,10.4,,N/A,,Mostly Cloudy
3316,2016-07-06,12:51 AM,77.0,,73.0,88%,29.85,10.0,SW,6.9,,N/A,,Mostly Cloudy
3317,2016-07-06,1:51 AM,79.0,,69.1,72%,29.84,10.0,WSW,5.8,,N/A,,Mostly Cloudy
3318,2016-07-06,2:51 AM,78.1,,70.0,76%,29.83,10.0,Calm,Calm,,N/A,,Scattered Clouds
3319,2016-07-06,3:51 AM,79.0,,70.0,74%,29.82,10.0,NW,3.5,,N/A,,Scattered Clouds
3320,2016-07-06,4:51 AM,73.0,,69.1,87%,29.84,10.0,SW,5.8,,N/A,,Scattered Clouds
3321,2016-07-06,5:51 AM,75.0,,70.0,84%,29.87,10.0,West,5.8,,N/A,,Scattered Clouds
3322,2016-07-06,6:51 AM,77.0,,72.0,84%,29.89,10.0,WSW,5.8,,N/A,,Scattered Clouds
3323,2016-07-06,7:51 AM,82.9,85.8,68.0,60%,29.89,10.0,NNW,3.5,,N/A,,Partly Cloudy
3324,2016-07-06,8:51 AM,82.9,85.8,68.0,60%,29.88,10.0,SSE,3.5,,N/A,,Partly Cloudy
3325,2016-07-06,9:51 AM,84.9,88.2,68.0,57%,29.88,10.0,South,8.1,,N/A,,Partly Cloudy
3326,2016-07-06,10:51 AM,86.0,86.8,63.0,46%,29.89,10.0,South,10.4,,N/A,,Partly Cloudy
3327,2016-07-06,11:51 AM,87.1,88.3,64.0,46%,29.89,10.0,South,12.7,,N/A,,Partly Cloudy
3328,2016-07-06,12:51 PM,87.1,90.6,68.0,53%,29.89,10.0,South,10.4,,N/A,,Partly Cloudy
3329,2016-07-06,1:51 PM,87.1,89.2,66.0,49%,29.88,10.0,South,10.4,,N/A,,Partly Cloudy
3330,2016-07-06,2:51 PM,87.1,89.2,66.0,49%,29.86,10.0,South,15.0,,N/A,,Scattered Clouds
3331,2016-07-06,3:51 PM,87.1,90.6,68.0,53%,29.85,10.0,South,13.8,,N/A,,Scattered Clouds
3332,2016-07-06,4:51 PM,84.0,87.0,68.0,58%,29.83,10.0,South,16.1,,N/A,,Scattered Clouds
3333,2016-07-06,5:51 PM,82.9,87.0,70.0,65%,29.82,10.0,South,16.1,,N/A,,Scattered Clouds
3334,2016-07-06,6:51 PM,81.0,85.2,72.0,74%,29.82,10.0,South,16.1,,N/A,,Partly Cloudy
3335,2016-07-06,7:51 PM,80.1,84.2,73.0,79%,29.82,10.0,South,17.3,,N/A,,Partly Cloudy
3336,2016-07-06,8:51 PM,78.1,,73.0,84%,29.83,10.0,South,17.3,,N/A,,Partly Cloudy
3337,2016-07-06,9:51 PM,78.1,,72.0,81%,29.83,10.0,South,13.8,,N/A,,Scattered Clouds
3338,2016-07-06,10:51 PM,75.9,,72.0,87%,29.84,10.0,South,9.2,,N/A,,Scattered Clouds
3339,2016-07-06,11:51 PM,75.0,,71.1,87%,29.84,10.0,SSW,5.8,,N/A,,Partly Cloudy
3340,2016-07-07,12:51 AM,75.0,,71.1,87%,29.84,10.0,SSW,5.8,,N/A,,Scattered Clouds
3341,2016-07-07,1:51 AM,75.0,,71.1,87%,29.83,10.0,South,5.8,,N/A,,Scattered Clouds
3342,2016-07-07,2:51 AM,75.0,,71.1,87%,29.81,10.0,SSW,4.6,,N/A,,Mostly Cloudy
3343,2016-07-07,3:51 AM,75.9,,72.0,87%,29.79,10.0,Calm,Calm,,N/A,,Scattered Clouds
3344,2016-07-07,4:51 AM,75.9,,72.0,87%,29.79,10.0,SW,3.5,,N/A,,Scattered Clouds
3345,2016-07-07,5:51 AM,75.0,,72.0,90%,29.79,10.0,South,4.6,,N/A,,Scattered Clouds
3346,2016-07-07,6:51 AM,77.0,,73.0,88%,29.80,8.0,South,3.5,,N/A,,Partly Cloudy
3347,2016-07-07,7:51 AM,80.1,85.4,75.9,87%,29.81,7.0,Variable,4.6,,N/A,,Partly Cloudy
3348,2016-07-07,8:51 AM,81.0,86.2,73.9,79%,29.81,9.0,South,8.1,,N/A,,Mostly Cloudy
3349,2016-07-07,9:51 AM,80.1,84.5,73.9,81%,29.81,9.0,South,10.4,25.3,N/A,,Mostly Cloudy
3350,2016-07-07,10:51 AM,82.9,88.8,73.0,72%,29.81,10.0,South,9.2,,N/A,,Mostly Cloudy
3351,2016-07-07,11:51 AM,84.9,91.4,73.0,67%,29.80,9.0,South,10.4,,N/A,,Mostly Cloudy
3352,2016-07-07,12:51 PM,86.0,92.2,72.0,63%,29.79,9.0,SSE,11.5,,N/A,,Mostly Cloudy
3353,2016-07-07,1:51 PM,87.1,92.8,71.1,59%,29.76,10.0,South,16.1,,N/A,,Mostly Cloudy
3354,2016-07-07,2:51 PM,82.9,89.4,73.9,74%,29.75,10.0,South,18.4,,N/A,,Mostly Cloudy
3355,2016-07-07,3:51 PM,81.0,86.2,73.9,79%,29.74,10.0,SSW,18.4,31.1,0.00,,Overcast
3356,2016-07-07,4:51 PM,79.0,,73.0,82%,29.75,10.0,SSW,11.5,,0.01,,Mostly Cloudy
3357,2016-07-07,5:51 PM,81.0,84.9,71.1,72%,29.74,10.0,SSW,10.4,,N/A,,Mostly Cloudy
3358,2016-07-07,6:51 PM,80.1,83.8,72.0,76%,29.76,10.0,South,9.2,,N/A,,Mostly Cloudy
3359,2016-07-07,7:51 PM,79.0,,73.9,84%,29.75,10.0,SSE,3.5,,0.06,,Mostly Cloudy
3360,2016-07-07,8:51 PM,77.0,,73.9,90%,29.75,10.0,South,4.6,,N/A,,Mostly Cloudy
3361,2016-07-07,9:51 PM,77.0,,73.0,88%,29.77,10.0,Calm,Calm,,N/A,,Mostly Cloudy
3362,2016-07-07,10:51 PM,77.0,,73.9,90%,29.77,10.0,Calm,Calm,,N/A,,Mostly Cloudy
3363,2016-07-07,11:51 PM,75.9,,73.0,91%,29.75,10.0,ESE,3.5,,N/A,,Scattered Clouds
3364,2016-07-08,12:51 AM,75.0,,73.0,94%,29.75,10.0,Calm,Calm,,N/A,,Scattered Clouds
3365,2016-07-08,1:51 AM,75.9,,72.0,87%,29.76,10.0,North,3.5,,N/A,,Scattered Clouds
3366,2016-07-08,2:51 AM,75.9,,72.0,87%,29.75,10.0,Calm,Calm,,N/A,,Mostly Cloudy
3367,2016-07-08,3:51 AM,77.0,,71.1,82%,29.75,10.0,North,4.6,,N/A,,Mostly Cloudy
3368,2016-07-08,4:51 AM,75.9,,71.1,85%,29.75,10.0,NNE,3.5,,N/A,,Mostly Cloudy
3369,2016-07-08,5:51 AM,77.0,,71.1,82%,29.76,10.0,North,6.9,,N/A,,Mostly Cloudy
3370,2016-07-08,6:51 AM,78.1,,71.1,79%,29.78,10.0,NNE,9.2,,N/A,,Scattered Clouds
3371,2016-07-08,7:51 AM,81.0,84.9,71.1,72%,29.79,10.0,NNE,12.7,,N/A,,Scattered Clouds
3372,2016-07-08,8:51 AM,82.0,86.3,71.1,69%,29.78,10.0,NNE,12.7,,N/A,,Partly Cloudy
3373,2016-07-08,9:51 AM,82.9,87.5,71.1,67%,29.79,10.0,NE,8.1,,N/A,,Scattered Clouds
3374,2016-07-08,10:51 AM,84.9,89.4,70.0,61%,29.80,10.0,Variable,6.9,,N/A,,Scattered Clouds
3375,2016-07-08,11:51 AM,84.0,88.4,70.0,63%,29.81,10.0,East,6.9,,N/A,,Mostly Cloudy
3376,2016-07-08,12:51 PM,84.9,89.4,70.0,61%,29.81,10.0,East,12.7,,N/A,,Mostly Cloudy
3377,2016-07-08,1:07 PM,81.0,85.2,72.0,74%,29.82,10.0,SE,15.0,,N/A,,Mostly Cloudy
3378,2016-07-08,1:51 PM,79.0,,72.0,79%,29.82,10.0,ESE,21.9,,N/A,,Mostly Cloudy
3379,2016-07-08,2:51 PM,80.1,84.5,73.9,81%,29.81,10.0,ESE,17.3,,N/A,,Scattered Clouds
3380,2016-07-08,3:25 PM,78.1,,73.0,84%,29.81,10.0,ESE,16.1,,N/A,,Mostly Cloudy
3381,2016-07-08,3:51 PM,78.1,,72.0,81%,29.81,10.0,ESE,15.0,,N/A,,Mostly Cloudy
3382,2016-07-08,4:48 PM,78.8,,71.6,78%,29.81,10.0,ESE,18.4,,N/A,,Mostly Cloudy
3383,2016-07-08,4:51 PM,78.1,,71.1,79%,29.82,10.0,ESE,12.7,21.9,N/A,,Mostly Cloudy
3384,2016-07-08,5:51 PM,73.0,,69.1,87%,29.83,10.0,ESE,13.8,,N/A,,Overcast
3385,2016-07-08,6:32 PM,72.0,,69.1,91%,29.83,7.0,ESE,13.8,,0.01,Ra,Ra
3386,2016-07-08,6:49 PM,71.6,,69.8,94%,29.84,7.0,ESE,12.7,,0.02,Ra,Light Ra
3387,2016-07-08,6:51 PM,71.1,,69.1,93%,29.84,9.0,ESE,11.5,,0.02,Ra,Light Ra
3388,2016-07-08,7:51 PM,71.1,,66.9,87%,29.85,10.0,ESE,10.4,,0.00,,Mostly Cloudy
3389,2016-07-08,8:51 PM,70.0,,64.9,84%,29.86,10.0,ESE,15.0,24.2,N/A,,Overcast
3390,2016-07-08,9:43 PM,70.0,,64.0,81%,29.87,10.0,ESE,16.1,,N/A,,Overcast
3391,2016-07-08,9:51 PM,70.0,,64.0,81%,29.87,10.0,East,17.3,,N/A,,Overcast
3392,2016-07-08,10:51 PM,69.1,,61.0,75%,29.88,10.0,East,18.4,23.0,N/A,,Overcast
3393,2016-07-08,11:51 PM,68.0,,64.0,87%,29.88,10.0,East,16.1,,N/A,,Overcast
3394,2016-07-10,12:51 AM,68.0,,64.9,90%,29.82,10.0,SSE,4.6,,0.01,,Mostly Cloudy
3395,2016-07-10,1:51 AM,68.0,,64.9,90%,29.81,10.0,NE,4.6,,N/A,,Overcast
3396,2016-07-10,2:51 AM,68.0,,66.0,93%,29.81,10.0,ENE,4.6,,N/A,,Overcast
3397,2016-07-10,3:51 AM,68.0,,66.0,93%,29.81,10.0,ENE,4.6,,N/A,,Overcast
3398,2016-07-10,4:51 AM,68.0,,66.0,93%,29.82,10.0,Calm,Calm,,N/A,,Overcast
3399,2016-07-10,5:51 AM,68.0,,64.9,90%,29.84,8.0,ENE,3.5,,N/A,,Mostly Cloudy
3400,2016-07-10,6:51 AM,69.1,,66.0,90%,29.85,10.0,Calm,Calm,,N/A,,Mostly Cloudy
3401,2016-07-10,7:51 AM,71.1,,68.0,90%,29.85,9.0,Calm,Calm,,N/A,,Mostly Cloudy
3402,2016-07-10,8:51 AM,73.0,,69.1,87%,29.86,10.0,WSW,8.1,,N/A,,Mostly Cloudy
3403,2016-07-10,9:51 AM,75.9,,66.0,71%,29.85,10.0,West,9.2,,N/A,,Mostly Cloudy
3404,2016-07-10,10:51 AM,79.0,,62.1,56%,29.86,10.0,WNW,12.7,19.6,N/A,,Mostly Cloudy
3405,2016-07-10,11:51 AM,81.0,81.7,61.0,50%,29.86,10.0,NW,8.1,,N/A,,Mostly Cloudy
3406,2016-07-10,12:51 PM,78.1,,64.0,62%,29.86,10.0,SW,15.0,,N/A,,Mostly Cloudy
3407,2016-07-10,1:51 PM,79.0,,63.0,58%,29.86,10.0,SW,18.4,,N/A,,Mostly Cloudy
3408,2016-07-10,2:51 PM,81.0,81.7,61.0,50%,29.86,10.0,WSW,15.0,,N/A,,Mostly Cloudy
3409,2016-07-10,3:51 PM,80.1,81.1,61.0,52%,29.87,10.0,WNW,15.0,,N/A,,Mostly Cloudy
3410,2016-07-10,4:03 PM,80.1,81.5,63.0,56%,29.86,10.0,NNW,15.0,,0.00,Ra,Light Ra
3411,2016-07-10,4:51 PM,82.0,82.1,59.0,45%,29.86,10.0,WNW,17.3,24.2,0.00,,Mostly Cloudy
3412,2016-07-10,5:51 PM,81.0,81.1,57.9,45%,29.87,10.0,NW,18.4,,N/A,,Mostly Cloudy
3413,2016-07-10,6:51 PM,81.0,81.6,60.1,49%,29.89,10.0,WNW,17.3,23.0,N/A,,Mostly Cloudy
3414,2016-07-10,7:51 PM,79.0,,57.9,48%,29.91,10.0,NW,17.3,,N/A,,Mostly Cloudy
3415,2016-07-10,8:51 PM,75.9,,57.9,54%,29.92,10.0,NW,17.3,26.5,N/A,,Scattered Clouds
3416,2016-07-10,9:51 PM,75.0,,57.9,55%,29.95,10.0,NNW,13.8,,N/A,,Partly Cloudy
3417,2016-07-10,10:51 PM,73.0,,57.0,57%,29.96,10.0,North,15.0,,N/A,,Partly Cloudy
3418,2016-07-10,11:51 PM,72.0,,57.9,61%,29.97,10.0,NNW,10.4,,N/A,,Scattered Clouds
3419,2016-07-11,12:51 AM,71.1,,57.9,63%,29.99,10.0,NNW,10.4,,N/A,,Scattered Clouds
3420,2016-07-11,1:51 AM,70.0,,59.0,68%,30.00,10.0,NW,10.4,,N/A,,Mostly Cloudy
3421,2016-07-11,2:51 AM,69.1,,60.1,73%,30.01,10.0,NNW,9.2,,N/A,,Mostly Cloudy
3422,2016-07-11,3:51 AM,68.0,,62.1,81%,30.02,10.0,NNW,9.2,,N/A,,Scattered Clouds
3423,2016-07-11,4:51 AM,68.0,,61.0,78%,30.03,10.0,NNW,12.7,,N/A,,Scattered Clouds
3424,2016-07-11,5:51 AM,66.9,,62.1,84%,30.05,10.0,North,9.2,,N/A,,Scattered Clouds
3425,2016-07-11,6:51 AM,69.1,,62.1,78%,30.06,10.0,North,12.7,,N/A,,Mostly Cloudy
3426,2016-07-11,7:51 AM,70.0,,61.0,73%,30.07,10.0,North,17.3,,N/A,,Mostly Cloudy
3427,2016-07-11,8:51 AM,73.0,,60.1,64%,30.08,10.0,North,13.8,,N/A,,Mostly Cloudy
3428,2016-07-11,9:51 AM,73.9,,57.9,57%,30.07,10.0,North,11.5,,N/A,,Mostly Cloudy
3429,2016-07-11,10:51 AM,73.9,,57.9,57%,30.09,10.0,North,10.4,,N/A,,Mostly Cloudy
3430,2016-07-11,11:51 AM,75.9,,55.9,50%,30.09,10.0,North,10.4,18.4,N/A,,Mostly Cloudy
3431,2016-07-11,12:51 PM,78.1,,55.0,45%,30.08,10.0,NNW,8.1,,N/A,,Mostly Cloudy
3432,2016-07-11,1:51 PM,77.0,,57.9,52%,30.07,10.0,Variable,6.9,,N/A,,Mostly Cloudy
3433,2016-07-11,2:51 PM,78.1,,57.0,48%,30.09,10.0,WSW,4.6,,N/A,,Mostly Cloudy
3434,2016-07-11,3:51 PM,80.1,80.0,54.0,40%,30.09,10.0,NNE,16.1,24.2,N/A,,Mostly Cloudy
3435,2016-07-11,4:51 PM,81.0,80.5,54.0,39%,30.08,10.0,NW,4.6,,N/A,,Scattered Clouds
3436,2016-07-11,5:36 PM,75.9,,62.1,62%,30.07,10.0,SSE,12.7,,N/A,,Mostly Cloudy
3437,2016-07-11,5:51 PM,75.0,,61.0,62%,30.07,10.0,SSE,10.4,,N/A,,Mostly Cloudy
3438,2016-07-11,6:51 PM,73.0,,61.0,66%,30.08,10.0,South,10.4,,N/A,,Mostly Cloudy
3439,2016-07-11,7:51 PM,72.0,,63.0,73%,30.10,10.0,SSE,8.1,,N/A,,Mostly Cloudy
3440,2016-07-11,8:51 PM,72.0,,64.9,78%,30.11,10.0,South,8.1,,N/A,,Mostly Cloudy
3441,2016-07-11,9:51 PM,70.0,,64.0,81%,30.12,10.0,South,6.9,,N/A,,Mostly Cloudy
3442,2016-07-11,10:51 PM,69.1,,64.9,87%,30.12,10.0,South,6.9,,N/A,,Scattered Clouds
3443,2016-07-11,11:51 PM,69.1,,64.0,84%,30.12,10.0,South,6.9,,N/A,,Scattered Clouds
3444,2016-07-13,12:51 AM,72.0,,66.9,84%,30.09,10.0,SSW,9.2,,N/A,,Scattered Clouds
3445,2016-07-13,1:51 AM,72.0,,66.9,84%,30.09,10.0,SSW,10.4,,N/A,,Scattered Clouds
3446,2016-07-13,2:51 AM,71.1,,66.9,87%,30.09,10.0,SW,10.4,,N/A,,Partly Cloudy
3447,2016-07-13,3:51 AM,71.1,,66.9,87%,30.08,10.0,SW,10.4,,N/A,,Partly Cloudy
3448,2016-07-13,4:51 AM,70.0,,66.0,87%,30.08,10.0,SW,8.1,,N/A,,Partly Cloudy
3449,2016-07-13,5:51 AM,71.1,,66.9,87%,30.09,10.0,SSW,8.1,,N/A,,Partly Cloudy
3450,2016-07-13,6:51 AM,72.0,,66.9,84%,30.09,10.0,South,6.9,,N/A,,Partly Cloudy
3451,2016-07-13,7:51 AM,73.0,,68.0,84%,30.09,10.0,SSW,5.8,,N/A,,Partly Cloudy
3452,2016-07-13,8:51 AM,75.0,,70.0,84%,30.10,10.0,South,8.1,,N/A,,Mostly Cloudy
3453,2016-07-13,9:51 AM,75.9,,71.1,85%,30.10,10.0,South,10.4,,N/A,,Mostly Cloudy
3454,2016-07-13,10:51 AM,78.1,,68.0,71%,30.10,10.0,South,12.7,,N/A,,Scattered Clouds
3455,2016-07-13,11:51 AM,80.1,82.7,68.0,67%,30.10,10.0,South,13.8,,N/A,,Scattered Clouds
3456,2016-07-13,12:51 PM,81.0,83.8,68.0,65%,30.09,10.0,South,16.1,,N/A,,Scattered Clouds
3457,2016-07-13,1:51 PM,80.1,82.7,68.0,67%,30.08,10.0,South,18.4,,N/A,,Mostly Cloudy
3458,2016-07-13,2:51 PM,79.0,,66.9,66%,30.07,10.0,South,17.3,,N/A,,Mostly Cloudy
3459,2016-07-13,3:51 PM,80.1,81.9,64.9,60%,30.07,10.0,South,17.3,26.5,N/A,,Mostly Cloudy
3460,2016-07-13,4:51 PM,77.0,,66.9,71%,30.07,10.0,South,15.0,,0.00,Ra,Light Ra
3461,2016-07-13,5:51 PM,77.0,,66.9,71%,30.04,10.0,South,10.4,,0.00,,Mostly Cloudy
3462,2016-07-13,6:51 PM,77.0,,68.0,74%,30.03,10.0,South,10.4,,N/A,,Mostly Cloudy
3463,2016-07-13,7:51 PM,75.9,,69.1,79%,30.03,10.0,SSE,11.5,,0.00,,Mostly Cloudy
3464,2016-07-13,8:51 PM,75.9,,71.1,85%,30.04,10.0,SSE,9.2,,N/A,,Mostly Cloudy
3465,2016-07-13,9:51 PM,73.9,,71.1,91%,30.03,10.0,SE,9.2,,N/A,,Mostly Cloudy
3466,2016-07-13,10:51 PM,73.9,,70.0,87%,30.02,10.0,SE,8.1,,N/A,,Mostly Cloudy
3467,2016-07-13,11:41 PM,73.9,,70.0,87%,30.02,10.0,SSE,10.4,,N/A,,Overcast
3468,2016-07-13,11:51 PM,75.0,,70.0,84%,30.01,10.0,SSE,9.2,,N/A,,Overcast
3469,2016-07-14,12:51 AM,75.0,,70.0,84%,30.00,10.0,SSE,10.4,,N/A,,Overcast
3470,2016-07-14,1:51 AM,75.0,,71.1,87%,30.01,10.0,SSE,10.4,,N/A,,Overcast
3471,2016-07-14,2:51 AM,75.0,,73.0,94%,29.99,10.0,South,10.4,,N/A,,Overcast
3472,2016-07-14,3:51 AM,75.0,,73.0,94%,29.98,10.0,South,10.4,,0.00,,Overcast
3473,2016-07-14,4:51 AM,75.0,,73.0,94%,29.98,10.0,South,11.5,,N/A,,Overcast
3474,2016-07-14,5:51 AM,75.0,,73.0,94%,29.95,10.0,SSE,9.2,,N/A,,Scattered Clouds
3475,2016-07-14,6:45 AM,75.2,,73.4,94%,29.94,7.0,SSE,10.4,,N/A,,Mostly Cloudy
3476,2016-07-14,6:51 AM,75.0,,73.0,94%,29.95,7.0,SSE,11.5,,N/A,,Mostly Cloudy
3477,2016-07-14,7:51 AM,75.9,,73.0,91%,29.94,7.0,South,12.7,,N/A,,Overcast
3478,2016-07-14,8:35 AM,77.0,,73.9,90%,29.95,3.0,South,11.5,,N/A,,Overcast
3479,2016-07-14,8:51 AM,77.0,,73.9,90%,29.95,3.0,South,11.5,,N/A,,Mostly Cloudy
3480,2016-07-14,9:51 AM,80.1,85.1,75.0,85%,29.94,7.0,SSW,10.4,,N/A,,Scattered Clouds
3481,2016-07-14,10:51 AM,81.0,87.3,75.9,85%,29.94,10.0,South,10.4,,N/A,,Scattered Clouds
3482,2016-07-14,11:51 AM,80.1,85.4,75.9,87%,29.93,9.0,SSW,11.5,,N/A,Fog,Scattered Clouds
3483,2016-07-14,12:51 PM,82.0,90.2,77.0,85%,29.91,10.0,South,12.7,,N/A,,Mostly Cloudy
3484,2016-07-14,1:51 PM,82.0,90.2,77.0,85%,29.88,10.0,South,10.4,,N/A,,Scattered Clouds
3485,2016-07-14,2:51 PM,84.0,93.7,77.0,79%,29.85,10.0,South,12.7,,N/A,,Partly Cloudy
3486,2016-07-14,3:51 PM,84.9,93.3,75.0,72%,29.83,10.0,South,19.6,27.6,N/A,,Scattered Clouds
3487,2016-07-14,4:25 PM,82.0,88.6,75.0,79%,29.82,10.0,South,18.4,,N/A,Thunderstorm,Thunderstorm
3488,2016-07-14,4:41 PM,81.0,86.7,75.0,82%,29.85,10.0,NW,17.3,23.0,0.00,"Ra
	,
Thunderstorm",Light Thunderstorms and Ra
3489,2016-07-14,4:51 PM,75.9,,73.9,94%,29.84,4.0,Calm,Calm,,0.09,"Ra
	,
Thunderstorm",Heavy Thunderstorms and Ra
3490,2016-07-14,5:18 PM,79.0,,75.0,88%,29.80,10.0,South,5.8,,0.19,,Scattered Clouds
3491,2016-07-14,5:51 PM,81.0,87.9,77.0,88%,29.81,10.0,ESE,8.1,,0.19,,Scattered Clouds
3492,2016-07-14,6:51 PM,82.0,87.9,73.9,76%,29.81,10.0,SSE,6.9,,N/A,,Partly Cloudy
3493,2016-07-14,7:51 PM,81.0,86.7,75.0,82%,29.82,10.0,Calm,Calm,,N/A,,Partly Cloudy
3494,2016-07-14,8:51 PM,80.1,84.5,73.9,81%,29.82,10.0,ESE,4.6,,N/A,,Partly Cloudy
3495,2016-07-14,9:51 PM,78.1,,73.9,87%,29.84,10.0,East,3.5,,N/A,,Partly Cloudy
3496,2016-07-14,10:51 PM,78.1,,73.9,87%,29.84,10.0,Calm,Calm,,N/A,,Partly Cloudy
3497,2016-07-14,11:51 PM,79.0,,73.9,84%,29.83,10.0,South,6.9,,N/A,,Clear
3498,2016-07-15,12:51 AM,79.0,,73.0,82%,29.83,10.0,SSW,5.8,,N/A,,Partly Cloudy
3499,2016-07-15,1:51 AM,79.0,,73.0,82%,29.83,10.0,SW,6.9,,N/A,,Scattered Clouds
3500,2016-07-15,2:51 AM,79.0,,73.0,82%,29.83,10.0,SW,8.1,,N/A,,Scattered Clouds
3501,2016-07-15,3:51 AM,77.0,,73.9,90%,29.83,10.0,WSW,6.9,,N/A,,Scattered Clouds
3502,2016-07-15,4:51 AM,79.0,,73.9,84%,29.84,10.0,West,9.2,,N/A,,Partly Cloudy
3503,2016-07-15,5:51 AM,80.1,84.5,73.9,81%,29.85,10.0,West,10.4,,N/A,,Scattered Clouds
3504,2016-07-15,6:51 AM,81.0,86.7,75.0,82%,29.86,10.0,WSW,5.8,,N/A,,Scattered Clouds
3505,2016-07-15,7:51 AM,84.0,91.9,75.0,74%,29.88,10.0,West,6.9,,N/A,,Partly Cloudy
3506,2016-07-15,8:51 AM,86.0,92.2,72.0,63%,29.89,10.0,WSW,6.9,,N/A,,Partly Cloudy
3507,2016-07-15,9:51 AM,88.0,93.8,71.1,57%,29.88,10.0,SW,6.9,,N/A,,Partly Cloudy
3508,2016-07-15,10:51 AM,90.0,94.5,69.1,50%,29.88,10.0,SW,6.9,,N/A,,Scattered Clouds
3509,2016-07-15,11:51 AM,88.0,93.8,71.1,57%,29.88,10.0,SSW,9.2,,N/A,,Mostly Cloudy
3510,2016-07-15,12:51 PM,88.0,91.4,68.0,51%,29.88,10.0,SW,10.4,,N/A,,Mostly Cloudy
3511,2016-07-15,1:51 PM,90.0,96.4,71.1,54%,29.87,10.0,SW,13.8,,N/A,,Mostly Cloudy
3512,2016-07-15,2:51 PM,89.1,93.7,69.1,52%,29.87,10.0,SW,17.3,,N/A,,Mostly Cloudy
3513,2016-07-15,3:51 PM,89.1,93.7,69.1,52%,29.86,10.0,SW,18.4,,N/A,,Mostly Cloudy
3514,2016-07-15,4:51 PM,87.1,92.0,70.0,57%,29.86,10.0,SW,18.4,,N/A,,Mostly Cloudy
3515,2016-07-15,5:51 PM,89.1,91.3,66.0,46%,29.85,10.0,SW,18.4,,N/A,,Mostly Cloudy
3516,2016-07-15,6:51 PM,86.0,88.2,66.0,51%,29.85,10.0,SW,15.0,,N/A,,Mostly Cloudy
3517,2016-07-15,7:51 PM,86.0,87.6,64.9,49%,29.86,10.0,WSW,13.8,,N/A,,Mostly Cloudy
3518,2016-07-15,8:51 PM,84.0,85.8,64.9,53%,29.88,10.0,SW,11.5,,N/A,,Scattered Clouds
3519,2016-07-15,9:51 PM,82.9,84.4,64.0,53%,29.91,10.0,SW,12.7,,N/A,,Partly Cloudy
3520,2016-07-15,10:51 PM,82.0,84.5,66.9,60%,29.93,10.0,SW,12.7,,N/A,,Partly Cloudy
3521,2016-07-15,11:51 PM,80.1,83.6,71.1,74%,29.94,10.0,WSW,12.7,,N/A,,Partly Cloudy
3522,2016-07-16,12:51 AM,80.1,83.6,71.1,74%,29.94,10.0,West,11.5,,N/A,,Partly Cloudy
3523,2016-07-16,1:51 AM,81.0,84.1,69.1,67%,29.94,10.0,West,11.5,,N/A,,Scattered Clouds
3524,2016-07-16,2:51 AM,80.1,82.9,69.1,69%,29.93,10.0,West,8.1,,N/A,,Scattered Clouds
3525,2016-07-16,3:51 AM,80.1,82.7,68.0,67%,29.94,10.0,West,8.1,,N/A,,Scattered Clouds
3526,2016-07-16,4:51 AM,79.0,,66.9,66%,29.94,10.0,WNW,5.8,,N/A,,Scattered Clouds
3527,2016-07-16,5:51 AM,78.1,,64.0,62%,29.97,10.0,NNW,4.6,,N/A,,Scattered Clouds
3528,2016-07-16,6:51 AM,79.0,,63.0,58%,29.99,10.0,NNE,4.6,,N/A,,Scattered Clouds
3529,2016-07-16,7:51 AM,81.0,82.2,63.0,54%,30.01,10.0,NNE,6.9,,N/A,,Scattered Clouds
3530,2016-07-16,8:51 AM,84.0,84.9,63.0,49%,30.02,10.0,NE,5.8,,N/A,,Mostly Cloudy
3531,2016-07-16,9:51 AM,84.9,85.9,63.0,48%,30.03,10.0,East,5.8,,N/A,,Mostly Cloudy
3532,2016-07-16,10:51 AM,87.1,88.3,64.0,46%,30.04,10.0,Variable,6.9,,N/A,,Mostly Cloudy
3533,2016-07-16,11:51 AM,88.0,90.3,66.0,48%,30.04,10.0,ESE,10.4,,N/A,,Mostly Cloudy
3534,2016-07-16,12:51 PM,86.0,87.6,64.9,49%,30.04,10.0,SE,12.7,,N/A,,Mostly Cloudy
3535,2016-07-16,1:51 PM,86.0,87.6,64.9,49%,30.04,10.0,South,10.4,,N/A,,Mostly Cloudy
3536,2016-07-16,2:51 PM,87.1,87.5,62.1,43%,30.02,10.0,South,9.2,,N/A,,Mostly Cloudy
3537,2016-07-16,3:51 PM,82.9,85.8,68.0,60%,30.03,10.0,South,13.8,,N/A,,Mostly Cloudy
3538,2016-07-16,4:32 PM,78.1,,71.1,79%,30.05,7.0,WSW,16.1,,0.00,"Ra
	,
Thunderstorm",Light Thunderstorms and Ra
3539,2016-07-16,4:51 PM,75.9,,70.0,82%,30.04,3.0,West,10.4,,0.05,"Ra
	,
Thunderstorm",Light Thunderstorms and Ra
3540,2016-07-16,5:15 PM,79.0,,69.1,72%,30.02,8.0,SSE,8.1,,0.01,Ra,Light Ra
3541,2016-07-16,5:51 PM,78.1,,70.0,76%,30.04,10.0,South,16.1,,0.02,Ra,Light Ra
3542,2016-07-16,6:51 PM,78.1,,68.0,71%,30.04,10.0,South,17.3,,0.00,,Mostly Cloudy
3543,2016-07-16,7:51 PM,78.1,,68.0,71%,30.04,10.0,SW,11.5,,N/A,,Mostly Cloudy
3544,2016-07-16,8:51 PM,77.0,,66.9,71%,30.05,10.0,WSW,9.2,,N/A,,Mostly Cloudy
3545,2016-07-16,9:51 PM,78.1,,66.0,66%,30.06,10.0,WSW,6.9,,N/A,,Overcast
3546,2016-07-16,10:51 PM,77.0,,69.1,76%,30.07,10.0,SSW,9.2,,N/A,,Overcast
3547,2016-07-16,11:51 PM,75.0,,69.1,82%,30.08,10.0,South,5.8,,N/A,,Mostly Cloudy
3548,2016-07-17,12:51 AM,75.9,,69.1,79%,30.06,10.0,WSW,6.9,,N/A,,Mostly Cloudy
3549,2016-07-17,1:51 AM,75.9,,66.0,71%,30.05,10.0,NW,5.8,,N/A,,Mostly Cloudy
3550,2016-07-17,2:51 AM,75.0,,69.1,82%,30.06,10.0,South,3.5,,N/A,,Overcast
3551,2016-07-17,3:51 AM,73.0,,69.1,87%,30.06,10.0,SSW,3.5,,N/A,,Mostly Cloudy
3552,2016-07-17,4:51 AM,73.9,,68.0,82%,30.07,10.0,SSW,5.8,,N/A,,Mostly Cloudy
3553,2016-07-17,5:51 AM,73.9,,70.0,87%,30.09,10.0,SW,4.6,,N/A,,Mostly Cloudy
3554,2016-07-17,6:51 AM,75.0,,68.0,79%,30.10,10.0,SW,5.8,,N/A,,Mostly Cloudy
3555,2016-07-17,7:51 AM,77.0,,70.0,79%,30.10,10.0,SSW,5.8,,N/A,,Mostly Cloudy
3556,2016-07-17,8:51 AM,75.9,,70.0,82%,30.11,10.0,WSW,8.1,,N/A,,Mostly Cloudy
3557,2016-07-17,9:51 AM,81.0,84.1,69.1,67%,30.10,10.0,West,4.6,,N/A,,Scattered Clouds
3558,2016-07-17,10:51 AM,82.9,85.8,68.0,60%,30.12,10.0,SSW,5.8,,N/A,,Scattered Clouds
3559,2016-07-17,11:51 AM,84.9,87.6,66.9,55%,30.11,10.0,SW,6.9,,N/A,,Scattered Clouds
3560,2016-07-17,12:51 PM,86.0,90.1,69.1,57%,30.11,10.0,SSW,11.5,,N/A,,Mostly Cloudy
3561,2016-07-17,1:51 PM,87.1,91.3,69.1,55%,30.09,10.0,SSW,13.8,,N/A,,Mostly Cloudy
3562,2016-07-17,2:51 PM,84.9,88.8,69.1,59%,30.09,10.0,South,15.0,,N/A,,Scattered Clouds
3563,2016-07-17,3:51 PM,84.0,88.4,70.0,63%,30.09,10.0,South,17.3,,N/A,,Scattered Clouds
3564,2016-07-17,4:51 PM,82.9,87.0,70.0,65%,30.08,10.0,South,18.4,,N/A,,Scattered Clouds
3565,2016-07-17,5:51 PM,82.9,88.0,72.0,69%,30.08,10.0,South,15.0,,N/A,,Scattered Clouds
3566,2016-07-17,6:51 PM,80.1,84.5,73.9,81%,30.08,10.0,South,13.8,,N/A,,Mostly Cloudy
3567,2016-07-17,7:51 PM,80.1,84.5,73.9,81%,30.09,10.0,South,10.4,,N/A,,Mostly Cloudy
3568,2016-07-17,8:51 PM,79.0,,73.0,82%,30.09,10.0,SSW,6.9,,N/A,,Mostly Cloudy
3569,2016-07-17,9:51 PM,78.1,,72.0,81%,30.11,10.0,SSW,6.9,,N/A,,Mostly Cloudy
3570,2016-07-17,10:51 PM,77.0,,72.0,84%,30.11,10.0,SSW,5.8,,N/A,,Scattered Clouds
3571,2016-07-17,11:51 PM,77.0,,70.0,79%,30.11,10.0,SSW,5.8,,N/A,,Scattered Clouds
3572,2016-07-18,12:51 AM,75.9,,70.0,82%,30.12,10.0,SW,6.9,,N/A,,Mostly Cloudy
3573,2016-07-18,1:51 AM,75.9,,70.0,82%,30.11,10.0,SW,8.1,,N/A,,Mostly Cloudy
3574,2016-07-18,2:51 AM,78.1,,70.0,76%,30.12,10.0,WSW,12.7,,N/A,,Scattered Clouds
3575,2016-07-18,3:51 AM,77.0,,70.0,79%,30.11,10.0,SW,10.4,,N/A,,Scattered Clouds
3576,2016-07-18,4:51 AM,73.9,,70.0,87%,30.11,10.0,SW,8.1,,N/A,,Scattered Clouds
3577,2016-07-18,5:51 AM,75.0,,70.0,84%,30.11,10.0,SW,8.1,,N/A,,Scattered Clouds
3578,2016-07-18,6:51 AM,75.9,,71.1,85%,30.11,10.0,SW,9.2,,N/A,,Mostly Cloudy
3579,2016-07-18,7:51 AM,78.1,,72.0,81%,30.11,10.0,SW,10.4,,N/A,,Scattered Clouds
3580,2016-07-18,8:51 AM,81.0,85.8,73.0,77%,30.10,10.0,WSW,12.7,,N/A,,Scattered Clouds
3581,2016-07-18,9:51 AM,82.9,87.5,71.1,67%,30.09,10.0,SW,17.3,,N/A,,Mostly Cloudy
3582,2016-07-18,10:51 AM,86.0,91.5,71.1,61%,30.09,10.0,SSW,10.4,,N/A,,Scattered Clouds
3583,2016-07-18,11:51 AM,89.1,93.7,69.1,52%,30.09,10.0,SSW,12.7,,N/A,,Scattered Clouds
3584,2016-07-18,12:51 PM,89.1,94.1,70.0,53%,30.07,10.0,South,13.8,,N/A,,Mostly Cloudy
3585,2016-07-18,1:51 PM,88.0,94.7,72.0,59%,30.05,10.0,South,16.1,,N/A,,Mostly Cloudy
3586,2016-07-18,2:51 PM,86.0,92.2,72.0,63%,30.02,10.0,South,16.1,,N/A,,Mostly Cloudy
3587,2016-07-18,3:51 PM,84.9,91.4,73.0,67%,30.01,10.0,South,13.8,,N/A,,Mostly Cloudy
3588,2016-07-18,4:51 PM,82.9,88.8,73.0,72%,30.01,10.0,South,11.5,,N/A,,Overcast
3589,2016-07-18,5:02 PM,82.0,87.9,73.9,76%,30.03,10.0,South,11.5,,0.00,"Ra
	,
Thunderstorm",Light Thunderstorms and Ra
3590,2016-07-18,5:15 PM,75.9,,73.0,91%,30.04,2.0,West,23.0,43.7,0.02,"Ra
	,
Thunderstorm",Heavy Thunderstorms and Ra
3591,2016-07-18,5:32 PM,75.0,,73.0,94%,30.05,5.0,SW,10.4,,0.17,"Ra
	,
Thunderstorm",Light Thunderstorms and Ra
3592,2016-07-18,5:47 PM,75.2,,69.8,83%,30.02,9.0,WSW,4.6,,0.17,Ra,Light Ra
3593,2016-07-18,5:51 PM,75.9,,70.0,82%,30.02,10.0,Calm,Calm,,0.17,Ra,Light Ra
3594,2016-07-18,6:51 PM,81.0,84.9,71.1,72%,30.01,10.0,West,5.8,,0.01,,Mostly Cloudy
3595,2016-07-18,7:51 PM,78.1,,73.0,84%,30.01,10.0,SW,9.2,,0.00,Ra,Light Ra
3596,2016-07-18,8:51 PM,78.1,,73.0,84%,30.01,10.0,SSW,10.4,,0.00,,Mostly Cloudy
3597,2016-07-18,9:51 PM,77.0,,70.0,79%,30.02,10.0,SW,11.5,,N/A,,Mostly Cloudy
3598,2016-07-18,10:51 PM,77.0,,71.1,82%,30.04,10.0,West,9.2,,N/A,,Mostly Cloudy
3599,2016-07-18,11:51 PM,75.9,,72.0,87%,30.02,10.0,WSW,11.5,,N/A,,Mostly Cloudy
3600,2016-07-19,12:51 AM,75.9,,71.1,85%,30.01,10.0,WSW,8.1,,N/A,,Mostly Cloudy
3601,2016-07-19,1:51 AM,75.9,,71.1,85%,30.00,10.0,West,9.2,,N/A,,Overcast
3602,2016-07-19,2:51 AM,77.0,,71.1,82%,30.02,10.0,West,10.4,,N/A,,Overcast
3603,2016-07-19,3:51 AM,77.0,,70.0,79%,30.02,10.0,NW,5.8,,N/A,,Mostly Cloudy
3604,2016-07-19,4:51 AM,77.0,,64.0,64%,30.04,10.0,NNW,13.8,,N/A,,Mostly Cloudy
3605,2016-07-19,5:51 AM,75.9,,57.9,54%,30.06,10.0,NNW,15.0,21.9,N/A,,Mostly Cloudy
3606,2016-07-19,6:51 AM,75.9,,57.0,52%,30.07,10.0,NNW,10.4,,N/A,,Scattered Clouds
3607,2016-07-19,7:51 AM,78.1,,55.9,46%,30.09,10.0,NNW,19.6,24.2,N/A,,Mostly Cloudy
3608,2016-07-19,8:51 AM,80.1,80.1,55.0,42%,30.10,10.0,NW,13.8,,N/A,,Mostly Cloudy
3609,2016-07-19,9:51 AM,80.1,80.1,55.0,42%,30.10,10.0,NNW,13.8,,N/A,,Scattered Clouds
3610,2016-07-19,10:51 AM,82.0,81.2,53.1,37%,30.11,10.0,WNW,16.1,,N/A,,Scattered Clouds
3611,2016-07-19,11:51 AM,84.0,,51.1,32%,30.11,10.0,West,16.1,32.2,N/A,,Partly Cloudy
3612,2016-07-19,12:51 PM,84.0,,48.9,29%,30.10,10.0,WNW,17.3,28.8,N/A,,Partly Cloudy
3613,2016-07-19,1:51 PM,84.0,,48.9,29%,30.09,10.0,NW,18.4,28.8,N/A,,Scattered Clouds
3614,2016-07-19,2:51 PM,84.0,,50.0,31%,30.09,10.0,NW,12.7,25.3,N/A,,Scattered Clouds
3615,2016-07-19,3:51 PM,84.0,,48.0,28%,30.09,10.0,WNW,19.6,27.6,N/A,,Mostly Cloudy
3616,2016-07-19,4:51 PM,84.0,,46.9,27%,30.09,10.0,West,20.7,25.3,N/A,,Scattered Clouds
3617,2016-07-19,5:51 PM,82.9,,46.0,27%,30.08,10.0,NW,15.0,21.9,N/A,,Scattered Clouds
3618,2016-07-19,6:51 PM,82.9,,45.0,26%,30.08,10.0,NNW,15.0,,N/A,,Scattered Clouds
3619,2016-07-19,7:51 PM,81.0,,46.9,30%,30.11,10.0,NNE,12.7,,N/A,,Mostly Cloudy
3620,2016-07-19,8:51 PM,80.1,,46.0,30%,30.13,10.0,North,10.4,,N/A,,Mostly Cloudy
3621,2016-07-19,9:51 PM,78.1,,50.0,37%,30.15,10.0,NE,8.1,,N/A,,Mostly Cloudy
3622,2016-07-19,10:51 PM,77.0,,48.9,37%,30.16,10.0,North,6.9,,N/A,,Mostly Cloudy
3623,2016-07-19,11:51 PM,75.9,,50.0,40%,30.17,10.0,North,8.1,,N/A,,Scattered Clouds
3624,2016-07-21,12:51 AM,73.0,,64.0,73%,30.19,10.0,WSW,11.5,,N/A,,Partly Cloudy
3625,2016-07-21,1:51 AM,71.1,,64.0,78%,30.18,10.0,SW,9.2,,N/A,,Partly Cloudy
3626,2016-07-21,2:51 AM,71.1,,64.0,78%,30.17,10.0,WSW,6.9,,N/A,,Partly Cloudy
3627,2016-07-21,3:51 AM,71.1,,64.0,78%,30.16,10.0,West,6.9,,N/A,,Partly Cloudy
3628,2016-07-21,4:51 AM,71.1,,64.0,78%,30.17,10.0,WSW,8.1,,N/A,,Clear
3629,2016-07-21,5:51 AM,72.0,,64.9,78%,30.17,10.0,West,5.8,,N/A,,Partly Cloudy
3630,2016-07-21,6:51 AM,73.9,,66.0,76%,30.19,10.0,West,9.2,,N/A,,Partly Cloudy
3631,2016-07-21,7:51 AM,77.0,,64.9,66%,30.18,10.0,West,9.2,,N/A,,Partly Cloudy
3632,2016-07-21,8:51 AM,79.0,,64.0,60%,30.17,10.0,WSW,8.1,,N/A,,Partly Cloudy
3633,2016-07-21,9:51 AM,81.0,82.2,63.0,54%,30.16,10.0,SSW,8.1,,N/A,,Partly Cloudy
3634,2016-07-21,10:51 AM,81.0,82.7,64.9,58%,30.16,10.0,South,9.2,,N/A,,Partly Cloudy
3635,2016-07-21,11:51 AM,82.9,83.3,61.0,47%,30.16,10.0,South,13.8,,N/A,,Partly Cloudy
3636,2016-07-21,12:51 PM,82.9,85.0,66.0,56%,30.14,10.0,South,12.7,,N/A,,Partly Cloudy
3637,2016-07-21,1:51 PM,84.0,86.3,66.0,55%,30.13,10.0,South,16.1,,N/A,,Partly Cloudy
3638,2016-07-21,2:51 PM,82.9,85.4,66.9,58%,30.13,10.0,South,18.4,,N/A,,Partly Cloudy
3639,2016-07-21,3:51 PM,82.9,84.4,64.0,53%,30.10,10.0,South,20.7,27.6,N/A,,Scattered Clouds
3640,2016-07-21,4:51 PM,82.0,83.1,63.0,52%,30.09,10.0,South,23.0,27.6,N/A,,Scattered Clouds
3641,2016-07-21,5:51 PM,81.0,82.2,63.0,54%,30.08,10.0,South,24.2,31.1,N/A,,Mostly Cloudy
3642,2016-07-21,6:51 PM,79.0,,63.0,58%,30.06,10.0,South,21.9,,N/A,,Mostly Cloudy
3643,2016-07-21,7:51 PM,77.0,,64.9,66%,30.06,10.0,South,24.2,31.1,N/A,,Mostly Cloudy
3644,2016-07-21,8:51 PM,75.9,,69.1,79%,30.06,10.0,South,24.2,,N/A,,Mostly Cloudy
3645,2016-07-21,9:51 PM,75.9,,69.1,79%,30.07,10.0,SSW,18.4,,N/A,,Mostly Cloudy
3646,2016-07-21,10:51 PM,75.9,,66.9,74%,30.07,10.0,SSW,15.0,,N/A,,Mostly Cloudy
3647,2016-07-21,11:51 PM,75.0,,66.9,76%,30.06,10.0,SW,15.0,,N/A,,Mostly Cloudy
3648,2016-07-22,12:51 AM,73.9,,69.1,85%,30.04,10.0,SW,13.8,,N/A,,Mostly Cloudy
3649,2016-07-22,1:51 AM,73.9,,69.1,85%,30.03,10.0,SW,12.7,,N/A,,Mostly Cloudy
3650,2016-07-22,2:51 AM,73.9,,70.0,87%,30.04,10.0,SW,12.7,,N/A,,Mostly Cloudy
3651,2016-07-22,3:51 AM,73.0,,69.1,87%,30.01,10.0,SW,12.7,,N/A,,Scattered Clouds
3652,2016-07-22,4:51 AM,73.0,,69.1,87%,30.01,10.0,SW,10.4,,N/A,,Scattered Clouds
3653,2016-07-22,5:51 AM,73.0,,69.1,87%,30.00,10.0,SSW,8.1,,N/A,,Mostly Cloudy
3654,2016-07-22,6:51 AM,73.9,,69.1,85%,30.00,10.0,SSW,9.2,,N/A,,Mostly Cloudy
3655,2016-07-22,7:51 AM,75.9,,69.1,79%,29.99,10.0,SSW,11.5,,N/A,,Mostly Cloudy
3656,2016-07-22,8:51 AM,79.0,,71.1,77%,29.98,10.0,WSW,15.0,,N/A,,Mostly Cloudy
3657,2016-07-22,9:51 AM,81.0,84.4,70.0,69%,29.96,10.0,SW,17.3,,N/A,,Mostly Cloudy
3658,2016-07-22,10:51 AM,84.0,87.0,68.0,58%,29.95,10.0,SW,17.3,,N/A,,Mostly Cloudy
3659,2016-07-22,11:51 AM,88.0,91.4,68.0,51%,29.94,10.0,SW,16.1,,N/A,,Mostly Cloudy
3660,2016-07-22,12:51 PM,88.0,92.1,69.1,53%,29.91,10.0,SSW,13.8,,N/A,,Scattered Clouds
3661,2016-07-22,1:51 PM,88.0,92.9,70.0,55%,29.90,10.0,South,16.1,,N/A,,Partly Cloudy
3662,2016-07-22,2:51 PM,89.1,94.1,70.0,53%,29.88,10.0,SSW,13.8,,N/A,,Partly Cloudy
3663,2016-07-22,3:51 PM,88.0,92.9,70.0,55%,29.85,10.0,South,15.0,,N/A,,Partly Cloudy
3664,2016-07-22,4:51 PM,88.0,92.9,70.0,55%,29.83,10.0,South,15.0,,N/A,,Scattered Clouds
3665,2016-07-22,5:51 PM,84.9,89.4,70.0,61%,29.82,10.0,South,20.7,,N/A,,Scattered Clouds
3666,2016-07-22,6:51 PM,82.9,87.5,71.1,67%,29.81,10.0,SSW,15.0,,N/A,,Partly Cloudy
3667,2016-07-22,7:51 PM,82.9,87.0,70.0,65%,29.81,10.0,South,13.8,,N/A,,Partly Cloudy
3668,2016-07-22,8:51 PM,84.0,87.8,69.1,61%,29.81,10.0,SW,16.1,,N/A,,Partly Cloudy
3669,2016-07-22,9:51 PM,84.0,87.0,68.0,58%,29.83,10.0,SW,16.1,,N/A,,Partly Cloudy
3670,2016-07-22,10:51 PM,80.1,82.9,69.1,69%,29.83,10.0,SSW,15.0,,N/A,,Partly Cloudy
3671,2016-07-22,11:51 PM,78.1,,72.0,81%,29.83,10.0,SSW,9.2,,N/A,,Partly Cloudy
3672,2016-07-23,12:51 AM,78.1,,73.9,87%,29.83,10.0,SW,5.8,,N/A,,Partly Cloudy
3673,2016-07-23,1:51 AM,82.0,87.9,73.9,76%,29.83,10.0,West,9.2,,N/A,,Partly Cloudy
3674,2016-07-23,2:51 AM,82.0,85.5,69.1,65%,29.83,10.0,West,9.2,,N/A,,Partly Cloudy
3675,2016-07-23,3:51 AM,80.1,82.9,69.1,69%,29.83,10.0,West,6.9,,N/A,,Partly Cloudy
3676,2016-07-23,4:51 AM,78.1,,71.1,79%,29.83,10.0,WSW,9.2,,N/A,,Partly Cloudy
3677,2016-07-23,5:51 AM,82.9,83.7,62.1,49%,29.85,10.0,NW,11.5,,N/A,,Partly Cloudy
3678,2016-07-23,6:51 AM,84.0,84.5,62.1,47%,29.86,10.0,WNW,12.7,,N/A,,Partly Cloudy
3679,2016-07-23,7:51 AM,86.0,86.8,63.0,46%,29.87,10.0,West,12.7,,N/A,,Partly Cloudy
3680,2016-07-23,8:51 AM,88.0,88.4,62.1,42%,29.87,10.0,WNW,12.7,,N/A,,Clear
3681,2016-07-23,9:51 AM,90.0,90.3,62.1,39%,29.86,10.0,West,13.8,20.7,N/A,,Partly Cloudy
3682,2016-07-23,10:51 AM,93.0,91.4,55.9,29%,29.86,10.0,West,13.8,,N/A,,Partly Cloudy
3683,2016-07-23,11:51 AM,93.9,93.6,60.1,32%,29.85,10.0,WSW,16.1,,N/A,,Partly Cloudy
3684,2016-07-23,12:51 PM,95.0,93.4,55.9,27%,29.84,10.0,WSW,15.0,,N/A,,Partly Cloudy
3685,2016-07-23,1:51 PM,96.1,93.8,54.0,24%,29.83,10.0,West,18.4,25.3,N/A,,Scattered Clouds
3686,2016-07-23,2:51 PM,97.0,95.3,55.9,25%,29.83,10.0,WSW,15.0,,N/A,,Partly Cloudy
3687,2016-07-23,3:51 PM,97.0,95.0,55.0,24%,29.83,10.0,WSW,13.8,25.3,N/A,,Scattered Clouds
3688,2016-07-23,4:51 PM,97.0,95.3,55.9,25%,29.81,10.0,West,17.3,,N/A,,Scattered Clouds
3689,2016-07-23,5:51 PM,96.1,94.5,55.9,26%,29.78,10.0,WSW,13.8,,N/A,,Partly Cloudy
3690,2016-07-23,6:51 PM,95.0,93.0,55.0,26%,29.80,10.0,West,17.3,,N/A,,Scattered Clouds
3691,2016-07-23,7:51 PM,93.9,92.0,55.0,27%,29.82,10.0,West,15.0,,N/A,,Scattered Clouds
3692,2016-07-23,8:51 PM,93.0,91.4,55.9,29%,29.84,10.0,NW,12.7,,N/A,,Mostly Cloudy
3693,2016-07-23,9:03 PM,93.0,,46.9,20%,29.84,10.0,NNW,16.1,20.7,N/A,,Mostly Cloudy
3694,2016-07-23,9:51 PM,89.1,,52.0,28%,29.86,10.0,North,10.4,,N/A,,Scattered Clouds
3695,2016-07-23,10:51 PM,88.0,,52.0,29%,29.88,10.0,NNW,9.2,,N/A,,Clear
3696,2016-07-23,11:51 PM,86.0,84.0,53.1,32%,29.89,10.0,North,9.2,,N/A,,Clear
3697,2016-07-24,12:51 AM,82.9,82.0,55.0,38%,29.92,10.0,North,6.9,,N/A,,Clear
3698,2016-07-24,1:51 AM,81.0,80.8,55.9,42%,29.93,10.0,NNE,8.1,,N/A,,Partly Cloudy
3699,2016-07-24,2:51 AM,75.9,,57.0,52%,29.94,10.0,NE,5.8,,N/A,,Partly Cloudy
3700,2016-07-24,3:51 AM,75.9,,57.9,54%,29.94,10.0,NE,4.6,,N/A,,Clear
3701,2016-07-24,4:51 AM,75.0,,57.9,55%,29.95,10.0,NE,8.1,,N/A,,Clear
3702,2016-07-24,5:51 AM,73.9,,59.0,59%,29.96,10.0,North,6.9,,N/A,,Partly Cloudy
3703,2016-07-24,6:51 AM,78.1,,60.1,54%,29.98,10.0,North,4.6,,N/A,,Scattered Clouds
3704,2016-07-24,7:51 AM,81.0,81.3,59.0,47%,29.99,10.0,North,9.2,,N/A,,Scattered Clouds
3705,2016-07-24,8:51 AM,82.0,82.1,59.0,45%,29.99,10.0,NNW,8.1,,N/A,,Mostly Cloudy
3706,2016-07-24,9:51 AM,86.0,85.4,59.0,40%,29.99,10.0,North,6.9,,N/A,,Mostly Cloudy
3707,2016-07-24,10:51 AM,88.0,86.9,57.9,36%,29.99,10.0,West,5.8,,N/A,,Mostly Cloudy
3708,2016-07-24,11:51 AM,89.1,88.8,60.1,38%,29.98,10.0,South,11.5,,N/A,,Mostly Cloudy
3709,2016-07-24,12:51 PM,84.9,85.0,61.0,44%,29.99,10.0,SSE,11.5,,N/A,,Mostly Cloudy
3710,2016-07-24,1:51 PM,86.0,86.1,61.0,43%,29.98,10.0,South,13.8,,N/A,,Mostly Cloudy
3711,2016-07-24,2:51 PM,84.0,84.9,63.0,49%,29.97,10.0,South,19.6,,N/A,,Mostly Cloudy
3712,2016-07-24,3:51 PM,84.0,85.4,64.0,51%,29.96,10.0,South,15.0,,N/A,,Mostly Cloudy
3713,2016-07-24,4:51 PM,82.0,84.1,66.0,58%,29.95,10.0,South,18.4,26.5,N/A,,Mostly Cloudy
3714,2016-07-24,5:51 PM,82.0,83.8,64.9,56%,29.95,10.0,South,21.9,,N/A,,Mostly Cloudy
3715,2016-07-24,6:51 PM,79.0,,68.0,69%,29.95,10.0,South,18.4,,N/A,,Mostly Cloudy
3716,2016-07-24,7:51 PM,78.1,,69.1,74%,29.96,10.0,South,17.3,,N/A,,Mostly Cloudy
3717,2016-07-24,8:51 PM,78.1,,71.1,79%,29.97,10.0,South,12.7,,N/A,,Mostly Cloudy
3718,2016-07-24,9:51 PM,77.0,,71.1,82%,29.98,10.0,South,13.8,,N/A,,Mostly Cloudy
3719,2016-07-24,10:51 PM,75.9,,70.0,82%,29.99,10.0,South,6.9,,N/A,,Mostly Cloudy
3720,2016-07-24,11:51 PM,75.0,,70.0,84%,29.98,10.0,South,5.8,,N/A,,Mostly Cloudy
3721,2016-07-25,12:51 AM,75.0,,70.0,84%,29.97,10.0,South,4.6,,N/A,,Mostly Cloudy
3722,2016-07-25,1:51 AM,75.0,,69.1,82%,29.96,10.0,SSW,8.1,,N/A,,Mostly Cloudy
3723,2016-07-25,2:51 AM,75.9,,68.0,76%,29.95,10.0,SSE,3.5,,N/A,,Mostly Cloudy
3724,2016-07-25,3:51 AM,75.9,,68.0,76%,29.96,10.0,South,5.8,,N/A,,Overcast
3725,2016-07-25,4:51 AM,75.0,,70.0,84%,29.96,8.0,SW,6.9,,0.00,Ra,Light Ra
3726,2016-07-25,5:51 AM,75.0,,70.0,84%,29.96,10.0,SSW,8.1,,0.02,Ra,Light Ra
3727,2016-07-25,6:51 AM,78.1,,72.0,81%,29.96,10.0,SSW,8.1,,0.00,,Overcast
3728,2016-07-25,7:51 AM,78.1,,73.0,84%,29.95,10.0,South,6.9,,N/A,,Mostly Cloudy
3729,2016-07-25,8:51 AM,77.0,,72.0,84%,29.96,10.0,South,13.8,,N/A,,Mostly Cloudy
3730,2016-07-25,9:51 AM,77.0,,71.1,82%,29.96,10.0,South,15.0,,N/A,,Overcast
3731,2016-07-25,10:36 AM,77.0,,70.0,79%,29.96,10.0,SSW,18.4,,N/A,,Mostly Cloudy
3732,2016-07-25,10:51 AM,78.1,,70.0,76%,29.95,10.0,SSW,13.8,24.2,N/A,,Mostly Cloudy
3733,2016-07-25,11:51 AM,82.0,86.3,71.1,69%,29.94,10.0,SSW,16.1,,N/A,,Mostly Cloudy
3734,2016-07-25,12:51 PM,84.0,89.6,72.0,67%,29.92,10.0,South,11.5,,N/A,,Scattered Clouds
3735,2016-07-25,1:51 PM,84.0,89.0,71.1,65%,29.91,10.0,South,9.2,,N/A,,Mostly Cloudy
3736,2016-07-25,2:51 PM,84.0,89.6,72.0,67%,29.88,10.0,SSE,12.7,,N/A,,Mostly Cloudy
3737,2016-07-25,3:51 PM,86.0,93.0,73.0,65%,29.84,10.0,South,12.7,,N/A,,Mostly Cloudy
3738,2016-07-25,4:32 PM,86.0,93.8,73.9,67%,29.85,10.0,SSE,11.5,,N/A,Thunderstorm,Thunderstorm
3739,2016-07-25,4:51 PM,84.9,92.1,73.9,69%,29.85,10.0,ENE,12.7,,N/A,"Ra
	,
Thunderstorm",Light Thunderstorms and Ra
3740,2016-07-25,5:00 PM,79.0,,72.0,79%,29.84,2.0,North,16.1,26.5,N/A,"Ra
	,
Thunderstorm",Heavy Thunderstorms and Ra
3741,2016-07-25,5:46 PM,75.2,,73.4,94%,29.89,4.0,WSW,3.5,,N/A,"Ra
	,
Thunderstorm",Light Thunderstorms and Ra
3742,2016-07-25,5:51 PM,75.2,,73.4,94%,29.89,4.0,WNW,4.6,,N/A,"Ra
	,
Thunderstorm",Light Thunderstorms and Ra
3743,2016-07-25,6:19 PM,75.0,,73.0,94%,29.96,2.0,West,19.6,26.5,0.63,"Ra
	,
Thunderstorm",Heavy Thunderstorms and Ra
3744,2016-07-25,6:41 PM,75.0,,71.1,87%,29.91,3.0,SSE,10.4,,0.92,"Ra
	,
Thunderstorm",Thunderstorms and Ra
3745,2016-07-25,6:51 PM,75.0,,72.0,90%,29.90,5.0,SE,5.8,,0.94,"Ra
	,
Thunderstorm",Light Thunderstorms and Ra
3746,2016-07-25,7:06 PM,75.0,,72.0,90%,29.88,8.0,Variable,4.6,,0.02,"Ra
	,
Thunderstorm",Light Thunderstorms and Ra
3747,2016-07-25,7:27 PM,75.0,,71.1,87%,29.90,10.0,WNW,4.6,,0.03,,Mostly Cloudy
3748,2016-07-25,7:51 PM,75.9,,73.0,91%,29.90,10.0,NNW,5.8,,0.03,,Mostly Cloudy
3749,2016-07-25,8:51 PM,75.0,,71.1,87%,29.89,10.0,SW,10.4,,0.03,Ra,Light Ra
3750,2016-07-25,9:51 PM,73.9,,71.1,91%,29.89,10.0,SSW,11.5,,0.00,,Overcast
3751,2016-07-25,10:51 PM,73.9,,70.0,87%,29.89,10.0,SSW,13.8,,N/A,,Overcast
3752,2016-07-25,11:24 PM,73.9,,72.0,93%,29.89,10.0,SW,15.0,,N/A,,Overcast
3753,2016-07-25,11:51 PM,73.9,,72.0,93%,29.89,10.0,WSW,17.3,,N/A,,Overcast
3754,2016-07-26,12:24 AM,75.0,,72.0,90%,29.88,10.0,WSW,12.7,,N/A,,Scattered Clouds
3755,2016-07-26,12:51 AM,75.0,,72.0,90%,29.87,10.0,West,13.8,,N/A,,Partly Cloudy
3756,2016-07-26,1:51 AM,75.9,,70.0,82%,29.87,10.0,WNW,12.7,,N/A,,Partly Cloudy
3757,2016-07-26,2:51 AM,75.0,,70.0,84%,29.87,10.0,West,13.8,,N/A,,Partly Cloudy
3758,2016-07-26,3:51 AM,75.0,,69.1,82%,29.88,10.0,West,12.7,,N/A,,Clear
3759,2016-07-26,4:51 AM,75.0,,68.0,79%,29.88,10.0,West,12.7,,N/A,,Clear
3760,2016-07-26,5:51 AM,75.0,,68.0,79%,29.89,10.0,West,8.1,,N/A,,Partly Cloudy
3761,2016-07-26,6:51 AM,75.9,,69.1,79%,29.91,10.0,NW,9.2,,N/A,,Scattered Clouds
3762,2016-07-26,7:51 AM,79.0,,69.1,72%,29.92,10.0,NNW,11.5,,N/A,,Scattered Clouds
3763,2016-07-26,8:51 AM,81.0,84.1,69.1,67%,29.92,10.0,NW,10.4,,N/A,,Scattered Clouds
3764,2016-07-26,9:51 AM,84.0,86.3,66.0,55%,29.92,10.0,WNW,6.9,,N/A,,Scattered Clouds
3765,2016-07-26,10:51 AM,87.1,88.9,64.9,48%,29.91,10.0,NW,6.9,,N/A,,Partly Cloudy
3766,2016-07-26,11:51 AM,89.1,89.0,61.0,39%,29.91,10.0,WNW,13.8,23.0,N/A,,Partly Cloudy
3767,2016-07-26,12:51 PM,90.0,90.6,63.0,40%,29.89,10.0,NW,19.6,28.8,N/A,,Scattered Clouds
3768,2016-07-26,1:51 PM,91.0,91.5,62.1,38%,29.88,10.0,WNW,12.7,,N/A,,Mostly Cloudy
3769,2016-07-26,2:51 PM,93.0,94.2,63.0,37%,29.87,10.0,WNW,15.0,20.7,N/A,,Mostly Cloudy
3770,2016-07-26,3:51 PM,90.0,90.0,61.0,38%,29.87,10.0,WNW,10.4,21.9,N/A,,Mostly Cloudy
3771,2016-07-26,4:51 PM,93.0,92.7,60.1,33%,29.86,10.0,WNW,15.0,,N/A,,Mostly Cloudy
3772,2016-07-26,5:51 PM,93.0,92.3,59.0,32%,29.86,10.0,WNW,11.5,,N/A,,Mostly Cloudy
3773,2016-07-26,6:51 PM,91.0,90.0,57.9,33%,29.86,10.0,NW,13.8,,N/A,,Scattered Clouds
3774,2016-07-26,7:51 PM,88.0,87.1,59.0,37%,29.87,10.0,NNW,10.4,,N/A,,Mostly Cloudy
3775,2016-07-26,8:51 PM,86.0,85.7,60.1,41%,29.90,10.0,North,12.7,,N/A,,Mostly Cloudy
3776,2016-07-26,9:51 PM,84.9,84.2,57.9,40%,29.92,10.0,NW,12.7,,N/A,,Mostly Cloudy
3777,2016-07-26,10:51 PM,82.9,82.8,59.0,44%,29.93,10.0,NNW,6.9,,N/A,,Mostly Cloudy
3778,2016-07-26,11:51 PM,82.0,82.1,59.0,45%,29.93,10.0,North,6.9,,N/A,,Mostly Cloudy
3779,2016-07-27,12:51 AM,80.1,81.1,61.0,52%,29.93,10.0,North,6.9,,N/A,,Mostly Cloudy
3780,2016-07-27,1:51 AM,79.0,,61.0,54%,29.94,10.0,North,6.9,,N/A,,Mostly Cloudy
3781,2016-07-27,2:51 AM,77.0,,61.0,58%,29.94,10.0,North,5.8,,N/A,,Scattered Clouds
3782,2016-07-27,3:51 AM,75.9,,61.0,60%,29.94,10.0,North,6.9,,N/A,,Scattered Clouds
3783,2016-07-27,4:51 AM,75.9,,61.0,60%,29.95,10.0,North,5.8,,N/A,,Mostly Cloudy
3784,2016-07-27,5:51 AM,75.9,,60.1,58%,29.95,10.0,North,4.6,,N/A,,Mostly Cloudy
3785,2016-07-27,6:51 AM,75.9,,61.0,60%,29.96,10.0,North,3.5,,N/A,,Mostly Cloudy
3786,2016-07-27,7:51 AM,79.0,,60.1,52%,29.96,10.0,NNE,6.9,,N/A,,Mostly Cloudy
3787,2016-07-27,8:51 AM,82.0,82.4,60.1,47%,29.96,10.0,NE,6.9,,N/A,,Scattered Clouds
3788,2016-07-27,9:51 AM,82.9,83.2,60.1,46%,29.96,10.0,Calm,Calm,,N/A,,Partly Cloudy
3789,2016-07-27,10:51 AM,84.0,84.5,62.1,47%,29.96,10.0,SSW,8.1,,N/A,,Partly Cloudy
3790,2016-07-27,11:51 AM,84.9,85.4,62.1,46%,29.96,10.0,South,10.4,,N/A,,Partly Cloudy
3791,2016-07-27,12:51 PM,84.0,84.9,63.0,49%,29.96,10.0,South,9.2,,N/A,,Partly Cloudy
3792,2016-07-27,1:51 PM,84.9,85.9,63.0,48%,29.94,10.0,South,9.2,,N/A,,Partly Cloudy
3793,2016-07-27,2:51 PM,87.1,87.5,62.1,43%,29.93,10.0,South,9.2,,N/A,,Scattered Clouds
3794,2016-07-27,3:51 PM,86.0,87.6,64.9,49%,29.92,10.0,SSE,12.7,,N/A,,Scattered Clouds
3795,2016-07-27,4:51 PM,84.9,86.1,64.0,49%,29.91,10.0,South,15.0,,N/A,,Partly Cloudy
3796,2016-07-27,5:51 PM,82.9,85.4,66.9,58%,29.90,10.0,South,16.1,,N/A,,Partly Cloudy
3797,2016-07-27,6:51 PM,81.0,83.3,66.9,62%,29.90,10.0,South,10.4,,N/A,,Partly Cloudy
3798,2016-07-27,7:51 PM,80.1,82.7,68.0,67%,29.91,10.0,SSE,5.8,,N/A,,Scattered Clouds
3799,2016-07-27,8:51 PM,78.1,,72.0,81%,29.92,10.0,SE,5.8,,N/A,,Scattered Clouds
3800,2016-07-27,9:51 PM,78.1,,73.0,84%,29.93,10.0,ESE,5.8,,N/A,,Scattered Clouds
3801,2016-07-27,10:51 PM,78.1,,73.9,87%,29.93,10.0,SE,3.5,,N/A,,Partly Cloudy
3802,2016-07-27,11:51 PM,77.0,,73.0,88%,29.92,10.0,ESE,4.6,,N/A,,Partly Cloudy
3803,2016-07-28,12:51 AM,77.0,,73.0,88%,29.91,10.0,SE,4.6,,N/A,,Partly Cloudy
3804,2016-07-28,1:43 AM,75.9,,73.9,94%,29.92,10.0,South,8.1,,N/A,,Partly Cloudy
3805,2016-07-28,1:51 AM,75.9,,73.9,94%,29.92,10.0,South,6.9,,N/A,,Partly Cloudy
3806,2016-07-28,2:51 AM,75.0,,73.0,94%,29.92,9.0,South,5.8,,N/A,,Partly Cloudy
3807,2016-07-28,3:51 AM,75.0,,73.0,94%,29.91,7.0,Calm,Calm,,N/A,,Partly Cloudy
3808,2016-07-28,4:51 AM,73.9,,71.1,91%,29.91,8.0,SSW,5.8,,N/A,,Partly Cloudy
3809,2016-07-28,5:51 AM,75.0,,72.0,90%,29.92,6.0,Calm,Calm,,N/A,,Clear
3810,2016-07-28,6:51 AM,77.0,,73.9,90%,29.92,6.0,South,3.5,,N/A,,Scattered Clouds
3811,2016-07-28,7:51 AM,79.0,,73.9,84%,29.93,6.0,South,3.5,,N/A,,Haze
3812,2016-07-28,8:51 AM,81.0,86.2,73.9,79%,29.93,6.0,South,3.5,,N/A,,Haze
3813,2016-07-28,9:51 AM,84.0,90.2,73.0,69%,29.93,8.0,SSW,9.2,,N/A,,Mostly Cloudy
3814,2016-07-28,10:51 AM,84.9,91.4,73.0,67%,29.93,9.0,South,9.2,,N/A,,Mostly Cloudy
3815,2016-07-28,11:51 AM,84.9,90.7,72.0,65%,29.91,10.0,South,9.2,,N/A,,Mostly Cloudy
3816,2016-07-28,12:51 PM,87.1,92.8,71.1,59%,29.91,10.0,South,10.4,,N/A,,Scattered Clouds
3817,2016-07-28,1:51 PM,86.0,91.5,71.1,61%,29.88,10.0,South,10.4,,N/A,,Partly Cloudy
3818,2016-07-28,2:51 PM,84.9,92.1,73.9,69%,29.88,10.0,SSE,13.8,,N/A,,Mostly Cloudy
3819,2016-07-28,3:51 PM,82.9,88.8,73.0,72%,29.88,10.0,South,16.1,,N/A,,Mostly Cloudy
3820,2016-07-28,4:51 PM,82.9,90.2,75.0,77%,29.87,10.0,South,16.1,,N/A,,Mostly Cloudy
3821,2016-07-28,5:48 PM,80.6,86.2,75.2,84%,29.88,8.0,SSW,15.0,,N/A,,Overcast
3822,2016-07-28,5:51 PM,80.1,85.4,75.9,87%,29.88,8.0,SSW,16.1,,N/A,,Overcast
3823,2016-07-28,6:51 PM,80.1,84.2,73.0,79%,29.89,10.0,SW,10.4,,N/A,,Overcast
3824,2016-07-28,7:51 PM,80.1,82.9,69.1,69%,29.88,10.0,WSW,9.2,,0.00,,Overcast
3825,2016-07-28,8:51 PM,81.0,83.8,68.0,65%,29.88,10.0,West,10.4,,N/A,,Overcast
3826,2016-07-28,9:51 PM,80.1,82.7,68.0,67%,29.88,10.0,WNW,6.9,,0.00,,Overcast
3827,2016-07-28,10:51 PM,80.1,82.3,66.9,64%,29.88,10.0,West,5.8,,0.00,,Overcast
3828,2016-07-28,11:51 PM,81.0,83.0,66.0,60%,29.88,10.0,NW,5.8,,N/A,,Overcast
3829,2016-07-29,12:51 AM,80.1,83.2,70.0,71%,29.87,10.0,NNE,5.8,,0.00,,Overcast
3830,2016-07-29,1:51 AM,77.0,,73.0,88%,29.88,10.0,ENE,5.8,,0.03,Ra,Light Ra
3831,2016-07-29,2:51 AM,75.9,,72.0,87%,29.85,10.0,ENE,5.8,,0.00,,Overcast
3832,2016-07-29,3:51 AM,75.9,,71.1,85%,29.83,7.0,NE,6.9,,0.01,Ra,Light Ra
3833,2016-07-29,4:51 AM,75.0,,72.0,90%,29.83,9.0,NE,9.2,,0.00,,Overcast
3834,2016-07-29,5:19 AM,73.9,,71.1,91%,29.84,6.0,NNE,9.2,,0.01,Ra,Light Ra
3835,2016-07-29,5:51 AM,72.0,,69.1,91%,29.84,6.0,North,13.8,,0.02,Ra,Light Ra
3836,2016-07-29,6:51 AM,72.0,,68.0,87%,29.84,6.0,NNE,12.7,,0.08,Ra,Light Ra
3837,2016-07-29,7:41 AM,71.1,,68.0,90%,29.84,2.5,NNE,12.7,,0.02,Ra,Ra
3838,2016-07-29,7:51 AM,71.1,,68.0,90%,29.85,2.5,NNE,12.7,,0.07,Ra,Ra
3839,2016-07-29,8:51 AM,70.0,,66.9,90%,29.87,3.0,NNE,9.2,,0.35,Ra,Ra
3840,2016-07-29,9:20 AM,70.0,,66.9,90%,29.86,5.0,North,10.4,,0.07,Ra,Light Ra
3841,2016-07-29,9:51 AM,71.1,,66.9,87%,29.85,9.0,NNE,13.8,,0.08,Ra,Light Ra
3842,2016-07-29,10:35 AM,72.0,,68.0,87%,29.85,10.0,NNE,12.7,,0.01,,Mostly Cloudy
3843,2016-07-29,10:51 AM,73.9,,69.1,85%,29.85,10.0,North,13.8,,0.01,,Mostly Cloudy
3844,2016-07-29,11:08 AM,73.0,,68.0,84%,29.86,10.0,North,12.7,,N/A,,Overcast
3845,2016-07-29,11:51 AM,73.9,,68.0,82%,29.86,10.0,North,12.7,,N/A,,Mostly Cloudy
3846,2016-07-29,12:51 PM,77.0,,68.0,74%,29.85,10.0,NE,17.3,,N/A,,Mostly Cloudy
3847,2016-07-29,1:51 PM,80.1,82.9,69.1,69%,29.84,10.0,NNE,16.1,,N/A,,Scattered Clouds
3848,2016-07-29,2:51 PM,82.9,85.4,66.9,58%,29.84,10.0,NNE,12.7,,N/A,,Scattered Clouds
3849,2016-07-29,3:51 PM,84.0,86.3,66.0,55%,29.85,10.0,NNE,6.9,,N/A,,Partly Cloudy
3850,2016-07-29,4:51 PM,84.9,87.1,66.0,53%,29.85,10.0,Variable,3.5,,N/A,,Partly Cloudy
3851,2016-07-29,5:51 PM,79.0,,69.1,72%,29.86,10.0,South,11.5,,N/A,,Partly Cloudy
3852,2016-07-29,6:51 PM,77.0,,69.1,76%,29.88,10.0,South,9.2,,N/A,,Partly Cloudy
3853,2016-07-29,7:51 PM,75.9,,70.0,82%,29.90,10.0,South,11.5,,N/A,,Scattered Clouds
3854,2016-07-29,8:51 PM,75.9,,69.1,79%,29.90,10.0,South,8.1,,N/A,,Scattered Clouds
3855,2016-07-29,9:51 PM,75.0,,69.1,82%,29.92,10.0,South,6.9,,N/A,,Partly Cloudy
3856,2016-07-29,10:51 PM,75.0,,70.0,84%,29.94,10.0,SSW,6.9,,N/A,,Scattered Clouds
3857,2016-07-29,11:51 PM,75.0,,70.0,84%,29.94,10.0,SW,8.1,,N/A,,Partly Cloudy
3858,2016-07-30,12:51 AM,73.9,,69.1,85%,29.94,10.0,SW,4.6,,N/A,,Partly Cloudy
3859,2016-07-30,1:51 AM,75.0,,70.0,84%,29.94,10.0,SSW,5.8,,N/A,,Mostly Cloudy
3860,2016-07-30,2:51 AM,73.9,,70.0,87%,29.95,10.0,SSW,8.1,,N/A,,Mostly Cloudy
3861,2016-07-30,3:51 AM,73.9,,70.0,87%,29.95,10.0,SW,11.5,,N/A,,Scattered Clouds
3862,2016-07-30,4:51 AM,73.9,,69.1,85%,29.95,10.0,WSW,9.2,,N/A,,Partly Cloudy
3863,2016-07-30,5:51 AM,73.0,,69.1,87%,29.96,10.0,SW,6.9,,N/A,,Partly Cloudy
3864,2016-07-30,6:51 AM,73.9,,70.0,87%,29.99,10.0,SW,5.8,,N/A,,Mostly Cloudy
3865,2016-07-30,7:51 AM,78.1,,72.0,81%,30.00,10.0,WSW,3.5,,N/A,,Scattered Clouds
3866,2016-07-30,8:51 AM,80.1,83.6,71.1,74%,30.01,7.0,NE,3.5,,N/A,,Mostly Cloudy
3867,2016-07-30,9:51 AM,82.0,86.3,71.1,69%,30.00,8.0,East,3.5,,N/A,,Mostly Cloudy
3868,2016-07-30,10:51 AM,84.0,89.0,71.1,65%,30.01,9.0,ESE,4.6,,N/A,,Mostly Cloudy
3869,2016-07-30,11:51 AM,82.0,86.7,72.0,71%,30.02,9.0,SSE,11.5,,N/A,,Mostly Cloudy
3870,2016-07-30,12:51 PM,82.0,85.9,70.0,67%,30.03,10.0,SSE,12.7,,N/A,,Mostly Cloudy
3871,2016-07-30,1:51 PM,82.9,86.5,69.1,63%,30.02,10.0,SE,10.4,,N/A,,Mostly Cloudy
3872,2016-07-30,2:51 PM,80.1,84.5,73.9,81%,30.00,10.0,SE,12.7,,N/A,,Overcast
3873,2016-07-30,3:12 PM,79.0,,75.0,88%,30.00,7.0,SSE,15.0,,0.00,Ra,Light Ra
3874,2016-07-30,3:51 PM,78.1,,75.0,90%,30.00,10.0,SSE,12.7,,0.02,,Overcast
3875,2016-07-30,4:16 PM,78.1,,73.0,84%,30.01,10.0,SSE,12.7,,0.00,Ra,Light Ra
3876,2016-07-30,4:51 PM,78.1,,73.0,84%,30.01,10.0,SSE,10.4,,0.00,Ra,Light Ra
3877,2016-07-30,5:39 PM,75.9,,73.0,91%,30.03,3.0,South,9.2,,0.06,Ra,Ra
3878,2016-07-30,5:51 PM,75.9,,73.0,91%,30.03,5.0,South,9.2,,0.09,Ra,Light Ra
3879,2016-07-30,6:08 PM,75.9,,73.0,91%,30.03,4.0,South,9.2,,0.02,Ra,Ra
3880,2016-07-30,6:51 PM,75.9,,72.0,87%,30.04,8.0,South,9.2,,0.05,Ra,Light Ra
3881,2016-07-30,7:51 PM,75.9,,72.0,87%,30.05,10.0,SE,3.5,,0.01,Ra,Light Ra
3882,2016-07-30,8:51 PM,75.9,,72.0,87%,30.05,10.0,SE,5.8,,0.00,Ra,Light Ra
3883,2016-07-30,9:51 PM,75.9,,72.0,87%,30.06,10.0,ESE,4.6,,0.01,Ra,Light Ra
3884,2016-07-30,10:51 PM,75.9,,73.0,91%,30.04,10.0,East,5.8,,0.00,Ra,Light Ra
3885,2016-07-30,11:51 PM,75.9,,73.0,91%,30.04,10.0,ESE,5.8,,0.00,,Overcast
3886,2016-07-31,12:51 AM,75.9,,73.0,91%,30.04,9.0,East,4.6,,0.00,,Overcast
3887,2016-07-31,1:51 AM,75.0,,73.0,94%,30.01,9.0,East,4.6,,0.00,Ra,Light Ra
3888,2016-07-31,2:51 AM,75.0,,72.0,90%,29.99,9.0,East,5.8,,0.00,,Overcast
3889,2016-07-31,3:51 AM,75.0,,71.1,87%,30.00,9.0,East,4.6,,N/A,,Overcast
3890,2016-07-31,4:51 AM,75.0,,72.0,90%,29.99,9.0,ESE,8.1,,N/A,,Overcast
3891,2016-07-31,5:51 AM,75.0,,72.0,90%,30.01,8.0,ESE,9.2,,N/A,,Overcast
3892,2016-07-31,6:51 AM,75.9,,72.0,87%,30.01,8.0,East,10.4,,N/A,,Mostly Cloudy
3893,2016-07-31,7:51 AM,77.0,,73.0,88%,30.02,8.0,East,10.4,,N/A,,Mostly Cloudy
3894,2016-07-31,8:51 AM,78.1,,73.0,84%,30.03,8.0,East,9.2,,0.00,Ra,Light Ra
3895,2016-07-31,9:51 AM,79.0,,72.0,79%,30.02,8.0,ESE,12.7,,0.00,,Mostly Cloudy
3896,2016-07-31,10:51 AM,77.0,,73.0,88%,30.03,3.0,East,10.4,,0.09,Ra,Ra
3897,2016-07-31,11:51 AM,78.1,,73.9,87%,30.04,8.0,East,11.5,,0.04,,Overcast
3898,2016-07-31,12:51 PM,77.0,,72.0,84%,30.02,6.0,ESE,16.1,,0.00,Ra,Light Ra
3899,2016-07-31,1:51 PM,79.0,,72.0,79%,30.01,10.0,East,16.1,,0.02,,Mostly Cloudy
3900,2016-07-31,2:48 PM,78.8,,73.4,83%,30.01,10.0,East,16.1,,N/A,,Overcast
3901,2016-07-31,2:51 PM,80.1,84.2,73.0,79%,30.01,10.0,ESE,17.3,,N/A,,Overcast
3902,2016-07-31,3:51 PM,79.0,,73.0,82%,29.99,10.0,East,17.3,,N/A,,Overcast
3903,2016-07-31,4:51 PM,77.0,,73.0,88%,30.00,9.0,East,13.8,,N/A,,Overcast
3904,2016-07-31,5:51 PM,75.9,,72.0,87%,30.00,10.0,East,10.4,,0.00,,Overcast
3905,2016-07-31,6:51 PM,75.9,,72.0,87%,29.99,10.0,East,12.7,21.9,N/A,,Mostly Cloudy
3906,2016-07-31,7:21 PM,75.0,,71.1,87%,29.99,10.0,East,12.7,,N/A,,Mostly Cloudy
3907,2016-07-31,7:51 PM,75.0,,71.1,87%,30.00,10.0,ESE,11.5,,N/A,,Mostly Cloudy
3908,2016-07-31,8:51 PM,75.0,,70.0,84%,30.02,10.0,East,8.1,,N/A,,Mostly Cloudy
3909,2016-07-31,9:28 PM,75.0,,70.0,84%,30.02,10.0,East,11.5,,N/A,,Overcast
3910,2016-07-31,9:41 PM,75.0,,70.0,84%,30.02,10.0,East,11.5,,N/A,Thunderstorm,Thunderstorm
3911,2016-07-31,9:51 PM,75.0,,70.0,84%,30.02,10.0,ENE,8.1,,N/A,Thunderstorm,Thunderstorm
3912,2016-07-31,10:32 PM,73.9,,70.0,87%,30.02,4.0,NE,25.3,34.5,0.11,"Ra
	,
Thunderstorm",Heavy Thunderstorms and Ra
3913,2016-07-31,10:51 PM,73.0,,70.0,90%,30.04,10.0,NNE,5.8,,0.26,Ra,Light Ra
3914,2016-07-31,11:51 PM,73.0,,70.0,90%,30.04,6.0,NNE,9.2,,0.02,Ra,Ra
3915,2016-08-04,12:51 AM,68.0,,61.0,78%,30.17,10.0,SSE,3.5,,N/A,,Clear
3916,2016-08-04,1:51 AM,66.9,,62.1,84%,30.16,10.0,Calm,Calm,,N/A,,Clear
3917,2016-08-04,2:51 AM,66.9,,62.1,84%,30.15,10.0,NNE,4.6,,N/A,,Clear
3918,2016-08-04,3:51 AM,66.0,,61.0,84%,30.15,10.0,NE,4.6,,N/A,,Clear
3919,2016-08-04,4:51 AM,64.9,,61.0,87%,30.15,10.0,NNE,3.5,,N/A,,Partly Cloudy
3920,2016-08-04,5:51 AM,64.0,,60.1,87%,30.17,10.0,Calm,Calm,,N/A,,Partly Cloudy
3921,2016-08-04,6:51 AM,66.9,,62.1,84%,30.18,10.0,NE,4.6,,N/A,,Partly Cloudy
3922,2016-08-04,7:51 AM,72.0,,64.9,78%,30.19,10.0,ENE,3.5,,N/A,,Partly Cloudy
3923,2016-08-04,8:51 AM,73.9,,63.0,68%,30.18,10.0,Calm,Calm,,N/A,,Partly Cloudy
3924,2016-08-04,9:51 AM,75.0,,66.0,73%,30.17,10.0,Calm,Calm,,N/A,,Partly Cloudy
3925,2016-08-04,10:51 AM,77.0,,64.9,66%,30.19,10.0,SSE,6.9,,N/A,,Partly Cloudy
3926,2016-08-04,11:51 AM,78.1,,64.9,64%,30.18,10.0,South,8.1,,N/A,,Partly Cloudy
3927,2016-08-04,12:51 PM,80.1,82.1,66.0,62%,30.18,10.0,SSE,9.2,,N/A,,Partly Cloudy
3928,2016-08-04,1:51 PM,79.0,,66.9,66%,30.17,10.0,South,9.2,16.1,N/A,,Partly Cloudy
3929,2016-08-04,2:51 PM,78.1,,66.0,66%,30.16,10.0,South,11.5,,N/A,,Scattered Clouds
3930,2016-08-04,3:51 PM,75.9,,63.0,64%,30.14,10.0,South,12.7,,N/A,,Scattered Clouds
3931,2016-08-04,4:51 PM,77.0,,61.0,58%,30.14,10.0,South,11.5,,N/A,,Scattered Clouds
3932,2016-08-04,5:51 PM,77.0,,61.0,58%,30.12,10.0,South,12.7,,N/A,,Scattered Clouds
3933,2016-08-04,6:51 PM,75.9,,60.1,58%,30.12,10.0,South,11.5,,N/A,,Scattered Clouds
3934,2016-08-04,7:51 PM,75.0,,64.9,71%,30.11,10.0,SSE,10.4,,N/A,,Scattered Clouds
3935,2016-08-04,8:51 PM,73.0,,64.9,76%,30.10,10.0,South,8.1,,N/A,,Mostly Cloudy
3936,2016-08-04,9:51 PM,73.9,,64.9,73%,30.10,10.0,South,5.8,,N/A,,Mostly Cloudy
3937,2016-08-04,10:51 PM,73.0,,64.0,73%,30.10,10.0,South,6.9,,N/A,,Mostly Cloudy
3938,2016-08-04,11:51 PM,72.0,,64.0,76%,30.10,10.0,SSW,9.2,,N/A,,Mostly Cloudy
3939,2016-08-05,12:51 AM,71.1,,66.9,87%,30.09,10.0,SSW,6.9,,N/A,,Scattered Clouds
3940,2016-08-05,1:51 AM,70.0,,66.0,87%,30.09,10.0,SW,8.1,,N/A,,Scattered Clouds
3941,2016-08-05,2:51 AM,68.0,,66.0,93%,30.08,10.0,WSW,8.1,,N/A,,Scattered Clouds
3942,2016-08-05,3:51 AM,70.0,,64.0,81%,30.07,10.0,SW,8.1,,N/A,,Partly Cloudy
3943,2016-08-05,4:51 AM,68.0,,64.9,90%,30.06,10.0,SW,6.9,,N/A,,Partly Cloudy
3944,2016-08-05,5:51 AM,68.0,,66.0,93%,30.07,10.0,SW,4.6,,N/A,,Partly Cloudy
3945,2016-08-05,6:51 AM,69.1,,64.9,87%,30.08,10.0,Calm,Calm,,N/A,,Scattered Clouds
3946,2016-08-05,7:51 AM,71.1,,63.0,75%,30.08,10.0,WSW,6.9,,N/A,,Partly Cloudy
3947,2016-08-05,8:51 AM,73.9,,63.0,68%,30.07,10.0,WSW,4.6,,N/A,,Partly Cloudy
3948,2016-08-05,9:51 AM,75.0,,62.1,64%,30.06,10.0,SSW,5.8,,N/A,,Partly Cloudy
3949,2016-08-05,10:51 AM,77.0,,64.9,66%,30.04,10.0,SSW,9.2,,N/A,,Partly Cloudy
3950,2016-08-05,11:51 AM,78.1,,66.0,66%,30.04,10.0,South,10.4,,N/A,,Partly Cloudy
3951,2016-08-05,12:51 PM,80.1,82.3,66.9,64%,30.02,10.0,South,9.2,,N/A,,Partly Cloudy
3952,2016-08-05,1:51 PM,80.1,82.1,66.0,62%,30.01,10.0,South,13.8,18.4,N/A,,Partly Cloudy
3953,2016-08-05,2:51 PM,81.0,82.5,64.0,56%,29.99,10.0,South,16.1,21.9,N/A,,Scattered Clouds
3954,2016-08-05,3:51 PM,77.0,,64.0,64%,29.98,10.0,South,18.4,24.2,N/A,,Scattered Clouds
3955,2016-08-05,4:51 PM,78.1,,62.1,58%,29.95,10.0,South,17.3,25.3,N/A,,Scattered Clouds
3956,2016-08-05,5:51 PM,79.0,,60.1,52%,29.92,10.0,South,16.1,25.3,N/A,,Scattered Clouds
3957,2016-08-05,6:51 PM,78.1,,64.9,64%,29.92,10.0,South,19.6,27.6,N/A,,Mostly Cloudy
3958,2016-08-05,7:51 PM,75.9,,69.1,79%,29.92,10.0,South,18.4,31.1,N/A,,Mostly Cloudy
3959,2016-08-05,8:51 PM,77.0,,69.1,76%,29.91,10.0,South,16.1,21.9,N/A,,Mostly Cloudy
3960,2016-08-05,9:51 PM,75.9,,68.0,76%,29.91,10.0,SSW,13.8,20.7,N/A,,Partly Cloudy
3961,2016-08-05,10:51 PM,75.0,,70.0,84%,29.90,10.0,SSW,13.8,18.4,N/A,,Partly Cloudy
3962,2016-08-05,11:51 PM,75.0,,70.0,84%,29.88,10.0,SW,10.4,16.1,N/A,,Partly Cloudy
3963,2016-08-06,12:51 AM,73.9,,68.0,82%,29.89,10.0,SW,11.5,,N/A,,Scattered Clouds
3964,2016-08-06,1:51 AM,73.9,,69.1,85%,29.87,10.0,SW,13.8,,N/A,,Mostly Cloudy
3965,2016-08-06,2:51 AM,73.9,,69.1,85%,29.85,10.0,SW,10.4,,N/A,,Mostly Cloudy
3966,2016-08-06,3:51 AM,73.9,,70.0,87%,29.83,10.0,SSW,9.2,,N/A,,Mostly Cloudy
3967,2016-08-06,4:51 AM,73.9,,70.0,87%,29.82,10.0,SW,10.4,16.1,N/A,,Mostly Cloudy
3968,2016-08-06,5:51 AM,75.0,,72.0,90%,29.82,10.0,SW,9.2,,N/A,,Mostly Cloudy
3969,2016-08-06,6:51 AM,75.9,,72.0,87%,29.81,10.0,WSW,12.7,,N/A,,Mostly Cloudy
3970,2016-08-06,7:51 AM,75.0,,72.0,90%,29.81,10.0,SSW,8.1,,N/A,,Overcast
3971,2016-08-06,8:51 AM,77.0,,73.0,88%,29.81,10.0,SW,9.2,,N/A,,Overcast
3972,2016-08-06,9:51 AM,78.1,,73.0,84%,29.79,10.0,SW,9.2,,N/A,,Mostly Cloudy
3973,2016-08-06,10:51 AM,79.0,,73.9,84%,29.78,10.0,WSW,13.8,,N/A,,Mostly Cloudy
3974,2016-08-06,11:09 AM,79.0,,73.9,84%,29.77,10.0,WSW,11.5,,N/A,,Mostly Cloudy
3975,2016-08-06,11:51 AM,80.1,84.5,73.9,81%,29.76,10.0,SSW,11.5,,N/A,,Mostly Cloudy
3976,2016-08-06,12:51 PM,81.0,86.7,75.0,82%,29.75,10.0,SW,12.7,,N/A,,Overcast
3977,2016-08-06,1:51 PM,84.0,91.9,75.0,74%,29.74,10.0,SSW,11.5,21.9,N/A,,Mostly Cloudy
3978,2016-08-06,2:51 PM,79.0,,75.0,88%,29.72,10.0,South,12.7,,N/A,,Mostly Cloudy
3979,2016-08-06,3:51 PM,82.0,92.8,80.1,94%,29.70,10.0,South,13.8,,N/A,,Mostly Cloudy
3980,2016-08-06,4:51 PM,82.0,93.7,81.0,97%,29.69,10.0,South,11.5,,N/A,,Mostly Cloudy
3981,2016-08-06,5:51 PM,75.9,,73.9,94%,29.70,10.0,WSW,11.5,,N/A,,Mostly Cloudy
3982,2016-08-06,6:51 PM,80.1,86.7,79.0,96%,29.70,10.0,West,5.8,,N/A,,Mostly Cloudy
3983,2016-08-06,7:51 PM,75.9,,73.9,94%,29.70,10.0,SW,6.9,,N/A,,Scattered Clouds
3984,2016-08-06,8:51 PM,77.0,,75.9,96%,29.74,10.0,WSW,8.1,,N/A,,Scattered Clouds
3985,2016-08-06,9:51 PM,75.9,,75.0,97%,29.76,10.0,NW,9.2,,N/A,,Partly Cloudy
3986,2016-08-06,10:51 PM,81.0,82.7,64.9,58%,29.77,10.0,NNW,10.4,,N/A,,Partly Cloudy
3987,2016-08-06,11:51 PM,80.1,81.2,62.1,54%,29.78,10.0,North,11.5,,N/A,,Partly Cloudy
3988,2016-08-07,12:51 AM,78.1,,60.1,54%,29.79,10.0,NNW,15.0,,N/A,,Partly Cloudy
3989,2016-08-07,1:51 AM,78.1,,60.1,54%,29.79,10.0,NNW,12.7,,N/A,,Partly Cloudy
3990,2016-08-07,2:51 AM,75.9,,59.0,56%,29.79,10.0,NNW,12.7,,N/A,,Partly Cloudy
3991,2016-08-07,3:51 AM,75.9,,59.0,56%,29.80,10.0,North,8.1,,N/A,,Partly Cloudy
3992,2016-08-07,4:51 AM,73.9,,60.1,62%,29.82,10.0,North,5.8,,N/A,,Partly Cloudy
3993,2016-08-07,5:51 AM,73.0,,61.0,66%,29.83,10.0,NNW,6.9,,N/A,,Partly Cloudy
3994,2016-08-07,6:51 AM,68.0,,61.0,78%,29.85,10.0,NW,10.4,,N/A,,Scattered Clouds
3995,2016-08-07,7:51 AM,73.9,,62.1,66%,29.86,10.0,NNW,11.5,,N/A,,Scattered Clouds
3996,2016-08-07,8:51 AM,78.1,,59.0,52%,29.88,10.0,NW,6.9,,N/A,,Scattered Clouds
3997,2016-08-07,9:51 AM,82.9,82.6,57.9,42%,29.88,10.0,North,5.8,,N/A,,Scattered Clouds
3998,2016-08-07,10:51 AM,84.9,84.2,57.9,40%,29.88,10.0,WNW,4.6,,N/A,,Scattered Clouds
3999,2016-08-07,11:51 AM,87.1,86.1,57.9,37%,29.88,10.0,WSW,10.4,,N/A,,Scattered Clouds
4000,2016-08-07,12:51 PM,86.0,84.7,55.9,36%,29.88,10.0,SSW,11.5,19.6,N/A,,Scattered Clouds
4001,2016-08-07,1:51 PM,89.1,,52.0,28%,29.88,10.0,West,10.4,,N/A,,Scattered Clouds
4002,2016-08-07,2:51 PM,88.0,85.7,53.1,30%,29.88,10.0,SW,13.8,,N/A,,Scattered Clouds
4003,2016-08-07,3:51 PM,88.0,,52.0,29%,29.88,10.0,WNW,8.1,,N/A,,Mostly Cloudy
4004,2016-08-07,4:51 PM,89.1,,51.1,27%,29.87,10.0,NW,12.7,21.9,N/A,,Scattered Clouds
4005,2016-08-07,5:51 PM,87.1,,50.0,28%,29.88,10.0,WNW,12.7,20.7,N/A,,Scattered Clouds
4006,2016-08-07,6:51 PM,86.0,,51.1,30%,29.88,10.0,NW,15.0,,N/A,,Scattered Clouds
4007,2016-08-07,7:51 PM,84.9,,52.0,32%,29.90,10.0,NNW,12.7,,N/A,,Partly Cloudy
4008,2016-08-07,8:51 PM,82.9,,52.0,34%,29.92,10.0,NW,10.4,20.7,N/A,,Partly Cloudy
4009,2016-08-07,9:51 PM,82.9,,52.0,34%,29.94,10.0,NNW,9.2,,N/A,,Scattered Clouds
4010,2016-08-07,10:51 PM,80.6,,51.8,37%,29.95,10.0,NNW,9.2,,N/A,,Mostly Cloudy
4011,2016-08-07,11:51 PM,78.8,,53.6,42%,29.95,10.0,North,10.4,,N/A,,Mostly Cloudy
4012,2016-08-08,12:51 AM,77.0,,55.4,47%,29.95,10.0,NNE,9.2,,N/A,,Mostly Cloudy
4013,2016-08-08,1:51 AM,75.2,,57.2,53%,29.96,10.0,North,5.8,,N/A,,Mostly Cloudy
4014,2016-08-08,2:51 AM,77.0,,55.4,47%,29.97,10.0,North,6.9,,N/A,,Mostly Cloudy
4015,2016-08-08,3:51 AM,77.0,,57.2,50%,29.98,10.0,North,6.9,,N/A,,Mostly Cloudy
4016,2016-08-08,4:51 AM,75.2,,60.8,61%,30.00,10.0,NE,3.5,,N/A,,Mostly Cloudy
4017,2016-08-08,5:51 AM,73.4,,62.6,69%,30.02,10.0,NNE,6.9,,N/A,,Mostly Cloudy
4018,2016-08-08,6:51 AM,73.9,,60.1,62%,30.04,10.0,NNE,5.8,,N/A,,Scattered Clouds
4019,2016-08-08,7:51 AM,75.0,,59.0,57%,30.04,10.0,NNE,11.5,,N/A,,Scattered Clouds
4020,2016-08-08,8:51 AM,78.1,,57.9,50%,30.06,10.0,North,11.5,,N/A,,Mostly Cloudy
4021,2016-08-08,9:51 AM,81.0,81.3,59.0,47%,30.06,10.0,NE,6.9,,N/A,,Mostly Cloudy
4022,2016-08-08,10:51 AM,82.9,82.6,57.9,42%,30.07,10.0,Calm,Calm,,N/A,,Mostly Cloudy
4023,2016-08-08,11:51 AM,84.0,83.0,55.9,38%,30.07,10.0,NNE,3.5,,N/A,,Mostly Cloudy
4024,2016-08-08,12:51 PM,84.0,83.8,59.0,43%,30.06,10.0,SSW,8.1,,N/A,,Mostly Cloudy
4025,2016-08-08,1:51 PM,84.0,84.5,62.1,47%,30.07,10.0,South,6.9,,N/A,,Mostly Cloudy
4026,2016-08-08,2:51 PM,81.0,83.0,66.0,60%,30.06,10.0,South,9.2,,N/A,,Mostly Cloudy
4027,2016-08-08,3:51 PM,81.0,83.0,66.0,60%,30.06,10.0,South,8.1,,N/A,,Mostly Cloudy
4028,2016-08-08,4:51 PM,81.0,82.5,64.0,56%,30.05,10.0,SSE,8.1,,N/A,,Mostly Cloudy
4029,2016-08-08,5:51 PM,81.0,82.7,64.9,58%,30.05,10.0,South,9.2,,N/A,,Scattered Clouds
4030,2016-08-08,6:51 PM,79.0,,64.0,60%,30.05,10.0,SSE,8.1,,N/A,,Mostly Cloudy
4031,2016-08-08,7:51 PM,77.0,,69.1,76%,30.06,10.0,SSE,6.9,,N/A,,Scattered Clouds
4032,2016-08-08,8:51 PM,78.1,,63.0,60%,30.08,10.0,SE,4.6,,N/A,,Scattered Clouds
4033,2016-08-08,9:51 PM,75.9,,70.0,82%,30.10,10.0,South,9.2,,N/A,,Partly Cloudy
4034,2016-08-08,10:51 PM,75.9,,69.1,79%,30.12,10.0,South,8.1,,N/A,,Partly Cloudy
4035,2016-08-08,11:51 PM,75.9,,73.0,91%,30.13,10.0,SSW,8.1,,N/A,,Partly Cloudy
4036,2016-08-09,12:51 AM,73.9,,72.0,93%,30.14,10.0,South,4.6,,N/A,,Clear
4037,2016-08-09,1:51 AM,75.0,,72.0,90%,30.15,10.0,WSW,4.6,,N/A,,Partly Cloudy
4038,2016-08-09,2:51 AM,73.0,,71.1,93%,30.15,10.0,SSW,4.6,,N/A,,Partly Cloudy
4039,2016-08-09,3:51 AM,71.1,,69.1,93%,30.17,10.0,WSW,5.8,,N/A,,Partly Cloudy
4040,2016-08-09,4:51 AM,72.0,,70.0,93%,30.17,10.0,WSW,4.6,,N/A,,Partly Cloudy
4041,2016-08-09,5:51 AM,72.0,,70.0,93%,30.18,10.0,WSW,5.8,,N/A,,Partly Cloudy
4042,2016-08-09,6:51 AM,73.0,,70.0,90%,30.18,10.0,Calm,Calm,,N/A,,Partly Cloudy
4043,2016-08-09,7:51 AM,77.0,,69.1,76%,30.20,10.0,Calm,Calm,,N/A,,Partly Cloudy
4044,2016-08-09,8:51 AM,80.1,81.5,63.0,56%,30.21,10.0,Calm,Calm,,N/A,,Partly Cloudy
4045,2016-08-09,9:51 AM,81.0,82.2,63.0,54%,30.22,10.0,SW,3.5,,N/A,,Partly Cloudy
4046,2016-08-09,10:51 AM,84.0,83.8,59.0,43%,30.23,10.0,SSW,5.8,,N/A,,Scattered Clouds
4047,2016-08-09,11:51 AM,84.9,83.6,55.0,36%,30.23,10.0,SSW,9.2,,N/A,,Scattered Clouds
4048,2016-08-09,12:51 PM,86.0,84.9,57.0,37%,30.23,10.0,South,11.5,16.1,N/A,,Scattered Clouds
4049,2016-08-09,1:51 PM,84.9,86.6,64.9,51%,30.23,10.0,South,15.0,19.6,N/A,,Mostly Cloudy
4050,2016-08-09,2:51 PM,82.0,83.8,64.9,56%,30.23,10.0,South,13.8,18.4,N/A,,Mostly Cloudy
4051,2016-08-09,3:51 PM,82.9,85.4,66.9,58%,30.21,10.0,South,15.0,21.9,N/A,,Mostly Cloudy
4052,2016-08-09,4:51 PM,81.0,84.9,71.1,72%,30.21,10.0,South,15.0,21.9,N/A,,Scattered Clouds
4053,2016-08-09,5:51 PM,81.0,84.1,69.1,67%,30.20,10.0,South,12.7,19.6,N/A,,Mostly Cloudy
4054,2016-08-09,6:51 PM,80.1,82.9,69.1,69%,30.20,10.0,South,13.8,19.6,N/A,,Mostly Cloudy
4055,2016-08-09,7:51 PM,78.1,,73.9,87%,30.20,10.0,SSE,10.4,,N/A,,Mostly Cloudy
4056,2016-08-09,8:51 PM,78.1,,73.9,87%,30.20,10.0,SSE,11.5,,N/A,,Mostly Cloudy
4057,2016-08-09,9:51 PM,77.0,,73.9,90%,30.21,10.0,South,11.5,20.7,N/A,,Mostly Cloudy
4058,2016-08-09,10:51 PM,78.1,,75.0,90%,30.22,10.0,South,13.8,,N/A,,Mostly Cloudy
4059,2016-08-09,11:51 PM,75.9,,73.9,94%,30.23,10.0,South,10.4,16.1,N/A,,Mostly Cloudy
4060,2016-08-10,12:51 AM,75.9,,73.0,91%,30.23,10.0,South,9.2,,N/A,,Mostly Cloudy
4061,2016-08-10,1:51 AM,77.0,,73.9,90%,30.22,10.0,South,13.8,21.9,N/A,,Overcast
4062,2016-08-10,2:46 AM,73.4,,71.6,94%,30.21,9.0,South,13.8,,N/A,Ra,Light Ra
4063,2016-08-10,2:51 AM,73.9,,72.0,93%,30.21,9.0,South,13.8,,N/A,Ra,Light Ra
4064,2016-08-10,3:51 AM,75.9,,73.9,94%,30.19,10.0,SSE,10.4,,N/A,,Overcast
4065,2016-08-10,4:51 AM,75.9,,73.9,94%,30.18,10.0,South,10.4,,N/A,,Overcast
4066,2016-08-10,5:51 AM,77.0,,75.0,94%,30.19,10.0,South,10.4,,N/A,,Overcast
4067,2016-08-10,6:51 AM,77.0,,73.9,90%,30.19,10.0,South,6.9,,N/A,,Mostly Cloudy
4068,2016-08-10,7:51 AM,78.1,,75.0,90%,30.19,10.0,SSW,8.1,,N/A,,Overcast
4069,2016-08-10,8:51 AM,79.0,,75.0,88%,30.20,10.0,South,10.4,,N/A,,Mostly Cloudy
4070,2016-08-10,9:51 AM,80.1,85.1,75.0,85%,30.20,10.0,South,12.7,,N/A,,Mostly Cloudy
4071,2016-08-10,10:51 AM,81.0,87.3,75.9,85%,30.19,10.0,South,13.8,20.7,N/A,,Overcast
4072,2016-08-10,11:51 AM,81.0,87.3,75.9,85%,30.18,10.0,South,16.1,23.0,N/A,Ra,Light Ra
4073,2016-08-10,12:51 PM,82.0,90.2,77.0,85%,30.16,10.0,South,19.6,27.6,N/A,,Mostly Cloudy
4074,2016-08-10,1:20 PM,80.1,85.8,77.0,90%,30.14,7.0,South,18.4,31.1,N/A,Ra,Light Ra
4075,2016-08-10,1:51 PM,79.0,,75.9,90%,30.14,8.0,South,13.8,23.0,N/A,,Mostly Cloudy
4076,2016-08-10,2:51 PM,79.0,,75.9,90%,30.13,10.0,SSW,15.0,20.7,N/A,,Mostly Cloudy
4077,2016-08-10,3:51 PM,82.9,90.8,75.9,79%,30.12,10.0,South,15.0,,N/A,,Mostly Cloudy
4078,2016-08-10,4:51 PM,84.0,91.2,73.9,72%,30.11,10.0,South,16.1,23.0,N/A,,Mostly Cloudy
4079,2016-08-10,5:51 PM,82.0,89.4,75.9,82%,30.10,10.0,South,17.3,23.0,N/A,Ra,Light Ra
4080,2016-08-10,6:51 PM,80.1,84.5,73.9,81%,30.10,10.0,South,23.0,33.4,N/A,,Mostly Cloudy
4081,2016-08-10,7:51 PM,80.1,85.4,75.9,87%,30.10,10.0,South,18.4,27.6,N/A,,Mostly Cloudy
4082,2016-08-10,8:51 PM,80.1,85.4,75.9,87%,30.11,10.0,South,13.8,,N/A,,Mostly Cloudy
4083,2016-08-10,9:51 PM,80.1,85.4,75.9,87%,30.12,10.0,South,13.8,,N/A,,Mostly Cloudy
4084,2016-08-10,10:51 PM,80.1,85.8,77.0,90%,30.12,10.0,South,11.5,,N/A,,Overcast
4085,2016-08-10,11:51 PM,79.0,,75.9,90%,30.12,10.0,SSW,10.4,,N/A,,Overcast
4086,2016-08-11,12:51 AM,78.1,,75.9,93%,30.11,10.0,SSW,5.8,,N/A,,Overcast
4087,2016-08-11,1:51 AM,78.1,,75.9,93%,30.09,10.0,SSW,8.1,,N/A,,Overcast
4088,2016-08-11,2:51 AM,78.1,,75.9,93%,30.09,10.0,SSW,6.9,,N/A,,Overcast
4089,2016-08-11,3:51 AM,78.1,,75.9,93%,30.09,10.0,SW,5.8,,N/A,,Mostly Cloudy
4090,2016-08-11,4:51 AM,78.1,,75.9,93%,30.10,10.0,SSW,8.1,,N/A,,Mostly Cloudy
4091,2016-08-11,5:51 AM,78.1,,75.0,90%,30.10,10.0,SW,6.9,,N/A,,Mostly Cloudy
4092,2016-08-11,6:51 AM,78.1,,73.9,87%,30.11,10.0,SW,5.8,,N/A,,Mostly Cloudy
4093,2016-08-11,7:51 AM,79.0,,75.0,88%,30.11,10.0,WSW,8.1,,N/A,,Mostly Cloudy
4094,2016-08-11,8:51 AM,81.0,87.9,77.0,88%,30.12,10.0,WSW,13.8,18.4,N/A,,Mostly Cloudy
4095,2016-08-11,9:51 AM,82.0,90.2,77.0,85%,30.10,10.0,WSW,15.0,,N/A,,Mostly Cloudy
4096,2016-08-11,10:51 AM,82.9,91.8,77.0,82%,30.09,10.0,SW,11.5,,N/A,,Mostly Cloudy
4097,2016-08-11,11:51 AM,86.0,96.9,77.0,74%,30.09,10.0,South,11.5,,N/A,,Mostly Cloudy
4098,2016-08-11,12:51 PM,88.0,100.2,77.0,70%,30.07,10.0,SSW,11.5,,N/A,,Mostly Cloudy
4099,2016-08-11,1:51 PM,90.0,104.5,78.1,68%,30.05,10.0,SSW,10.4,18.4,N/A,,Scattered Clouds
4100,2016-08-11,2:51 PM,89.1,103.2,78.1,70%,30.03,10.0,South,9.2,,N/A,,Scattered Clouds
4101,2016-08-11,3:51 PM,91.9,107.3,78.1,64%,30.01,10.0,SSW,12.7,,N/A,,Scattered Clouds
4102,2016-08-11,4:51 PM,91.0,104.2,77.0,63%,30.00,10.0,South,13.8,,N/A,,Scattered Clouds
4103,2016-08-11,5:51 PM,86.0,93.8,73.9,67%,29.99,10.0,South,12.7,,N/A,,Mostly Cloudy
4104,2016-08-11,6:07 PM,86.0,93.8,73.9,67%,29.99,10.0,South,10.4,,N/A,Thunderstorm,Thunderstorm
4105,2016-08-11,6:48 PM,86.0,93.4,73.4,66%,29.99,10.0,Calm,Calm,,N/A,,Mostly Cloudy
4106,2016-08-11,6:51 PM,84.9,92.1,73.9,69%,30.00,10.0,Calm,Calm,,N/A,,Mostly Cloudy
4107,2016-08-11,7:51 PM,82.9,88.8,73.0,72%,30.00,10.0,South,6.9,,N/A,,Mostly Cloudy
4108,2016-08-11,8:51 PM,84.9,94.1,75.9,74%,30.00,10.0,West,9.2,,N/A,,Mostly Cloudy
4109,2016-08-11,9:51 PM,84.0,93.7,77.0,79%,30.02,10.0,NW,9.2,,N/A,,Mostly Cloudy
4110,2016-08-11,10:51 PM,82.9,93.8,79.0,88%,30.01,10.0,SSW,3.5,,N/A,,Overcast
4111,2016-08-11,11:51 PM,81.0,87.9,77.0,88%,30.00,10.0,SSW,8.1,,N/A,,Overcast
4112,2016-08-12,12:44 AM,82.0,91.0,78.1,88%,30.01,10.0,WNW,17.3,23.0,N/A,Ra,Light Ra
4113,2016-08-12,12:51 AM,82.0,90.2,77.0,85%,30.01,10.0,NW,15.0,,N/A,Ra,Light Ra
4114,2016-08-12,1:51 AM,77.0,,73.0,88%,29.98,10.0,WNW,13.8,18.4,N/A,Ra,Light Ra
4115,2016-08-12,2:51 AM,77.0,,73.0,88%,29.95,10.0,SW,6.9,,N/A,,Overcast
4116,2016-08-12,3:51 AM,75.0,,71.1,87%,29.95,10.0,SW,11.5,,N/A,,Mostly Cloudy
4117,2016-08-12,4:51 AM,77.0,,73.9,90%,29.95,10.0,WSW,4.6,,N/A,,Mostly Cloudy
4118,2016-08-12,5:51 AM,79.0,,75.9,90%,29.94,10.0,SSW,8.1,,N/A,,Mostly Cloudy
4119,2016-08-12,6:51 AM,78.1,,75.0,90%,29.95,10.0,SW,10.4,,N/A,,Mostly Cloudy
4120,2016-08-12,7:51 AM,78.1,,73.9,87%,29.95,10.0,WSW,5.8,,N/A,,Mostly Cloudy
4121,2016-08-12,8:51 AM,80.1,84.5,73.9,81%,29.95,10.0,WSW,13.8,19.6,N/A,,Mostly Cloudy
4122,2016-08-12,9:51 AM,82.9,90.2,75.0,77%,29.94,10.0,West,10.4,,N/A,,Mostly Cloudy
4123,2016-08-12,10:51 AM,86.0,96.0,75.9,72%,29.92,10.0,SW,11.5,,N/A,,Scattered Clouds
4124,2016-08-12,11:51 AM,88.0,98.5,75.9,67%,29.91,10.0,WSW,17.3,25.3,N/A,,Scattered Clouds
4125,2016-08-12,12:51 PM,90.0,102.5,77.0,65%,29.90,10.0,SSW,11.5,,N/A,,Scattered Clouds
4126,2016-08-12,1:51 PM,90.0,104.5,78.1,68%,29.88,10.0,SSW,12.7,19.6,N/A,,Scattered Clouds
4127,2016-08-12,2:51 PM,89.1,100.2,75.9,65%,29.87,10.0,South,15.0,,N/A,,Mostly Cloudy
4128,2016-08-12,3:51 PM,89.1,100.2,75.9,65%,29.85,10.0,South,16.1,,N/A,,Mostly Cloudy
4129,2016-08-12,4:51 PM,87.1,96.3,75.0,67%,29.86,10.0,South,15.0,19.6,N/A,,Mostly Cloudy
4130,2016-08-12,5:51 PM,87.1,96.3,75.0,67%,29.85,10.0,SSW,12.7,20.7,N/A,,Mostly Cloudy
4131,2016-08-12,6:51 PM,88.0,97.5,75.0,65%,29.87,10.0,WSW,21.9,,N/A,,Mostly Cloudy
4132,2016-08-12,7:51 PM,87.1,94.5,73.0,63%,29.88,10.0,WNW,11.5,29.9,N/A,Ra,Light Ra
4133,2016-08-12,8:51 PM,84.9,92.1,73.9,69%,29.90,10.0,WSW,9.2,,N/A,,Mostly Cloudy
4134,2016-08-12,9:51 PM,84.0,91.9,75.0,74%,29.91,10.0,WSW,8.1,,N/A,,Mostly Cloudy
4135,2016-08-12,10:51 PM,82.0,88.6,75.0,79%,29.92,10.0,SW,11.5,,N/A,,Scattered Clouds
4136,2016-08-12,11:51 PM,81.0,86.2,73.9,79%,29.92,10.0,SW,8.1,,N/A,,Mostly Cloudy
4137,2016-08-13,12:51 AM,81.0,86.7,75.0,82%,29.91,10.0,SW,4.6,,N/A,,Mostly Cloudy
4138,2016-08-13,1:51 AM,80.1,85.1,75.0,85%,29.90,10.0,Calm,Calm,,N/A,,Scattered Clouds
4139,2016-08-13,2:51 AM,82.0,88.6,75.0,79%,29.89,10.0,SW,6.9,,N/A,,Scattered Clouds
4140,2016-08-13,3:51 AM,82.0,88.6,75.0,79%,29.90,10.0,West,10.4,,N/A,,Scattered Clouds
4141,2016-08-13,4:51 AM,82.0,88.6,75.0,79%,29.90,10.0,WSW,8.1,,N/A,,Scattered Clouds
4142,2016-08-13,5:51 AM,80.1,85.1,75.0,85%,29.91,10.0,WSW,8.1,,N/A,,Partly Cloudy
4143,2016-08-13,6:51 AM,81.0,86.7,75.0,82%,29.92,10.0,WSW,10.4,,N/A,,Scattered Clouds
4144,2016-08-13,7:51 AM,82.9,90.8,75.9,79%,29.94,10.0,WSW,9.2,,N/A,,Scattered Clouds
4145,2016-08-13,8:51 AM,84.9,96.6,78.1,80%,29.94,10.0,SW,8.1,,N/A,,Scattered Clouds
4146,2016-08-13,9:51 AM,88.0,100.2,77.0,70%,29.93,10.0,SW,9.2,,N/A,,Partly Cloudy
4147,2016-08-13,10:51 AM,89.1,101.4,77.0,67%,29.92,10.0,SW,6.9,,N/A,,Scattered Clouds
4148,2016-08-13,11:51 AM,90.0,102.5,77.0,65%,29.92,10.0,SSW,8.1,,N/A,,Scattered Clouds
4149,2016-08-13,12:51 PM,91.0,107.6,79.0,68%,29.91,10.0,South,10.4,,N/A,,Scattered Clouds
4150,2016-08-13,1:51 PM,91.0,107.6,79.0,68%,29.90,10.0,South,10.4,,N/A,,Scattered Clouds
4151,2016-08-13,2:51 PM,88.0,111.7,84.0,88%,29.89,10.0,South,17.3,21.9,N/A,,Scattered Clouds
4152,2016-08-13,3:51 PM,89.1,109.9,82.0,80%,29.87,10.0,South,17.3,25.3,N/A,,Scattered Clouds
4153,2016-08-13,4:51 PM,87.1,96.3,75.0,67%,29.86,10.0,South,19.6,29.9,N/A,,Scattered Clouds
4154,2016-08-13,5:51 PM,86.0,96.0,75.9,72%,29.85,10.0,South,17.3,25.3,N/A,,Scattered Clouds
4155,2016-08-13,6:51 PM,86.0,96.0,75.9,72%,29.84,10.0,South,15.0,,N/A,,Scattered Clouds
4156,2016-08-13,7:51 PM,84.0,93.7,77.0,79%,29.86,10.0,South,18.4,25.3,N/A,,Scattered Clouds
4157,2016-08-13,8:51 PM,84.9,95.3,77.0,77%,29.89,10.0,South,13.8,19.6,N/A,,Scattered Clouds
4158,2016-08-13,9:51 PM,84.9,95.3,77.0,77%,29.91,10.0,South,12.7,,N/A,,Scattered Clouds
4159,2016-08-13,10:51 PM,84.9,95.3,77.0,77%,29.91,10.0,South,9.2,,N/A,,Scattered Clouds
4160,2016-08-13,11:51 PM,82.9,90.8,75.9,79%,29.91,10.0,SSW,6.9,16.1,N/A,,Scattered Clouds
4161,2016-08-14,12:51 AM,84.0,91.9,75.0,74%,29.93,10.0,Calm,Calm,,N/A,,Mostly Cloudy
4162,2016-08-14,1:51 AM,84.0,89.6,72.0,67%,29.92,10.0,SSE,3.5,,N/A,,Mostly Cloudy
4163,2016-08-14,2:51 AM,84.0,91.9,75.0,74%,29.91,10.0,Calm,Calm,,N/A,,Mostly Cloudy
4164,2016-08-14,3:51 AM,84.0,88.4,70.0,63%,29.89,10.0,ESE,5.8,,N/A,,Partly Cloudy
4165,2016-08-14,4:51 AM,82.0,85.9,70.0,67%,29.89,10.0,South,5.8,,N/A,,Partly Cloudy
4166,2016-08-14,5:51 AM,82.0,86.7,72.0,71%,29.91,9.0,SSW,9.2,,N/A,,Scattered Clouds
4167,2016-08-14,6:51 AM,82.9,89.4,73.9,74%,29.93,10.0,SW,10.4,,N/A,,Scattered Clouds
4168,2016-08-14,7:51 AM,84.9,94.1,75.9,74%,29.94,10.0,WSW,12.7,,N/A,,Scattered Clouds
4169,2016-08-14,8:51 AM,87.1,98.8,77.0,72%,29.95,10.0,West,6.9,,N/A,,Scattered Clouds
4170,2016-08-14,9:51 AM,89.1,99.1,75.0,63%,29.96,10.0,West,10.4,,N/A,,Mostly Cloudy
4171,2016-08-14,10:51 AM,91.0,101.6,75.0,59%,29.96,10.0,West,12.7,17.3,N/A,,Scattered Clouds
4172,2016-08-14,11:51 AM,93.0,101.9,73.0,52%,29.96,10.0,West,12.7,,N/A,,Scattered Clouds
4173,2016-08-14,12:51 PM,93.9,103.4,73.0,51%,29.95,10.0,WSW,16.1,21.9,N/A,,Scattered Clouds
4174,2016-08-14,1:51 PM,93.0,105.3,75.9,57%,29.96,10.0,WSW,16.1,27.6,N/A,,Scattered Clouds
4175,2016-08-14,2:51 PM,95.0,109.7,77.0,56%,29.95,10.0,SW,17.3,23.0,N/A,,Mostly Cloudy
4176,2016-08-14,3:51 PM,93.9,106.9,75.9,56%,29.94,10.0,South,15.0,23.0,N/A,,Mostly Cloudy
4177,2016-08-14,4:51 PM,90.0,100.2,75.0,61%,29.94,10.0,SSW,12.7,,N/A,,Mostly Cloudy
4178,2016-08-14,5:51 PM,90.0,100.2,75.0,61%,29.94,10.0,SSW,10.4,,N/A,,Mostly Cloudy
4179,2016-08-14,6:51 PM,93.0,100.1,71.1,49%,29.96,10.0,WSW,11.5,,N/A,,Scattered Clouds
4180,2016-08-14,7:51 PM,91.9,99.5,72.0,52%,29.99,10.0,West,15.0,23.0,N/A,,Mostly Cloudy
4181,2016-08-14,8:15 PM,91.9,99.5,72.0,52%,30.00,10.0,WNW,23.0,28.8,N/A,Thunderstorm,Thunderstorm
4182,2016-08-14,8:51 PM,87.1,97.3,75.9,69%,30.02,10.0,NNW,12.7,,N/A,"Ra
	,
Thunderstorm",Light Thunderstorms and Ra
4183,2016-08-14,9:41 PM,84.0,91.9,75.0,74%,30.03,10.0,North,4.6,,N/A,,Scattered Clouds
4184,2016-08-14,9:51 PM,84.0,91.9,75.0,74%,30.03,10.0,North,4.6,,N/A,,Scattered Clouds
4185,2016-08-14,10:51 PM,82.9,90.8,75.9,79%,30.03,10.0,NNW,9.2,,N/A,,Mostly Cloudy
4186,2016-08-14,11:51 PM,82.9,89.4,73.9,74%,30.05,10.0,West,10.4,,N/A,,Mostly Cloudy
4187,2016-08-15,12:51 AM,82.9,90.2,75.0,77%,30.04,10.0,NW,11.5,,N/A,,Mostly Cloudy
4188,2016-08-15,1:51 AM,82.9,88.8,73.0,72%,30.06,10.0,WNW,8.1,,N/A,,Mostly Cloudy
4189,2016-08-15,2:51 AM,82.0,87.4,73.0,74%,30.05,10.0,NNW,6.9,,N/A,,Mostly Cloudy
4190,2016-08-15,3:51 AM,82.0,87.9,73.9,76%,30.06,10.0,NNW,6.9,,N/A,,Scattered Clouds
4191,2016-08-15,4:51 AM,80.1,84.5,73.9,81%,30.08,10.0,North,10.4,,N/A,,Partly Cloudy
4192,2016-08-15,5:51 AM,80.1,84.5,73.9,81%,30.11,10.0,North,12.7,,N/A,,Scattered Clouds
4193,2016-08-15,6:51 AM,79.0,,73.9,84%,30.12,10.0,North,9.2,,N/A,,Mostly Cloudy
4194,2016-08-15,7:51 AM,79.0,,73.0,82%,30.14,10.0,North,8.1,,N/A,,Mostly Cloudy
4195,2016-08-15,8:51 AM,82.0,87.4,73.0,74%,30.15,10.0,Calm,Calm,,N/A,,Mostly Cloudy
4196,2016-08-15,9:51 AM,82.0,86.7,72.0,71%,30.15,10.0,North,5.8,,N/A,,Mostly Cloudy
4197,2016-08-15,10:51 AM,84.9,89.4,70.0,61%,30.16,10.0,North,3.5,,N/A,,Scattered Clouds
4198,2016-08-15,11:51 AM,86.0,92.2,72.0,63%,30.16,10.0,South,8.1,,N/A,,Scattered Clouds
4199,2016-08-15,12:51 PM,86.0,93.0,73.0,65%,30.17,10.0,South,10.4,,N/A,,Scattered Clouds
4200,2016-08-15,1:51 PM,87.1,95.4,73.9,65%,30.16,10.0,South,11.5,,N/A,,Scattered Clouds
4201,2016-08-15,2:51 PM,88.0,95.6,73.0,61%,30.15,10.0,SSW,10.4,,N/A,,Scattered Clouds
4202,2016-08-15,3:51 PM,84.9,93.3,75.0,72%,30.15,10.0,South,10.4,,N/A,,Mostly Cloudy
4203,2016-08-15,4:51 PM,84.0,91.2,73.9,72%,30.14,10.0,South,12.7,,N/A,,Mostly Cloudy
4204,2016-08-15,5:51 PM,84.0,91.9,75.0,74%,30.15,10.0,South,12.7,,N/A,,Mostly Cloudy
4205,2016-08-15,6:51 PM,82.0,89.4,75.9,82%,30.16,10.0,South,10.4,,N/A,,Mostly Cloudy
4206,2016-08-15,7:51 PM,81.0,87.3,75.9,85%,30.16,10.0,South,8.1,,N/A,,Mostly Cloudy
4207,2016-08-15,8:51 PM,81.0,86.2,73.9,79%,30.18,10.0,South,11.5,,N/A,,Mostly Cloudy
4208,2016-08-15,9:51 PM,82.0,88.6,75.0,79%,30.20,10.0,South,10.4,,N/A,,Mostly Cloudy
4209,2016-08-15,10:51 PM,81.0,86.7,75.0,82%,30.21,10.0,South,8.1,,N/A,,Mostly Cloudy
4210,2016-08-15,11:51 PM,81.0,87.3,75.9,85%,30.20,10.0,South,3.5,,N/A,,Mostly Cloudy
4211,2016-08-16,12:51 AM,78.1,,73.0,84%,30.19,10.0,South,3.5,,N/A,,Mostly Cloudy
4212,2016-08-16,1:51 AM,78.1,,73.0,84%,30.19,10.0,South,4.6,,N/A,,Mostly Cloudy
4213,2016-08-16,2:51 AM,79.0,,72.0,79%,30.20,10.0,South,4.6,,N/A,,Mostly Cloudy
4214,2016-08-16,3:51 AM,80.1,85.1,75.0,85%,30.19,10.0,SSE,4.6,,N/A,,Mostly Cloudy
4215,2016-08-16,4:51 AM,80.1,85.1,75.0,85%,30.19,10.0,SW,8.1,,N/A,,Mostly Cloudy
4216,2016-08-16,5:51 AM,77.0,,73.0,88%,30.17,10.0,WNW,5.8,,N/A,,Mostly Cloudy
4217,2016-08-16,6:51 AM,80.1,84.5,73.9,81%,30.18,10.0,Calm,Calm,,N/A,,Mostly Cloudy
4218,2016-08-16,7:51 AM,82.0,87.9,73.9,76%,30.19,10.0,SSE,4.6,,N/A,,Mostly Cloudy
4219,2016-08-16,8:51 AM,81.0,86.2,73.9,79%,30.20,10.0,South,8.1,,N/A,,Scattered Clouds
4220,2016-08-16,9:51 AM,82.0,88.6,75.0,79%,30.20,10.0,South,8.1,,N/A,,Mostly Cloudy
4221,2016-08-16,10:51 AM,84.9,93.3,75.0,72%,30.20,10.0,South,8.1,,N/A,,Mostly Cloudy
4222,2016-08-16,11:51 AM,84.9,93.3,75.0,72%,30.18,10.0,South,15.0,,N/A,,Mostly Cloudy
4223,2016-08-16,12:51 PM,87.1,93.6,72.0,61%,30.17,10.0,South,15.0,,N/A,,Mostly Cloudy
4224,2016-08-16,1:51 PM,84.9,90.7,72.0,65%,30.15,10.0,South,18.4,25.3,N/A,,Mostly Cloudy
4225,2016-08-16,2:51 PM,84.9,93.3,75.0,72%,30.12,10.0,South,19.6,25.3,N/A,,Mostly Cloudy
4226,2016-08-16,3:51 PM,84.9,96.6,78.1,80%,30.09,10.0,South,24.2,36.8,N/A,,Mostly Cloudy
4227,2016-08-16,4:48 PM,82.4,90.9,77.0,84%,30.08,10.0,South,23.0,32.2,N/A,,Mostly Cloudy
4228,2016-08-16,4:51 PM,82.0,90.2,77.0,85%,30.08,10.0,South,23.0,32.2,N/A,,Mostly Cloudy
4229,2016-08-16,5:51 PM,84.0,92.6,75.9,76%,30.06,10.0,South,21.9,35.7,N/A,,Scattered Clouds
4230,2016-08-16,6:51 PM,82.0,89.4,75.9,82%,30.03,10.0,South,21.9,28.8,N/A,,Mostly Cloudy
4231,2016-08-16,7:51 PM,82.0,87.9,73.9,76%,30.02,10.0,South,20.7,29.9,N/A,,Mostly Cloudy
4232,2016-08-16,8:24 PM,82.0,87.9,73.9,76%,30.01,10.0,South,21.9,28.8,N/A,Thunderstorm,Thunderstorm
4233,2016-08-16,8:51 PM,82.0,87.9,73.9,76%,30.03,10.0,South,19.6,27.6,N/A,Thunderstorm,Thunderstorm
4234,2016-08-16,9:16 PM,82.0,87.9,73.9,76%,30.03,10.0,South,21.9,28.8,N/A,,Mostly Cloudy
4235,2016-08-16,9:51 PM,82.0,89.4,75.9,82%,30.02,10.0,SSW,17.3,23.0,N/A,,Mostly Cloudy
4236,2016-08-16,10:51 PM,82.0,90.2,77.0,85%,30.02,10.0,SSW,16.1,23.0,N/A,,Mostly Cloudy
4237,2016-08-16,11:51 PM,82.0,90.2,77.0,85%,30.02,10.0,SSW,15.0,,N/A,,Mostly Cloudy
4238,2016-08-17,12:51 AM,82.0,90.2,77.0,85%,29.99,10.0,SSW,17.3,24.2,N/A,,Mostly Cloudy
4239,2016-08-17,1:37 AM,82.0,90.2,77.0,85%,30.00,10.0,WSW,27.6,35.7,N/A,"Ra
	,
Thunderstorm",Light Thunderstorms and Ra
4240,2016-08-17,1:51 AM,82.0,90.2,77.0,85%,30.00,10.0,West,21.9,26.5,N/A,Thunderstorm,Thunderstorm
4241,2016-08-17,2:13 AM,78.1,,72.0,81%,29.98,10.0,WSW,20.7,29.9,N/A,,Mostly Cloudy
4242,2016-08-17,2:51 AM,78.1,,73.9,87%,29.99,10.0,WSW,20.7,25.3,N/A,,Overcast
4243,2016-08-17,3:51 AM,79.0,,73.9,84%,29.97,10.0,WSW,15.0,,N/A,,Overcast
4244,2016-08-17,4:51 AM,78.1,,73.9,87%,29.98,10.0,West,17.3,23.0,N/A,,Overcast
4245,2016-08-17,5:51 AM,77.0,,72.0,84%,29.99,10.0,West,16.1,21.9,N/A,,Mostly Cloudy
4246,2016-08-17,6:51 AM,78.1,,72.0,81%,29.99,10.0,West,18.4,25.3,N/A,,Mostly Cloudy
4247,2016-08-17,7:51 AM,79.0,,72.0,79%,30.00,10.0,West,16.1,24.2,N/A,,Mostly Cloudy
4248,2016-08-17,8:51 AM,80.1,83.6,71.1,74%,30.01,10.0,WNW,13.8,25.3,N/A,,Mostly Cloudy
4249,2016-08-17,9:51 AM,82.0,85.9,70.0,67%,30.01,10.0,WNW,19.6,27.6,N/A,,Mostly Cloudy
4250,2016-08-17,10:51 AM,82.9,85.0,66.0,56%,30.03,10.0,WNW,16.1,25.3,N/A,,Scattered Clouds
4251,2016-08-17,11:51 AM,82.9,84.6,64.9,54%,30.03,10.0,West,17.3,,N/A,,Scattered Clouds
4252,2016-08-17,12:51 PM,84.0,84.5,62.1,47%,30.02,10.0,West,13.8,28.8,N/A,,Scattered Clouds
4253,2016-08-17,1:51 PM,84.0,84.4,61.0,46%,30.02,10.0,NW,19.6,24.2,N/A,,Mostly Cloudy
4254,2016-08-17,2:51 PM,86.0,86.3,62.1,44%,30.01,10.0,NW,16.1,23.0,N/A,,Mostly Cloudy
4255,2016-08-17,3:51 PM,87.1,87.5,62.1,43%,30.00,10.0,NW,13.8,19.6,N/A,,Mostly Cloudy
4256,2016-08-17,4:51 PM,87.1,87.5,62.1,43%,29.99,10.0,NNW,11.5,16.1,N/A,,Mostly Cloudy
4257,2016-08-17,5:51 PM,84.0,84.9,63.0,49%,30.00,10.0,NW,15.0,,N/A,,Mostly Cloudy
4258,2016-08-17,6:51 PM,82.9,84.6,64.9,54%,30.01,10.0,NW,16.1,,N/A,,Mostly Cloudy
4259,2016-08-17,7:51 PM,82.0,83.8,64.9,56%,30.01,10.0,WNW,11.5,,N/A,,Mostly Cloudy
4260,2016-08-17,8:51 PM,81.0,82.7,64.9,58%,30.03,10.0,NW,9.2,,N/A,,Mostly Cloudy
4261,2016-08-17,9:51 PM,81.0,83.8,68.0,65%,30.05,10.0,NNW,10.4,,N/A,,Overcast
4262,2016-08-17,10:51 PM,80.1,82.1,66.0,62%,30.04,10.0,NNW,9.2,,N/A,,Overcast
4263,2016-08-17,11:51 PM,81.0,82.5,64.0,56%,30.02,10.0,NE,6.9,,N/A,,Overcast
4264,2016-08-18,12:51 AM,79.0,,66.9,66%,30.03,10.0,NE,4.6,,N/A,,Overcast
4265,2016-08-18,1:51 AM,79.0,,68.0,69%,30.03,10.0,East,3.5,,N/A,,Overcast
4266,2016-08-18,2:51 AM,78.1,,68.0,71%,30.03,10.0,SE,6.9,,N/A,,Overcast
4267,2016-08-18,3:51 AM,73.9,,68.0,82%,30.02,10.0,Calm,Calm,,N/A,Ra,Light Ra
4268,2016-08-18,4:51 AM,75.0,,64.0,69%,30.01,10.0,Calm,Calm,,N/A,,Overcast
4269,2016-08-18,5:51 AM,75.9,,64.0,67%,30.01,10.0,East,4.6,,N/A,,Overcast
4270,2016-08-18,6:51 AM,75.9,,68.0,76%,30.01,10.0,NE,5.8,,N/A,,Mostly Cloudy
4271,2016-08-18,7:51 AM,75.9,,69.1,79%,30.03,10.0,NE,6.9,,N/A,,Mostly Cloudy
4272,2016-08-18,8:51 AM,77.0,,70.0,79%,30.02,10.0,NE,3.5,,N/A,,Mostly Cloudy
4273,2016-08-18,9:51 AM,77.0,,69.1,76%,30.01,10.0,Calm,Calm,,N/A,,Mostly Cloudy
4274,2016-08-18,10:51 AM,78.1,,71.1,79%,30.02,10.0,SE,6.9,,N/A,,Overcast
4275,2016-08-18,11:51 AM,78.1,,69.1,74%,30.01,10.0,Calm,Calm,,N/A,,Overcast
4276,2016-08-18,12:51 PM,79.0,,68.0,69%,30.00,10.0,Calm,Calm,,N/A,,Mostly Cloudy
4277,2016-08-18,1:51 PM,80.1,82.9,69.1,69%,29.99,10.0,Calm,Calm,,N/A,,Mostly Cloudy
4278,2016-08-18,2:51 PM,84.9,88.8,69.1,59%,29.97,10.0,SW,5.8,,N/A,,Mostly Cloudy
4279,2016-08-18,3:51 PM,82.9,86.5,69.1,63%,29.96,10.0,SSW,6.9,,N/A,,Mostly Cloudy
4280,2016-08-18,4:51 PM,82.0,86.7,72.0,71%,29.94,10.0,South,4.6,,N/A,,Scattered Clouds
4281,2016-08-18,5:51 PM,82.0,87.4,73.0,74%,29.94,10.0,SSW,6.9,,N/A,,Scattered Clouds
4282,2016-08-18,6:51 PM,80.1,84.5,73.9,81%,29.93,10.0,South,8.1,,N/A,,Scattered Clouds
4283,2016-08-18,7:51 PM,80.1,84.5,73.9,81%,29.94,10.0,South,9.2,,N/A,,Scattered Clouds
4284,2016-08-18,8:51 PM,79.0,,73.9,84%,29.95,10.0,South,10.4,,N/A,,Scattered Clouds
4285,2016-08-18,9:51 PM,78.1,,73.9,87%,29.96,10.0,South,6.9,,N/A,,Scattered Clouds
4286,2016-08-18,10:51 PM,75.9,,72.0,87%,29.96,10.0,South,8.1,,N/A,,Scattered Clouds
4287,2016-08-18,11:51 PM,75.9,,72.0,87%,29.95,10.0,South,6.9,,N/A,,Scattered Clouds
4288,2016-08-19,12:51 AM,75.9,,73.0,91%,29.95,10.0,SW,4.6,,N/A,,Scattered Clouds
4289,2016-08-19,1:51 AM,75.9,,72.0,87%,29.94,10.0,SW,4.6,,N/A,,Scattered Clouds
4290,2016-08-19,2:51 AM,75.9,,72.0,87%,29.94,10.0,WSW,5.8,,N/A,,Scattered Clouds
4291,2016-08-19,3:51 AM,75.9,,72.0,87%,29.93,10.0,WNW,5.8,,N/A,,Partly Cloudy
4292,2016-08-19,4:51 AM,75.9,,72.0,87%,29.94,10.0,North,5.8,,N/A,,Partly Cloudy
4293,2016-08-19,5:51 AM,75.9,,71.1,85%,29.94,10.0,NNE,4.6,,N/A,,Scattered Clouds
4294,2016-08-19,6:51 AM,75.9,,70.0,82%,29.95,10.0,North,11.5,,N/A,,Mostly Cloudy
4295,2016-08-19,7:51 AM,75.9,,69.1,79%,29.96,10.0,North,13.8,,N/A,,Mostly Cloudy
4296,2016-08-19,8:51 AM,78.1,,68.0,71%,29.96,10.0,North,15.0,,N/A,,Scattered Clouds
4297,2016-08-19,9:51 AM,79.0,,69.1,72%,29.95,10.0,North,15.0,20.7,N/A,,Mostly Cloudy
4298,2016-08-19,10:51 AM,82.0,84.9,68.0,62%,29.96,10.0,NNE,4.6,,N/A,,Scattered Clouds
4299,2016-08-19,11:51 AM,84.0,87.8,69.1,61%,29.95,10.0,NE,8.1,,N/A,,Mostly Cloudy
4300,2016-08-19,12:51 PM,84.9,89.4,70.0,61%,29.94,10.0,Calm,Calm,,N/A,,Scattered Clouds
4301,2016-08-19,1:51 PM,87.1,92.8,71.1,59%,29.93,10.0,South,10.4,,N/A,,Scattered Clouds
4302,2016-08-19,2:51 PM,86.0,93.8,73.9,67%,29.92,10.0,South,10.4,,N/A,,Scattered Clouds
4303,2016-08-19,3:51 PM,84.9,92.1,73.9,69%,29.91,10.0,South,10.4,,N/A,,Scattered Clouds
4304,2016-08-19,4:51 PM,84.9,92.1,73.9,69%,29.91,10.0,SE,11.5,,N/A,,Scattered Clouds
4305,2016-08-19,5:51 PM,82.9,89.4,73.9,74%,29.90,10.0,SE,8.1,,N/A,,Scattered Clouds
4306,2016-08-19,6:51 PM,81.0,86.7,75.0,82%,29.91,10.0,SSE,9.2,,N/A,,Scattered Clouds
4307,2016-08-19,7:51 PM,80.1,85.1,75.0,85%,29.91,10.0,SE,9.2,,N/A,,Mostly Cloudy
4308,2016-08-19,8:51 PM,78.1,,73.9,87%,29.93,10.0,North,11.5,,N/A,Ra,Light Ra
4309,2016-08-19,9:51 PM,78.1,,73.9,87%,29.94,10.0,South,3.5,,N/A,,Mostly Cloudy
4310,2016-08-19,10:51 PM,77.0,,73.9,90%,29.94,10.0,Calm,Calm,,N/A,,Mostly Cloudy
4311,2016-08-19,11:51 PM,78.1,,73.9,87%,29.94,10.0,Calm,Calm,,N/A,,Mostly Cloudy
4312,2016-08-20,12:51 AM,78.1,,73.9,87%,29.94,10.0,East,4.6,,N/A,,Mostly Cloudy
4313,2016-08-20,1:51 AM,79.0,,73.9,84%,29.94,10.0,East,5.8,,N/A,,Scattered Clouds
4314,2016-08-20,2:51 AM,78.1,,73.9,87%,29.94,10.0,East,5.8,,N/A,,Partly Cloudy
4315,2016-08-20,3:51 AM,77.0,,73.0,88%,29.94,10.0,East,3.5,,N/A,,Partly Cloudy
4316,2016-08-20,4:51 AM,75.9,,72.0,87%,29.94,10.0,Calm,Calm,,N/A,,Scattered Clouds
4317,2016-08-20,5:51 AM,75.0,,72.0,90%,29.94,10.0,East,4.6,,N/A,,Mostly Cloudy
4318,2016-08-20,6:51 AM,75.0,,72.0,90%,29.95,10.0,ENE,4.6,,N/A,,Scattered Clouds
4319,2016-08-20,7:51 AM,78.1,,72.0,81%,29.95,10.0,ENE,4.6,,N/A,,Mostly Cloudy
4320,2016-08-20,8:51 AM,80.1,84.2,73.0,79%,29.94,10.0,ENE,6.9,,N/A,,Scattered Clouds
4321,2016-08-20,9:51 AM,82.9,88.8,73.0,72%,29.95,10.0,ESE,6.9,,N/A,,Mostly Cloudy
4322,2016-08-20,10:23 AM,82.0,87.9,73.9,76%,29.95,10.0,Calm,Calm,,N/A,,Mostly Cloudy
4323,2016-08-20,10:51 AM,82.0,87.9,73.9,76%,29.95,10.0,Calm,Calm,,N/A,,Mostly Cloudy
4324,2016-08-20,11:51 AM,84.9,92.1,73.9,69%,29.94,10.0,SSE,12.7,,N/A,,Mostly Cloudy
4325,2016-08-20,12:51 PM,84.9,92.1,73.9,69%,29.94,10.0,South,10.4,,N/A,,Mostly Cloudy
4326,2016-08-20,1:51 PM,87.1,96.3,75.0,67%,29.94,10.0,Calm,Calm,,N/A,,Mostly Cloudy
4327,2016-08-20,2:51 PM,79.0,,71.1,77%,29.94,10.0,NNE,10.4,,N/A,Ra,Light Ra
4328,2016-08-20,3:51 PM,80.1,84.5,73.9,81%,29.93,10.0,East,10.4,,N/A,Ra,Light Ra
4329,2016-08-20,4:51 PM,77.0,,70.0,79%,29.91,10.0,SE,16.1,,N/A,,Mostly Cloudy
4330,2016-08-20,5:51 PM,73.9,,66.0,76%,29.91,10.0,SSE,16.1,,N/A,,Scattered Clouds
4331,2016-08-20,6:51 PM,73.9,,66.9,79%,29.91,10.0,SE,13.8,,N/A,,Scattered Clouds
4332,2016-08-20,7:51 PM,75.0,,66.9,76%,29.91,10.0,SE,6.9,,N/A,,Scattered Clouds
4333,2016-08-20,8:51 PM,75.0,,66.9,76%,29.93,10.0,SE,9.2,,N/A,,Scattered Clouds
4334,2016-08-20,9:51 PM,75.9,,66.0,71%,29.93,10.0,SE,8.1,,N/A,,Partly Cloudy
4335,2016-08-20,10:51 PM,79.0,,71.1,77%,29.93,10.0,SE,8.1,,N/A,,Scattered Clouds
4336,2016-08-20,11:51 PM,79.0,,72.0,79%,29.94,10.0,ESE,6.9,,N/A,,Scattered Clouds
4337,2016-08-21,12:51 AM,78.1,,72.0,81%,29.93,10.0,ESE,6.9,,N/A,,Scattered Clouds
4338,2016-08-21,1:51 AM,78.1,,72.0,81%,29.91,10.0,ESE,8.1,,N/A,,Scattered Clouds
4339,2016-08-21,2:51 AM,78.1,,72.0,81%,29.90,10.0,ESE,8.1,,N/A,,Mostly Cloudy
4340,2016-08-21,3:51 AM,77.0,,72.0,84%,29.89,10.0,SE,8.1,,N/A,,Scattered Clouds
4341,2016-08-21,4:51 AM,77.0,,72.0,84%,29.88,10.0,ESE,9.2,,N/A,,Scattered Clouds
4342,2016-08-21,5:51 AM,77.0,,73.0,88%,29.88,10.0,ESE,9.2,,N/A,,Scattered Clouds
4343,2016-08-21,6:51 AM,78.1,,73.9,87%,29.88,10.0,ESE,9.2,,N/A,,Mostly Cloudy
4344,2016-08-21,7:51 AM,79.0,,73.0,82%,29.89,10.0,SE,10.4,,N/A,,Mostly Cloudy
4345,2016-08-21,8:51 AM,80.1,85.1,75.0,85%,29.89,10.0,SSE,12.7,,N/A,,Scattered Clouds
4346,2016-08-21,9:51 AM,82.0,88.6,75.0,79%,29.89,10.0,SE,11.5,,N/A,,Scattered Clouds
4347,2016-08-21,10:51 AM,82.9,90.8,75.9,79%,29.89,10.0,ESE,12.7,18.4,N/A,,Mostly Cloudy
4348,2016-08-21,11:51 AM,84.0,92.6,75.9,76%,29.88,10.0,South,9.2,20.7,N/A,,Mostly Cloudy
4349,2016-08-21,12:51 PM,84.0,92.6,75.9,76%,29.86,10.0,South,15.0,23.0,N/A,,Mostly Cloudy
4350,2016-08-21,1:51 PM,84.0,93.7,77.0,79%,29.84,10.0,SSE,16.1,24.2,N/A,,Mostly Cloudy
4351,2016-08-21,2:51 PM,84.0,91.9,75.0,74%,29.83,10.0,SSE,18.4,26.5,N/A,,Mostly Cloudy
4352,2016-08-21,3:51 PM,82.9,91.8,77.0,82%,29.81,10.0,SSE,15.0,26.5,N/A,,Mostly Cloudy
4353,2016-08-21,4:51 PM,81.0,87.3,75.9,85%,29.79,10.0,SSE,16.1,23.0,N/A,,Mostly Cloudy
4354,2016-08-21,5:51 PM,81.0,86.2,73.9,79%,29.80,10.0,South,15.0,21.9,N/A,Ra,Light Ra
4355,2016-08-21,6:51 PM,80.1,84.5,73.9,81%,29.80,9.0,South,11.5,18.4,N/A,Ra,Light Ra
4356,2016-08-21,7:51 PM,78.1,,73.9,87%,29.78,10.0,South,16.1,25.3,N/A,Ra,Light Ra
4357,2016-08-21,8:51 PM,79.0,,73.9,84%,29.80,10.0,SSW,19.6,26.5,N/A,Ra,Light Ra
4358,2016-08-21,9:51 PM,78.1,,73.9,87%,29.80,10.0,SSW,10.4,,N/A,,Overcast
4359,2016-08-21,10:51 PM,78.1,,73.0,84%,29.80,10.0,WSW,11.5,,N/A,,Overcast
4360,2016-08-21,11:51 PM,78.1,,73.9,87%,29.80,10.0,WSW,15.0,20.7,N/A,,Overcast
4361,2016-08-24,12:51 AM,70.0,,63.0,78%,30.30,10.0,WSW,9.2,,N/A,,Clear
4362,2016-08-24,1:51 AM,70.0,,64.0,81%,30.28,10.0,SW,6.9,,N/A,,Clear
4363,2016-08-24,2:51 AM,70.0,,63.0,78%,30.27,10.0,WSW,4.6,,N/A,,Clear
4364,2016-08-24,3:51 AM,70.0,,64.0,81%,30.27,10.0,WSW,5.8,,N/A,,Clear
4365,2016-08-24,4:51 AM,66.9,,63.0,87%,30.27,10.0,SW,3.5,,N/A,,Partly Cloudy
4366,2016-08-24,5:51 AM,68.0,,63.0,84%,30.27,10.0,West,4.6,,N/A,,Clear
4367,2016-08-24,6:51 AM,68.0,,63.0,84%,30.29,10.0,West,4.6,,N/A,,Partly Cloudy
4368,2016-08-24,7:51 AM,70.0,,63.0,78%,30.30,10.0,West,5.8,,N/A,,Partly Cloudy
4369,2016-08-24,8:51 AM,73.9,,64.0,71%,30.30,10.0,WSW,6.9,,N/A,,Partly Cloudy
4370,2016-08-24,9:51 AM,77.0,,62.1,60%,30.29,10.0,West,9.2,,N/A,,Partly Cloudy
4371,2016-08-24,10:51 AM,80.1,81.1,61.0,52%,30.28,10.0,SW,5.8,,N/A,,Partly Cloudy
4372,2016-08-24,11:51 AM,82.0,83.4,64.0,54%,30.27,10.0,SSW,9.2,,N/A,,Partly Cloudy
4373,2016-08-24,12:51 PM,82.9,83.7,62.1,49%,30.26,10.0,SSW,11.5,,N/A,,Partly Cloudy
4374,2016-08-24,1:51 PM,84.9,84.8,60.1,43%,30.24,10.0,South,12.7,18.4,N/A,,Partly Cloudy
4375,2016-08-24,2:51 PM,80.1,81.9,64.9,60%,30.23,10.0,South,15.0,,N/A,,Scattered Clouds
4376,2016-08-24,3:51 PM,81.0,82.7,64.9,58%,30.21,10.0,South,15.0,,N/A,,Scattered Clouds
4377,2016-08-24,4:51 PM,79.0,,66.0,64%,30.19,10.0,South,19.6,24.2,N/A,,Scattered Clouds
4378,2016-08-24,5:51 PM,79.0,,66.0,64%,30.19,10.0,South,17.3,,N/A,,Scattered Clouds
4379,2016-08-24,6:51 PM,78.1,,69.1,74%,30.18,10.0,South,15.0,23.0,N/A,,Scattered Clouds
4380,2016-08-24,7:51 PM,77.0,,71.1,82%,30.18,10.0,South,16.1,24.2,N/A,,Scattered Clouds
4381,2016-08-24,8:51 PM,75.9,,71.1,85%,30.19,10.0,South,18.4,25.3,N/A,,Scattered Clouds
4382,2016-08-24,9:51 PM,75.9,,71.1,85%,30.19,10.0,South,19.6,25.3,N/A,,Scattered Clouds
4383,2016-08-24,10:51 PM,75.0,,69.1,82%,30.19,10.0,SSW,16.1,23.0,N/A,,Scattered Clouds
4384,2016-08-24,11:51 PM,73.0,,68.0,84%,30.19,10.0,SW,16.1,27.6,N/A,,Partly Cloudy
4385,2016-08-25,12:51 AM,72.0,,66.9,84%,30.18,10.0,SW,12.7,,N/A,,Scattered Clouds
4386,2016-08-25,1:51 AM,71.1,,66.9,87%,30.16,10.0,SW,13.8,,N/A,,Mostly Cloudy
4387,2016-08-25,2:51 AM,71.1,,66.9,87%,30.15,10.0,SW,11.5,,N/A,,Mostly Cloudy
4388,2016-08-25,3:51 AM,71.1,,66.9,87%,30.13,10.0,WSW,15.0,19.6,N/A,,Mostly Cloudy
4389,2016-08-25,4:51 AM,71.1,,66.9,87%,30.14,10.0,WSW,13.8,,N/A,,Scattered Clouds
4390,2016-08-25,5:51 AM,70.0,,66.0,87%,30.14,10.0,WSW,11.5,,N/A,,Mostly Cloudy
4391,2016-08-25,6:51 AM,71.1,,66.9,87%,30.14,10.0,SW,8.1,,N/A,,Mostly Cloudy
4392,2016-08-25,7:51 AM,72.0,,66.9,84%,30.15,10.0,SW,10.4,,N/A,,Mostly Cloudy
4393,2016-08-25,8:51 AM,73.9,,66.0,76%,30.14,10.0,SSW,8.1,,N/A,,Mostly Cloudy
4394,2016-08-25,9:51 AM,77.0,,66.9,71%,30.13,10.0,South,8.1,,N/A,,Mostly Cloudy
4395,2016-08-25,10:51 AM,79.0,,66.9,66%,30.12,10.0,South,11.5,,N/A,,Mostly Cloudy
4396,2016-08-25,11:51 AM,80.1,82.3,66.9,64%,30.12,10.0,South,17.3,25.3,N/A,,Mostly Cloudy
4397,2016-08-25,12:51 PM,81.0,83.0,66.0,60%,30.09,10.0,South,17.3,25.3,N/A,,Mostly Cloudy
4398,2016-08-25,1:51 PM,81.0,83.3,66.9,62%,30.08,10.0,South,19.6,28.8,N/A,,Mostly Cloudy
4399,2016-08-25,2:51 PM,80.1,83.6,71.1,74%,30.06,10.0,South,19.6,31.1,N/A,,Mostly Cloudy
4400,2016-08-25,3:51 PM,79.0,,72.0,79%,30.04,10.0,South,21.9,29.9,N/A,,Mostly Cloudy
4401,2016-08-25,4:51 PM,78.1,,73.0,84%,30.03,10.0,South,21.9,32.2,N/A,,Mostly Cloudy
4402,2016-08-25,5:51 PM,78.1,,73.0,84%,30.01,10.0,South,20.7,27.6,N/A,,Mostly Cloudy
4403,2016-08-25,6:51 PM,78.1,,73.9,87%,30.01,10.0,South,19.6,27.6,N/A,,Mostly Cloudy
4404,2016-08-25,7:51 PM,78.1,,73.9,87%,30.01,10.0,South,16.1,23.0,N/A,,Mostly Cloudy
4405,2016-08-25,8:51 PM,78.1,,73.9,87%,30.02,10.0,South,16.1,21.9,N/A,,Mostly Cloudy
4406,2016-08-25,9:51 PM,75.9,,73.9,94%,30.02,10.0,SSW,11.5,,N/A,,Mostly Cloudy
4407,2016-08-25,10:51 PM,75.9,,72.0,87%,30.02,10.0,SSW,8.1,,N/A,,Scattered Clouds
4408,2016-08-25,11:51 PM,75.0,,72.0,90%,30.01,10.0,SSW,8.1,,N/A,,Scattered Clouds
4409,2016-08-26,12:51 AM,75.0,,72.0,90%,30.01,10.0,SSW,6.9,,N/A,,Partly Cloudy
4410,2016-08-26,1:51 AM,75.0,,72.0,90%,29.99,10.0,South,8.1,,N/A,,Partly Cloudy
4411,2016-08-26,2:51 AM,73.9,,71.1,91%,30.00,10.0,South,6.9,,N/A,,Partly Cloudy
4412,2016-08-26,3:51 AM,73.9,,71.1,91%,30.00,10.0,SSW,8.1,,N/A,,Scattered Clouds
4413,2016-08-26,4:51 AM,73.0,,69.1,87%,29.99,10.0,SSW,6.9,,N/A,,Scattered Clouds
4414,2016-08-26,5:51 AM,73.9,,70.0,87%,30.00,10.0,SSW,9.2,,N/A,,Mostly Cloudy
4415,2016-08-26,6:51 AM,75.0,,70.0,84%,30.00,10.0,SSW,8.1,,N/A,,Mostly Cloudy
4416,2016-08-26,7:51 AM,75.9,,71.1,85%,30.01,10.0,SSW,8.1,,N/A,,Mostly Cloudy
4417,2016-08-26,8:51 AM,77.0,,72.0,84%,30.00,10.0,WSW,10.4,,N/A,,Mostly Cloudy
4418,2016-08-26,9:51 AM,81.0,86.2,73.9,79%,30.00,10.0,WSW,6.9,,N/A,,Scattered Clouds
4419,2016-08-26,10:51 AM,84.0,91.2,73.9,72%,29.99,10.0,WSW,9.2,,N/A,,Scattered Clouds
4420,2016-08-26,11:51 AM,86.0,93.0,73.0,65%,29.99,10.0,WSW,8.1,,N/A,,Scattered Clouds
4421,2016-08-26,12:51 PM,88.0,93.8,71.1,57%,29.98,10.0,NNW,17.3,21.9,N/A,,Scattered Clouds
4422,2016-08-26,1:51 PM,90.0,93.6,68.0,48%,29.97,10.0,North,16.1,23.0,N/A,,Scattered Clouds
4423,2016-08-26,2:51 PM,91.9,97.4,70.0,48%,29.97,10.0,North,11.5,18.4,N/A,,Mostly Cloudy
4424,2016-08-26,3:51 PM,91.9,97.4,70.0,48%,29.98,10.0,NNW,13.8,21.9,N/A,,Scattered Clouds
4425,2016-08-26,4:51 PM,91.9,97.4,70.0,48%,29.98,10.0,NNW,16.1,24.2,N/A,,Scattered Clouds
4426,2016-08-26,5:51 PM,91.0,96.6,70.0,50%,29.99,10.0,North,16.1,23.0,N/A,,Scattered Clouds
4427,2016-08-26,6:51 PM,89.1,93.7,69.1,52%,30.00,10.0,North,10.4,,N/A,,Scattered Clouds
4428,2016-08-26,7:51 PM,86.0,90.7,70.0,59%,30.01,10.0,NNW,12.7,,N/A,,Scattered Clouds
4429,2016-08-26,8:51 PM,86.0,89.4,68.0,55%,30.03,10.0,NNW,9.2,,N/A,,Scattered Clouds
4430,2016-08-26,9:51 PM,82.9,86.5,69.1,63%,30.05,10.0,NNW,11.5,,N/A,,Scattered Clouds
4431,2016-08-26,10:51 PM,82.0,84.9,68.0,62%,30.06,10.0,North,11.5,,N/A,,Partly Cloudy
4432,2016-08-26,11:51 PM,82.0,83.8,64.9,56%,30.07,10.0,North,10.4,,N/A,,Partly Cloudy
4433,2016-08-27,12:51 AM,80.1,81.7,64.0,58%,30.09,10.0,North,9.2,,N/A,,Partly Cloudy
4434,2016-08-27,1:51 AM,79.0,,63.0,58%,30.09,10.0,North,10.4,,N/A,,Partly Cloudy
4435,2016-08-27,2:51 AM,77.0,,63.0,62%,30.10,10.0,NNE,8.1,,N/A,,Partly Cloudy
4436,2016-08-27,3:51 AM,77.0,,61.0,58%,30.10,10.0,NE,8.1,,N/A,,Partly Cloudy
4437,2016-08-27,4:51 AM,75.0,,61.0,62%,30.12,10.0,NNE,8.1,,N/A,,Partly Cloudy
4438,2016-08-27,5:51 AM,75.0,,61.0,62%,30.14,10.0,NNE,8.1,,N/A,,Partly Cloudy
4439,2016-08-27,6:51 AM,73.9,,62.1,66%,30.16,10.0,NNE,11.5,,N/A,,Partly Cloudy
4440,2016-08-27,7:51 AM,75.0,,62.1,64%,30.17,10.0,NNE,12.7,,N/A,,Partly Cloudy
4441,2016-08-27,8:51 AM,79.0,,62.1,56%,30.18,10.0,NE,11.5,,N/A,,Partly Cloudy
4442,2016-08-27,9:51 AM,82.9,83.7,62.1,49%,30.19,10.0,NE,6.9,,N/A,,Partly Cloudy
4443,2016-08-27,10:51 AM,84.9,84.4,59.0,41%,30.19,10.0,ENE,8.1,,N/A,,Partly Cloudy
4444,2016-08-27,11:51 AM,87.1,86.7,60.1,40%,30.19,10.0,ENE,9.2,,N/A,,Scattered Clouds
4445,2016-08-27,12:51 PM,87.1,86.7,60.1,40%,30.19,10.0,SE,15.0,19.6,N/A,,Scattered Clouds
4446,2016-08-27,1:51 PM,87.1,86.1,57.9,37%,30.19,10.0,SE,16.1,20.7,N/A,,Scattered Clouds
4447,2016-08-27,2:51 PM,84.0,83.8,59.0,43%,30.19,10.0,SE,15.0,21.9,N/A,,Mostly Cloudy
4448,2016-08-27,3:51 PM,84.0,83.8,59.0,43%,30.18,10.0,SE,12.7,,N/A,,Mostly Cloudy
4449,2016-08-27,4:51 PM,82.0,83.1,63.0,52%,30.18,10.0,SE,10.4,,N/A,,Mostly Cloudy
4450,2016-08-27,5:51 PM,82.0,83.0,62.1,51%,30.19,10.0,SSE,6.9,,N/A,,Mostly Cloudy
4451,2016-08-27,6:51 PM,81.0,81.3,59.0,47%,30.19,10.0,SSE,6.9,,N/A,,Mostly Cloudy
4452,2016-08-27,7:51 PM,80.1,80.6,57.9,47%,30.20,10.0,SE,4.6,,N/A,,Scattered Clouds
4453,2016-08-27,8:51 PM,80.1,80.6,57.9,47%,30.22,10.0,Calm,Calm,,N/A,,Scattered Clouds
4454,2016-08-27,9:51 PM,79.0,,59.0,50%,30.23,10.0,ESE,4.6,,N/A,,Scattered Clouds
4455,2016-08-27,10:51 PM,78.1,,60.1,54%,30.24,10.0,Calm,Calm,,N/A,,Partly Cloudy
4456,2016-08-27,11:51 PM,75.9,,62.1,62%,30.23,10.0,Calm,Calm,,N/A,,Scattered Clouds
4457,2016-08-28,12:51 AM,75.0,,64.9,71%,30.24,10.0,Calm,Calm,,N/A,,Partly Cloudy
4458,2016-08-28,1:51 AM,73.9,,64.9,73%,30.22,10.0,East,3.5,,N/A,,Partly Cloudy
4459,2016-08-28,2:51 AM,73.9,,64.9,73%,30.22,10.0,East,3.5,,N/A,,Partly Cloudy
4460,2016-08-28,3:51 AM,73.0,,66.0,79%,30.23,10.0,East,3.5,,N/A,,Partly Cloudy
4461,2016-08-28,4:51 AM,73.9,,66.9,79%,30.23,10.0,East,3.5,,N/A,,Partly Cloudy
4462,2016-08-28,5:51 AM,73.9,,70.0,87%,30.25,10.0,NE,5.8,,N/A,,Partly Cloudy
4463,2016-08-28,6:51 AM,75.0,,70.0,84%,30.27,10.0,NE,5.8,,N/A,,Partly Cloudy
4464,2016-08-28,7:51 AM,75.9,,69.1,79%,30.27,10.0,ENE,3.5,,N/A,,Partly Cloudy
4465,2016-08-28,8:51 AM,77.0,,70.0,79%,30.28,10.0,Calm,Calm,,N/A,,Partly Cloudy
4466,2016-08-28,9:51 AM,80.1,82.3,66.9,64%,30.28,10.0,Calm,Calm,,N/A,,Partly Cloudy
4467,2016-08-28,10:51 AM,82.0,84.5,66.9,60%,30.28,10.0,SE,6.9,,N/A,,Scattered Clouds
4468,2016-08-28,11:51 AM,82.0,83.1,63.0,52%,30.27,10.0,South,6.9,,N/A,,Scattered Clouds
4469,2016-08-28,12:51 PM,82.9,83.7,62.1,49%,30.26,10.0,SSW,5.8,,N/A,,Scattered Clouds
4470,2016-08-28,1:51 PM,82.0,82.4,60.1,47%,30.26,10.0,South,8.1,,N/A,,Scattered Clouds
4471,2016-08-28,2:51 PM,81.0,81.3,59.0,47%,30.24,10.0,South,11.5,,N/A,,Scattered Clouds
4472,2016-08-28,3:51 PM,81.0,81.3,59.0,47%,30.22,10.0,SSE,11.5,,N/A,,Partly Cloudy
4473,2016-08-28,4:51 PM,81.0,81.3,59.0,47%,30.20,10.0,SSE,13.8,,N/A,,Partly Cloudy
4474,2016-08-28,5:51 PM,80.1,80.9,60.1,50%,30.19,10.0,SSE,10.4,,N/A,,Partly Cloudy
4475,2016-08-28,6:51 PM,80.1,81.2,62.1,54%,30.18,10.0,SE,10.4,,N/A,,Partly Cloudy
4476,2016-08-28,7:51 PM,78.1,,63.0,60%,30.17,10.0,SE,10.4,,N/A,,Partly Cloudy
4477,2016-08-28,8:51 PM,77.0,,64.9,66%,30.17,10.0,SSE,12.7,,N/A,,Partly Cloudy
4478,2016-08-28,9:51 PM,78.1,,66.0,66%,30.17,10.0,South,8.1,,N/A,,Partly Cloudy
4479,2016-08-28,10:51 PM,75.9,,72.0,87%,30.18,10.0,South,6.9,,N/A,,Partly Cloudy
4480,2016-08-28,11:51 PM,75.0,,71.1,87%,30.19,10.0,SW,10.4,,N/A,,Scattered Clouds
4481,2016-08-29,12:51 AM,73.9,,71.1,91%,30.18,10.0,SW,8.1,,N/A,,Mostly Cloudy
4482,2016-08-29,1:51 AM,73.9,,71.1,91%,30.16,10.0,SW,8.1,,N/A,,Mostly Cloudy
4483,2016-08-29,2:51 AM,73.9,,70.0,87%,30.16,10.0,SW,10.4,,N/A,,Mostly Cloudy
4484,2016-08-29,3:51 AM,73.9,,70.0,87%,30.14,10.0,WSW,8.1,,N/A,,Overcast
4485,2016-08-29,4:51 AM,73.9,,70.0,87%,30.12,10.0,WSW,8.1,,N/A,,Mostly Cloudy
4486,2016-08-29,5:51 AM,72.0,,68.0,87%,30.12,10.0,SW,6.9,,N/A,,Scattered Clouds
4487,2016-08-29,6:51 AM,73.0,,68.0,84%,30.13,10.0,WSW,8.1,,N/A,,Mostly Cloudy
4488,2016-08-29,7:51 AM,75.9,,68.0,76%,30.13,10.0,West,11.5,,N/A,,Mostly Cloudy
4489,2016-08-29,8:51 AM,78.1,,66.9,68%,30.12,10.0,West,10.4,,N/A,,Mostly Cloudy
4490,2016-08-29,9:51 AM,82.0,84.9,68.0,62%,30.12,10.0,NNW,6.9,,N/A,,Mostly Cloudy
4491,2016-08-29,10:51 AM,84.9,88.2,68.0,57%,30.11,10.0,NNW,12.7,,N/A,,Scattered Clouds
4492,2016-08-29,11:51 AM,87.1,89.9,66.9,51%,30.10,10.0,North,5.8,,N/A,,Scattered Clouds
4493,2016-08-29,12:51 PM,88.0,89.6,64.9,46%,30.10,10.0,North,10.4,19.6,N/A,,Scattered Clouds
4494,2016-08-29,1:51 PM,90.0,91.3,64.0,42%,30.08,10.0,North,8.1,,N/A,,Partly Cloudy
4495,2016-08-29,2:51 PM,93.9,92.9,57.9,30%,30.06,10.0,North,12.7,23.0,N/A,,Scattered Clouds
4496,2016-08-29,3:51 PM,91.0,90.0,57.9,33%,30.06,10.0,West,9.2,,N/A,,Scattered Clouds
4497,2016-08-29,4:51 PM,90.0,89.1,59.0,35%,30.06,10.0,North,13.8,24.2,N/A,,Scattered Clouds
4498,2016-08-29,5:51 PM,89.1,88.2,59.0,36%,30.06,10.0,North,13.8,24.2,N/A,,Partly Cloudy
4499,2016-08-29,6:51 PM,87.1,86.1,57.9,37%,30.07,10.0,North,11.5,,N/A,,Partly Cloudy
4500,2016-08-29,7:51 PM,84.0,84.0,60.1,44%,30.09,10.0,NNE,11.5,16.1,N/A,,Partly Cloudy
4501,2016-08-29,8:51 PM,82.9,83.3,61.0,47%,30.11,10.0,North,11.5,,N/A,,Partly Cloudy
4502,2016-08-29,9:51 PM,80.1,80.9,60.1,50%,30.13,10.0,NE,9.2,,N/A,,Partly Cloudy
4503,2016-08-29,10:51 PM,78.1,,59.0,52%,30.13,10.0,NNE,13.8,,N/A,,Partly Cloudy
4504,2016-08-29,11:51 PM,75.0,,60.1,60%,30.13,10.0,NNE,9.2,,N/A,,Clear
4505,2016-08-30,12:51 AM,73.0,,62.1,68%,30.15,10.0,NE,6.9,,N/A,,Clear
4506,2016-08-30,1:51 AM,73.9,,60.1,62%,30.14,10.0,NNE,8.1,,N/A,,Partly Cloudy
4507,2016-08-30,2:51 AM,73.0,,60.1,64%,30.14,10.0,NE,9.2,,N/A,,Partly Cloudy
4508,2016-08-30,3:51 AM,72.0,,61.0,68%,30.14,10.0,NE,10.4,,N/A,,Partly Cloudy
4509,2016-08-30,4:51 AM,72.0,,61.0,68%,30.16,10.0,NE,9.2,,N/A,,Scattered Clouds
4510,2016-08-30,5:51 AM,72.0,,62.1,71%,30.16,10.0,NE,10.4,,N/A,,Partly Cloudy
4511,2016-08-30,6:51 AM,71.1,,60.1,68%,30.17,10.0,ENE,9.2,,N/A,,Partly Cloudy
4512,2016-08-30,7:51 AM,72.0,,60.1,66%,30.17,10.0,ENE,10.4,,N/A,,Scattered Clouds
4513,2016-08-30,8:51 AM,75.0,,61.0,62%,30.18,10.0,ENE,6.9,,N/A,,Scattered Clouds
4514,2016-08-30,9:51 AM,78.1,,62.1,58%,30.18,10.0,ESE,6.9,,N/A,,Mostly Cloudy
4515,2016-08-30,10:51 AM,79.0,,63.0,58%,30.18,10.0,East,3.5,,N/A,,Mostly Cloudy
4516,2016-08-30,11:51 AM,80.1,81.7,64.0,58%,30.16,10.0,South,6.9,,N/A,,Scattered Clouds
4517,2016-08-30,12:51 PM,82.0,83.4,64.0,54%,30.15,10.0,SE,8.1,,N/A,,Scattered Clouds
4518,2016-08-30,1:51 PM,82.0,83.8,64.9,56%,30.14,10.0,SSW,9.2,,N/A,,Scattered Clouds
4519,2016-08-30,2:51 PM,81.0,82.7,64.9,58%,30.11,10.0,South,6.9,,N/A,,Scattered Clouds
4520,2016-08-30,3:51 PM,79.0,,64.0,60%,30.09,10.0,South,11.5,,N/A,,Scattered Clouds
4521,2016-08-30,4:51 PM,80.1,82.1,66.0,62%,30.07,10.0,South,10.4,,N/A,,Scattered Clouds
4522,2016-08-30,5:51 PM,79.0,,70.0,74%,30.07,10.0,SSE,10.4,,N/A,,Scattered Clouds
4523,2016-08-30,6:51 PM,78.1,,72.0,81%,30.06,10.0,South,13.8,,N/A,,Mostly Cloudy
4524,2016-08-30,7:51 PM,77.0,,72.0,84%,30.06,10.0,SSE,10.4,,N/A,,Mostly Cloudy
4525,2016-08-30,8:51 PM,75.9,,73.0,91%,30.06,10.0,South,8.1,,N/A,,Mostly Cloudy
4526,2016-08-30,9:51 PM,75.9,,72.0,87%,30.06,10.0,South,9.2,,N/A,,Mostly Cloudy
4527,2016-08-30,10:51 PM,75.0,,72.0,90%,30.07,10.0,South,8.1,,N/A,,Mostly Cloudy
4528,2016-08-30,11:51 PM,75.0,,71.1,87%,30.06,10.0,South,8.1,,N/A,,Mostly Cloudy
4529,2016-08-31,12:34 AM,75.0,,71.1,87%,30.06,10.0,SSW,6.9,,N/A,,Mostly Cloudy
4530,2016-08-31,12:51 AM,75.0,,72.0,90%,30.06,10.0,SSW,4.6,,N/A,,Mostly Cloudy
4531,2016-08-31,1:51 AM,73.9,,70.0,87%,30.05,10.0,South,8.1,,N/A,,Mostly Cloudy
4532,2016-08-31,2:29 AM,73.9,,71.1,91%,30.05,10.0,SSW,5.8,,N/A,,Mostly Cloudy
4533,2016-08-31,2:51 AM,73.9,,71.1,91%,30.05,10.0,SSW,9.2,,N/A,,Mostly Cloudy
4534,2016-08-31,3:24 AM,73.9,,71.1,91%,30.04,10.0,SW,3.5,,N/A,,Mostly Cloudy
4535,2016-08-31,3:51 AM,73.0,,71.1,93%,30.03,10.0,Calm,Calm,,N/A,,Scattered Clouds
4536,2016-08-31,4:51 AM,73.0,,71.1,93%,30.02,10.0,SW,3.5,,N/A,,Scattered Clouds
4537,2016-08-31,5:51 AM,73.0,,71.1,93%,30.02,10.0,SW,4.6,,N/A,,Mostly Cloudy
4538,2016-08-31,6:51 AM,73.9,,72.0,93%,30.03,9.0,SW,5.8,,N/A,,Mostly Cloudy
4539,2016-08-31,7:51 AM,75.0,,72.0,90%,30.02,8.0,WSW,10.4,,N/A,,Mostly Cloudy
4540,2016-08-31,8:34 AM,75.0,,73.0,94%,30.01,8.0,WSW,10.4,,N/A,,Mostly Cloudy
4541,2016-08-31,8:51 AM,75.0,,73.0,94%,30.01,8.0,SW,11.5,,N/A,,Mostly Cloudy
4542,2016-08-31,9:26 AM,75.9,,72.0,87%,30.01,9.0,SW,10.4,,N/A,,Mostly Cloudy
4543,2016-08-31,9:51 AM,78.1,,73.0,84%,30.01,10.0,SW,9.2,,N/A,,Mostly Cloudy
4544,2016-08-31,10:51 AM,79.0,,72.0,79%,30.00,10.0,SSW,9.2,,N/A,,Mostly Cloudy
4545,2016-08-31,11:51 AM,80.1,83.6,71.1,74%,29.98,10.0,SSW,8.1,,N/A,,Mostly Cloudy
4546,2016-08-31,12:51 PM,82.9,88.0,72.0,69%,29.96,10.0,SSW,9.2,,N/A,,Mostly Cloudy
4547,2016-08-31,1:51 PM,84.9,90.7,72.0,65%,29.95,10.0,SSW,9.2,16.1,N/A,,Mostly Cloudy
4548,2016-08-31,2:51 PM,84.0,91.2,73.9,72%,29.93,10.0,South,13.8,19.6,N/A,,Mostly Cloudy
4549,2016-08-31,3:51 PM,81.0,86.7,75.0,82%,29.92,10.0,South,17.3,,N/A,,Mostly Cloudy
4550,2016-08-31,4:51 PM,82.0,88.6,75.0,79%,29.90,10.0,South,16.1,,N/A,,Mostly Cloudy
4551,2016-08-31,5:51 PM,81.0,86.7,75.0,82%,29.89,10.0,South,18.4,25.3,N/A,,Mostly Cloudy
4552,2016-08-31,6:51 PM,80.1,85.4,75.9,87%,29.88,10.0,South,15.0,23.0,N/A,,Mostly Cloudy
4553,2016-08-31,7:51 PM,79.0,,75.0,88%,29.89,10.0,South,16.1,21.9,N/A,,Mostly Cloudy
4554,2016-08-31,8:51 PM,79.0,,73.9,84%,29.91,10.0,South,15.0,23.0,N/A,,Mostly Cloudy
4555,2016-08-31,9:51 PM,79.0,,75.0,88%,29.90,10.0,South,15.0,20.7,N/A,,Mostly Cloudy
4556,2016-08-31,10:51 PM,78.1,,73.0,84%,29.90,10.0,SSW,11.5,,N/A,Ra,Light Ra
4557,2016-08-31,11:51 PM,77.0,,73.0,88%,29.89,10.0,SSW,9.2,,N/A,,Overcast
4558,2016-09-02,12:51 AM,71.1,,63.0,75%,29.96,10.0,North,11.5,,N/A,,Mostly Cloudy
4559,2016-09-02,1:51 AM,70.0,,61.0,73%,29.96,10.0,North,11.5,,N/A,,Scattered Clouds
4560,2016-09-02,2:51 AM,70.0,,59.0,68%,29.96,10.0,North,11.5,,N/A,,Scattered Clouds
4561,2016-09-02,3:51 AM,68.0,,57.9,70%,29.97,10.0,North,10.4,,N/A,,Scattered Clouds
4562,2016-09-02,4:51 AM,68.0,,57.0,68%,29.99,10.0,North,13.8,,N/A,,Partly Cloudy
4563,2016-09-02,5:51 AM,68.0,,57.0,68%,30.01,10.0,North,12.7,,N/A,,Scattered Clouds
4564,2016-09-02,6:51 AM,66.9,,57.0,70%,30.04,10.0,North,12.7,18.4,N/A,,Scattered Clouds
4565,2016-09-02,7:51 AM,66.9,,57.9,73%,30.05,10.0,North,17.3,21.9,N/A,,Scattered Clouds
4566,2016-09-02,8:51 AM,69.1,,57.9,68%,30.06,10.0,NNE,12.7,19.6,N/A,,Partly Cloudy
4567,2016-09-02,9:51 AM,71.1,,57.9,63%,30.07,10.0,NE,17.3,25.3,N/A,,Partly Cloudy
4568,2016-09-02,10:51 AM,73.9,,57.0,55%,30.08,10.0,NNE,12.7,,N/A,,Scattered Clouds
4569,2016-09-02,11:51 AM,75.0,,55.9,51%,30.08,10.0,NNE,13.8,,N/A,,Mostly Cloudy
4570,2016-09-02,12:51 PM,77.0,,53.1,43%,30.08,10.0,North,10.4,,N/A,,Mostly Cloudy
4571,2016-09-02,1:51 PM,79.0,,54.0,42%,30.08,10.0,NE,10.4,16.1,N/A,,Mostly Cloudy
4572,2016-09-02,2:51 PM,77.0,,55.0,47%,30.08,10.0,North,10.4,18.4,N/A,,Mostly Cloudy
4573,2016-09-02,3:51 PM,79.0,,55.9,45%,30.08,10.0,NNE,9.2,,N/A,,Mostly Cloudy
4574,2016-09-02,4:51 PM,80.1,80.1,55.0,42%,30.07,10.0,North,15.0,,N/A,,Mostly Cloudy
4575,2016-09-02,5:51 PM,80.1,80.0,54.0,40%,30.08,10.0,NE,6.9,,N/A,,Mostly Cloudy
4576,2016-09-02,6:51 PM,78.1,,54.0,43%,30.09,10.0,NNE,10.4,,N/A,,Mostly Cloudy
4577,2016-09-02,7:51 PM,75.9,,54.0,46%,30.10,10.0,NNE,11.5,,N/A,,Mostly Cloudy
4578,2016-09-02,8:51 PM,75.0,,52.0,44%,30.12,10.0,NNE,8.1,,N/A,,Mostly Cloudy
4579,2016-09-02,9:51 PM,75.0,,53.1,46%,30.13,10.0,Calm,Calm,,N/A,,Mostly Cloudy
4580,2016-09-02,10:51 PM,73.0,,53.1,49%,30.14,10.0,NE,5.8,,N/A,,Mostly Cloudy
4581,2016-09-02,11:51 PM,73.0,,53.1,49%,30.15,10.0,East,6.9,,N/A,,Mostly Cloudy
4582,2016-09-04,12:51 AM,68.0,,57.9,70%,30.18,10.0,NE,8.1,,N/A,,Partly Cloudy
4583,2016-09-04,1:51 AM,66.9,,60.1,79%,30.17,10.0,NNE,8.1,,N/A,,Partly Cloudy
4584,2016-09-04,2:51 AM,66.9,,60.1,79%,30.17,10.0,NNE,6.9,,N/A,,Partly Cloudy
4585,2016-09-04,3:51 AM,66.9,,61.0,81%,30.17,10.0,NNE,10.4,,N/A,,Mostly Cloudy
4586,2016-09-04,4:51 AM,66.9,,61.0,81%,30.18,10.0,NNE,13.8,,N/A,,Mostly Cloudy
4587,2016-09-04,5:51 AM,64.9,,57.9,78%,30.19,10.0,NNE,12.7,,N/A,,Scattered Clouds
4588,2016-09-04,6:51 AM,66.0,,55.9,70%,30.21,10.0,NNE,11.5,,N/A,,Scattered Clouds
4589,2016-09-04,7:51 AM,66.9,,55.9,68%,30.22,10.0,NNE,10.4,,N/A,,Scattered Clouds
4590,2016-09-04,8:51 AM,71.1,,53.1,53%,30.24,10.0,NNE,10.4,16.1,N/A,,Scattered Clouds
4591,2016-09-04,9:51 AM,73.9,,54.0,50%,30.24,10.0,NE,17.3,24.2,N/A,,Scattered Clouds
4592,2016-09-04,10:51 AM,73.9,,54.0,50%,30.24,10.0,NNE,13.8,19.6,N/A,,Scattered Clouds
4593,2016-09-04,11:51 AM,75.0,,57.0,53%,30.25,10.0,NNE,15.0,20.7,N/A,,Mostly Cloudy
4594,2016-09-04,12:51 PM,75.9,,57.0,52%,30.25,10.0,NE,13.8,20.7,N/A,,Mostly Cloudy
4595,2016-09-04,1:51 PM,80.1,,51.1,36%,30.24,10.0,NE,16.1,,N/A,,Scattered Clouds
4596,2016-09-04,2:51 PM,79.0,,51.1,38%,30.22,10.0,NE,16.1,25.3,N/A,,Scattered Clouds
4597,2016-09-04,3:51 PM,79.0,,48.9,35%,30.22,10.0,NE,12.7,,N/A,,Scattered Clouds
4598,2016-09-04,4:51 PM,80.1,,51.1,36%,30.21,10.0,NNE,13.8,19.6,N/A,,Scattered Clouds
4599,2016-09-04,5:51 PM,80.1,79.9,53.1,39%,30.21,10.0,NE,13.8,,N/A,,Scattered Clouds
4600,2016-09-04,6:51 PM,78.1,,53.1,42%,30.22,10.0,NE,10.4,,N/A,,Scattered Clouds
4601,2016-09-04,7:51 PM,75.0,,53.1,46%,30.22,10.0,ENE,9.2,,N/A,,Scattered Clouds
4602,2016-09-04,8:51 PM,75.0,,53.1,46%,30.24,10.0,ENE,10.4,,N/A,,Scattered Clouds
4603,2016-09-04,9:51 PM,73.9,,54.0,50%,30.25,10.0,ENE,8.1,,N/A,,Scattered Clouds
4604,2016-09-04,10:51 PM,70.0,,55.9,61%,30.24,10.0,NE,9.2,,N/A,,Scattered Clouds
4605,2016-09-04,11:51 PM,69.1,,57.0,65%,30.23,10.0,NE,12.7,,N/A,,Mostly Cloudy
4606,2016-09-05,12:51 AM,68.0,,53.1,59%,30.22,10.0,NNE,9.2,17.3,N/A,,Mostly Cloudy
4607,2016-09-05,1:51 AM,66.9,,51.1,57%,30.22,10.0,NE,9.2,,N/A,,Mostly Cloudy
4608,2016-09-05,2:51 AM,64.9,,50.0,58%,30.22,10.0,ENE,15.0,,N/A,,Scattered Clouds
4609,2016-09-05,3:51 AM,64.9,,51.1,61%,30.21,10.0,NNE,12.7,,N/A,,Mostly Cloudy
4610,2016-09-05,4:51 AM,64.9,,52.0,63%,30.21,10.0,NNE,12.7,,N/A,,Mostly Cloudy
4611,2016-09-05,5:51 AM,66.0,,48.0,52%,30.20,10.0,NNE,11.5,,N/A,,Mostly Cloudy
4612,2016-09-05,6:51 AM,66.9,,46.9,49%,30.21,10.0,NNE,11.5,,N/A,,Mostly Cloudy
4613,2016-09-05,7:51 AM,68.0,,48.9,50%,30.23,10.0,NE,16.1,,N/A,,Mostly Cloudy
4614,2016-09-05,8:51 AM,69.1,,48.0,47%,30.22,10.0,NNE,13.8,19.6,N/A,,Mostly Cloudy
4615,2016-09-05,9:51 AM,70.0,,48.9,47%,30.21,10.0,NNE,15.0,,N/A,,Mostly Cloudy
4616,2016-09-05,10:51 AM,71.1,,50.0,47%,30.21,10.0,NNE,15.0,19.6,N/A,,Mostly Cloudy
4617,2016-09-05,11:51 AM,72.0,,50.0,46%,30.18,10.0,NE,13.8,,N/A,,Mostly Cloudy
4618,2016-09-05,12:51 PM,73.9,,52.0,46%,30.14,10.0,NNE,18.4,25.3,N/A,,Mostly Cloudy
4619,2016-09-05,1:51 PM,77.0,,53.1,43%,30.10,10.0,North,20.7,26.5,N/A,,Mostly Cloudy
4620,2016-09-05,2:51 PM,80.1,80.2,55.9,43%,30.08,10.0,North,16.1,,N/A,,Mostly Cloudy
4621,2016-09-05,3:51 PM,82.9,82.4,57.0,41%,30.04,10.0,North,13.8,,N/A,,Mostly Cloudy
4622,2016-09-05,4:51 PM,82.9,82.6,57.9,42%,30.01,10.0,NNW,19.6,,N/A,,Mostly Cloudy
4623,2016-09-05,5:51 PM,84.0,83.5,57.9,41%,30.01,10.0,North,18.4,,N/A,,Mostly Cloudy
4624,2016-09-05,6:51 PM,82.0,82.1,59.0,45%,29.99,10.0,North,17.3,25.3,N/A,,Mostly Cloudy
4625,2016-09-05,7:51 PM,80.1,81.2,62.1,54%,29.98,10.0,North,16.1,26.5,N/A,,Mostly Cloudy
4626,2016-09-05,8:51 PM,79.0,,60.1,52%,29.99,10.0,North,18.4,27.6,N/A,,Mostly Cloudy
4627,2016-09-05,9:51 PM,79.0,,59.0,50%,29.97,10.0,North,23.0,35.7,N/A,,Mostly Cloudy
4628,2016-09-05,10:51 PM,78.1,,55.9,46%,29.97,10.0,North,23.0,31.1,N/A,,Mostly Cloudy
4629,2016-09-05,11:51 PM,75.9,,54.0,46%,29.96,10.0,North,21.9,31.1,N/A,,Scattered Clouds
4630,2016-09-07,12:51 AM,70.0,,66.9,90%,29.98,8.0,NE,12.7,,0.05,Ra,Light Ra
4631,2016-09-07,1:44 AM,71.1,,66.9,87%,29.97,10.0,NNE,9.2,,N/A,,Overcast
4632,2016-09-07,1:51 AM,71.1,,66.9,87%,29.97,10.0,North,12.7,,0.01,,Overcast
4633,2016-09-07,2:51 AM,71.1,,68.0,90%,29.96,10.0,NNE,12.7,,N/A,,Mostly Cloudy
4634,2016-09-07,3:51 AM,70.0,,66.9,90%,29.96,10.0,NNE,13.8,,N/A,,Mostly Cloudy
4635,2016-09-07,4:51 AM,70.0,,66.9,90%,29.96,10.0,North,15.0,,N/A,,Mostly Cloudy
4636,2016-09-07,5:51 AM,71.1,,68.0,90%,29.96,10.0,NE,15.0,24.2,N/A,,Mostly Cloudy
4637,2016-09-07,6:51 AM,71.1,,69.1,93%,29.97,10.0,NE,17.3,23.0,N/A,,Mostly Cloudy
4638,2016-09-07,7:08 AM,71.1,,69.1,93%,29.98,10.0,NNE,12.7,,N/A,,Mostly Cloudy
4639,2016-09-07,7:51 AM,73.0,,70.0,90%,29.99,10.0,North,17.3,25.3,N/A,,Mostly Cloudy
4640,2016-09-07,8:51 AM,73.9,,70.0,87%,29.99,10.0,North,19.6,25.3,N/A,,Mostly Cloudy
4641,2016-09-07,9:51 AM,75.9,,70.0,82%,29.99,10.0,North,21.9,26.5,N/A,,Mostly Cloudy
4642,2016-09-07,10:51 AM,75.9,,70.0,82%,29.99,10.0,NNE,18.4,25.3,0.00,Ra,Light Ra
4643,2016-09-07,11:51 AM,77.0,,70.0,79%,29.99,10.0,North,17.3,25.3,0.00,,Mostly Cloudy
4644,2016-09-07,12:51 PM,80.1,83.2,70.0,71%,29.98,10.0,NNE,13.8,24.2,N/A,,Scattered Clouds
4645,2016-09-07,1:51 PM,82.0,85.5,69.1,65%,29.98,10.0,North,18.4,24.2,N/A,,Scattered Clouds
4646,2016-09-07,2:51 PM,86.0,93.0,73.0,65%,29.97,10.0,NNE,15.0,19.6,N/A,,Scattered Clouds
4647,2016-09-07,3:51 PM,86.0,91.5,71.1,61%,29.95,10.0,NNE,13.8,19.6,N/A,,Mostly Cloudy
4648,2016-09-07,4:51 PM,86.0,90.7,70.0,59%,29.94,10.0,East,17.3,23.0,N/A,,Scattered Clouds
4649,2016-09-07,5:51 PM,82.9,87.5,71.1,67%,29.94,10.0,ENE,11.5,,N/A,,Scattered Clouds
4650,2016-09-07,6:51 PM,81.0,83.0,66.0,60%,29.94,10.0,NE,11.5,,N/A,,Mostly Cloudy
4651,2016-09-07,7:51 PM,79.0,,64.9,62%,29.96,10.0,NE,10.4,,N/A,,Mostly Cloudy
4652,2016-09-07,8:51 PM,78.1,,66.0,66%,29.97,10.0,NNE,8.1,,N/A,,Mostly Cloudy
4653,2016-09-07,9:51 PM,75.9,,66.9,74%,29.96,10.0,NNE,8.1,,N/A,,Scattered Clouds
4654,2016-09-07,10:51 PM,75.0,,68.0,79%,29.95,10.0,NE,8.1,,N/A,,Scattered Clouds
4655,2016-09-07,11:51 PM,73.9,,68.0,82%,29.96,10.0,North,4.6,,N/A,,Partly Cloudy
4656,2016-09-08,12:51 AM,73.0,,68.0,84%,29.95,10.0,North,4.6,,N/A,,Partly Cloudy
4657,2016-09-08,1:51 AM,72.0,,68.0,87%,29.95,10.0,NNW,5.8,,N/A,,Scattered Clouds
4658,2016-09-08,2:51 AM,73.0,,69.1,87%,29.94,10.0,NNW,3.5,,N/A,,Partly Cloudy
4659,2016-09-08,3:51 AM,73.0,,68.0,84%,29.94,10.0,NNW,3.5,,N/A,,Partly Cloudy
4660,2016-09-08,4:51 AM,72.0,,68.0,87%,29.94,10.0,Calm,Calm,,N/A,,Partly Cloudy
4661,2016-09-08,5:51 AM,72.0,,66.9,84%,29.93,10.0,NNE,4.6,,N/A,,Clear
4662,2016-09-08,6:51 AM,72.0,,68.0,87%,29.93,10.0,NNE,3.5,,N/A,,Partly Cloudy
4663,2016-09-08,7:51 AM,73.9,,69.1,85%,29.94,10.0,East,3.5,,N/A,,Partly Cloudy
4664,2016-09-08,8:51 AM,78.1,,68.0,71%,29.94,10.0,Calm,Calm,,N/A,,Partly Cloudy
4665,2016-09-08,9:51 AM,78.1,,66.9,68%,29.95,10.0,South,6.9,,N/A,,Scattered Clouds
4666,2016-09-08,10:51 AM,80.1,82.9,69.1,69%,29.94,10.0,South,8.1,,N/A,,Scattered Clouds
4667,2016-09-08,11:51 AM,78.1,,68.0,71%,29.93,10.0,South,8.1,,N/A,,Scattered Clouds
4668,2016-09-08,12:51 PM,80.1,82.9,69.1,69%,29.92,10.0,South,10.4,,N/A,,Scattered Clouds
4669,2016-09-08,1:51 PM,81.0,83.8,68.0,65%,29.90,10.0,South,10.4,,N/A,,Mostly Cloudy
4670,2016-09-08,2:51 PM,80.1,82.7,68.0,67%,29.88,10.0,South,12.7,,N/A,,Mostly Cloudy
4671,2016-09-08,3:51 PM,80.1,82.9,69.1,69%,29.86,10.0,South,11.5,,N/A,,Mostly Cloudy
4672,2016-09-08,4:51 PM,81.0,84.1,69.1,67%,29.83,10.0,South,10.4,,N/A,,Mostly Cloudy
4673,2016-09-08,5:51 PM,80.1,83.2,70.0,71%,29.83,10.0,SSE,10.4,,N/A,,Mostly Cloudy
4674,2016-09-08,6:51 PM,78.1,,72.0,81%,29.83,10.0,South,6.9,,N/A,,Mostly Cloudy
4675,2016-09-08,7:51 PM,78.1,,73.0,84%,29.84,9.0,Calm,Calm,,N/A,,Mostly Cloudy
4676,2016-09-08,8:51 PM,78.1,,73.0,84%,29.84,9.0,SSE,5.8,,N/A,,Mostly Cloudy
4677,2016-09-08,9:51 PM,79.0,,73.0,82%,29.84,9.0,SE,3.5,,N/A,,Mostly Cloudy
4678,2016-09-08,10:51 PM,79.0,,73.9,84%,29.84,9.0,South,5.8,,N/A,,Mostly Cloudy
4679,2016-09-08,11:51 PM,80.1,84.2,73.0,79%,29.84,10.0,SSW,5.8,,N/A,,Overcast
4680,2016-09-09,12:51 AM,80.1,84.2,73.0,79%,29.83,10.0,SW,9.2,,N/A,,Mostly Cloudy
4681,2016-09-09,1:51 AM,78.1,,72.0,81%,29.83,10.0,SW,9.2,,N/A,,Mostly Cloudy
4682,2016-09-09,2:51 AM,78.1,,72.0,81%,29.83,10.0,SSW,6.9,,N/A,,Mostly Cloudy
4683,2016-09-09,3:51 AM,78.1,,72.0,81%,29.83,10.0,SSW,9.2,,N/A,,Overcast
4684,2016-09-09,4:51 AM,79.0,,72.0,79%,29.85,10.0,SW,11.5,,N/A,,Mostly Cloudy
4685,2016-09-09,5:51 AM,80.1,83.6,71.1,74%,29.86,10.0,West,6.9,,N/A,,Overcast
4686,2016-09-09,6:51 AM,81.0,84.4,70.0,69%,29.89,10.0,WSW,9.2,,N/A,,Mostly Cloudy
4687,2016-09-09,7:51 AM,80.1,83.2,70.0,71%,29.89,10.0,WSW,6.9,,N/A,,Mostly Cloudy
4688,2016-09-09,8:51 AM,82.9,87.0,70.0,65%,29.89,10.0,WSW,6.9,,N/A,,Mostly Cloudy
4689,2016-09-09,9:51 AM,84.0,88.4,70.0,63%,29.91,10.0,WSW,9.2,,N/A,,Mostly Cloudy
4690,2016-09-09,10:51 AM,89.1,93.7,69.1,52%,29.91,10.0,NW,9.2,,N/A,,Mostly Cloudy
4691,2016-09-09,11:51 AM,89.1,93.7,69.1,52%,29.90,10.0,WSW,10.4,,N/A,,Mostly Cloudy
4692,2016-09-09,12:51 PM,89.1,94.1,70.0,53%,29.91,10.0,SW,15.0,,N/A,,Mostly Cloudy
4693,2016-09-09,1:51 PM,87.1,92.0,70.0,57%,29.91,10.0,WSW,10.4,,N/A,,Mostly Cloudy
4694,2016-09-09,2:51 PM,88.0,92.9,70.0,55%,29.91,10.0,SW,11.5,,N/A,,Mostly Cloudy
4695,2016-09-09,3:51 PM,88.0,92.1,69.1,53%,29.90,10.0,SSW,9.2,,N/A,,Mostly Cloudy
4696,2016-09-09,4:51 PM,86.0,91.5,71.1,61%,29.90,10.0,South,12.7,,N/A,,Mostly Cloudy
4697,2016-09-09,5:51 PM,84.0,89.0,71.1,65%,29.92,10.0,South,8.1,,N/A,,Mostly Cloudy
4698,2016-09-09,6:51 PM,84.0,89.0,71.1,65%,29.93,10.0,South,6.9,,N/A,,Mostly Cloudy
4699,2016-09-09,7:51 PM,84.0,89.0,71.1,65%,29.95,10.0,NE,4.6,,0.00,,Mostly Cloudy
4700,2016-09-09,8:51 PM,82.0,86.3,71.1,69%,29.96,10.0,ESE,4.6,,0.00,,Mostly Cloudy
4701,2016-09-09,9:51 PM,81.0,85.8,73.0,77%,29.97,10.0,Calm,Calm,,0.00,,Overcast
4702,2016-09-09,10:51 PM,82.0,86.3,71.1,69%,29.98,10.0,NNE,5.8,,N/A,,Scattered Clouds
4703,2016-09-09,11:51 PM,80.1,83.6,71.1,74%,29.99,10.0,North,11.5,,N/A,,Mostly Cloudy
4704,2016-09-10,12:51 AM,80.1,83.6,71.1,74%,29.99,10.0,NE,5.8,,N/A,,Mostly Cloudy
4705,2016-09-10,1:51 AM,79.0,,71.1,77%,29.99,10.0,ENE,4.6,,N/A,,Mostly Cloudy
4706,2016-09-10,2:51 AM,78.1,,71.1,79%,29.98,10.0,East,3.5,,N/A,,Scattered Clouds
4707,2016-09-10,3:51 AM,77.0,,71.1,82%,29.99,10.0,Calm,Calm,,N/A,,Scattered Clouds
4708,2016-09-10,4:51 AM,77.0,,71.1,82%,29.99,10.0,SE,5.8,,N/A,,Scattered Clouds
4709,2016-09-10,5:51 AM,75.9,,72.0,87%,29.99,10.0,East,8.1,,N/A,,Mostly Cloudy
4710,2016-09-10,6:51 AM,75.0,,71.1,87%,30.01,10.0,East,5.8,,N/A,,Mostly Cloudy
4711,2016-09-10,7:51 AM,77.0,,69.1,76%,30.02,10.0,ENE,6.9,,N/A,,Mostly Cloudy
4712,2016-09-10,8:51 AM,80.1,83.2,70.0,71%,30.02,10.0,East,8.1,,N/A,,Mostly Cloudy
4713,2016-09-10,9:51 AM,81.0,85.2,72.0,74%,30.02,10.0,ESE,11.5,,N/A,,Mostly Cloudy
4714,2016-09-10,10:51 AM,82.0,87.4,73.0,74%,30.03,8.0,SSE,10.4,,N/A,,Mostly Cloudy
4715,2016-09-10,11:51 AM,84.0,91.2,73.9,72%,30.02,8.0,SE,6.9,,N/A,,Mostly Cloudy
4716,2016-09-10,12:51 PM,84.0,91.2,73.9,72%,30.01,8.0,SSE,10.4,,N/A,,Mostly Cloudy
4717,2016-09-10,1:51 PM,84.9,91.4,73.0,67%,30.00,10.0,South,10.4,,N/A,,Mostly Cloudy
4718,2016-09-10,2:51 PM,84.0,91.2,73.9,72%,29.98,10.0,South,8.1,,N/A,,Mostly Cloudy
4719,2016-09-10,3:51 PM,82.0,87.4,73.0,74%,29.97,10.0,South,13.8,,N/A,,Mostly Cloudy
4720,2016-09-10,4:51 PM,80.1,84.5,73.9,81%,29.95,9.0,South,23.0,26.5,N/A,,Mostly Cloudy
4721,2016-09-10,5:51 PM,79.0,,73.0,82%,29.94,9.0,South,20.7,27.6,N/A,,Mostly Cloudy
4722,2016-09-10,6:51 PM,79.0,,73.0,82%,29.93,9.0,South,19.6,,N/A,,Mostly Cloudy
4723,2016-09-10,7:51 PM,77.0,,73.0,88%,29.93,10.0,South,23.0,,N/A,,Overcast
4724,2016-09-10,8:51 PM,75.9,,73.0,91%,29.93,10.0,South,21.9,29.9,N/A,,Overcast
4725,2016-09-10,9:51 PM,75.9,,72.0,87%,29.95,10.0,South,20.7,,N/A,,Overcast
4726,2016-09-10,10:51 PM,77.0,,72.0,84%,29.95,10.0,South,13.8,,N/A,,Overcast
4727,2016-09-10,11:51 PM,77.0,,72.0,84%,29.96,10.0,South,15.0,,N/A,,Overcast
4728,2016-09-11,12:51 AM,75.9,,72.0,87%,29.94,10.0,South,13.8,,N/A,,Overcast
4729,2016-09-11,1:51 AM,75.9,,71.1,85%,29.92,10.0,South,18.4,,N/A,,Mostly Cloudy
4730,2016-09-11,2:51 AM,75.0,,72.0,90%,29.90,10.0,South,15.0,,N/A,,Mostly Cloudy
4731,2016-09-11,3:51 AM,75.0,,72.0,90%,29.89,9.0,South,17.3,,N/A,,Mostly Cloudy
4732,2016-09-11,4:51 AM,75.0,,72.0,90%,29.89,9.0,South,13.8,,N/A,,Mostly Cloudy
4733,2016-09-11,5:51 AM,75.0,,72.0,90%,29.88,10.0,South,11.5,,N/A,,Mostly Cloudy
4734,2016-09-11,6:38 AM,75.9,,72.0,87%,29.88,10.0,South,10.4,,N/A,,Mostly Cloudy
4735,2016-09-11,6:51 AM,75.9,,72.0,87%,29.88,10.0,South,10.4,,N/A,,Mostly Cloudy
4736,2016-09-11,7:51 AM,77.0,,71.1,82%,29.90,10.0,SSW,12.7,,N/A,,Mostly Cloudy
4737,2016-09-11,8:51 AM,80.1,84.2,73.0,79%,29.91,10.0,WSW,13.8,,N/A,,Mostly Cloudy
4738,2016-09-11,9:51 AM,82.9,88.0,72.0,69%,29.92,10.0,West,11.5,,N/A,,Mostly Cloudy
4739,2016-09-11,10:51 AM,84.9,84.8,60.1,43%,29.95,10.0,NNW,21.9,29.9,N/A,,Mostly Cloudy
4740,2016-09-11,11:51 AM,82.9,,52.0,34%,29.98,10.0,NW,19.6,29.9,N/A,,Scattered Clouds
4741,2016-09-11,12:51 PM,82.0,,52.0,35%,30.00,10.0,NW,18.4,29.9,N/A,,Mostly Cloudy
4742,2016-09-11,1:51 PM,84.0,82.6,54.0,35%,30.00,10.0,NW,17.3,27.6,N/A,,Mostly Cloudy
4743,2016-09-11,2:51 PM,82.0,,52.0,35%,30.00,10.0,NW,17.3,21.9,N/A,,Mostly Cloudy
4744,2016-09-11,3:51 PM,84.0,,51.1,32%,30.00,10.0,NW,17.3,25.3,N/A,,Mostly Cloudy
4745,2016-09-11,4:51 PM,84.0,,51.1,32%,30.01,10.0,NW,13.8,,N/A,,Mostly Cloudy
4746,2016-09-11,5:51 PM,82.0,,48.0,30%,30.02,10.0,NW,16.1,,N/A,,Mostly Cloudy
4747,2016-09-11,6:51 PM,80.1,,46.0,30%,30.04,10.0,NW,16.1,24.2,N/A,,Mostly Cloudy
4748,2016-09-11,7:51 PM,78.1,,46.9,33%,30.08,10.0,NNW,13.8,,N/A,,Mostly Cloudy
4749,2016-09-11,8:51 PM,77.0,,46.0,33%,30.11,10.0,NNW,16.1,24.2,N/A,,Mostly Cloudy
4750,2016-09-11,9:51 PM,73.9,,44.1,34%,30.13,10.0,NNW,16.1,,N/A,,Mostly Cloudy
4751,2016-09-11,10:51 PM,72.0,,45.0,38%,30.14,10.0,North,10.4,,N/A,,Mostly Cloudy
4752,2016-09-11,11:51 PM,70.0,,44.1,39%,30.16,10.0,North,9.2,,N/A,,Mostly Cloudy
4753,2016-09-14,12:51 AM,70.0,,59.0,68%,30.13,10.0,SW,11.5,,N/A,,Partly Cloudy
4754,2016-09-14,1:51 AM,70.0,,60.1,71%,30.12,10.0,SW,13.8,,N/A,,Partly Cloudy
4755,2016-09-14,2:51 AM,70.0,,61.0,73%,30.11,10.0,SW,15.0,,N/A,,Mostly Cloudy
4756,2016-09-14,3:51 AM,69.1,,62.1,78%,30.10,10.0,SW,10.4,,N/A,,Scattered Clouds
4757,2016-09-14,4:51 AM,70.0,,63.0,78%,30.10,10.0,WSW,12.7,,N/A,,Partly Cloudy
4758,2016-09-14,5:51 AM,69.1,,62.1,78%,30.10,10.0,WSW,10.4,,N/A,,Partly Cloudy
4759,2016-09-14,6:51 AM,69.1,,62.1,78%,30.11,10.0,SW,11.5,,N/A,,Scattered Clouds
4760,2016-09-14,7:51 AM,72.0,,62.1,71%,30.10,10.0,SW,8.1,,N/A,,Scattered Clouds
4761,2016-09-14,8:51 AM,73.9,,62.1,66%,30.11,10.0,SW,12.7,,N/A,,Partly Cloudy
4762,2016-09-14,9:51 AM,75.9,,63.0,64%,30.09,10.0,SW,11.5,,N/A,,Partly Cloudy
4763,2016-09-14,10:51 AM,77.0,,63.0,62%,30.09,10.0,SSW,10.4,,N/A,,Partly Cloudy
4764,2016-09-14,11:51 AM,80.1,81.7,64.0,58%,30.07,10.0,SSW,10.4,,N/A,,Partly Cloudy
4765,2016-09-14,12:51 PM,81.0,82.7,64.9,58%,30.05,10.0,South,11.5,,N/A,,Partly Cloudy
4766,2016-09-14,1:51 PM,82.0,83.8,64.9,56%,30.03,10.0,South,11.5,,N/A,,Partly Cloudy
4767,2016-09-14,2:51 PM,82.9,85.0,66.0,56%,30.01,10.0,South,13.8,,N/A,,Scattered Clouds
4768,2016-09-14,3:51 PM,82.9,85.4,66.9,58%,30.00,10.0,South,12.7,,N/A,,Scattered Clouds
4769,2016-09-14,4:51 PM,80.1,82.7,68.0,67%,29.99,10.0,South,18.4,,N/A,,Scattered Clouds
4770,2016-09-14,5:39 PM,79.0,,69.1,72%,29.98,10.0,South,15.0,,N/A,Thunderstorm,Thunderstorm
4771,2016-09-14,5:51 PM,78.1,,68.0,71%,30.01,10.0,South,17.3,,N/A,Thunderstorm,Thunderstorm
4772,2016-09-14,6:04 PM,73.9,,64.9,73%,30.05,1.2,NW,27.6,38.0,0.00,"Ra
	,
Thunderstorm",Light Thunderstorms and Ra
4773,2016-09-14,6:14 PM,70.0,,66.0,87%,30.04,0.2,North,19.6,35.7,0.33,"Ra
	,
Thunderstorm",Light Thunderstorms and Ra
4774,2016-09-14,6:26 PM,71.1,,68.0,90%,30.04,10.0,NE,15.0,,0.43,Ra,Light Ra
4775,2016-09-14,6:51 PM,72.0,,68.0,87%,30.02,10.0,ENE,11.5,,0.43,,Mostly Cloudy
4776,2016-09-14,7:51 PM,73.0,,66.9,81%,30.04,10.0,NE,3.5,,N/A,,Mostly Cloudy
4777,2016-09-14,8:51 PM,75.9,,66.9,74%,30.07,10.0,NNW,6.9,,0.00,,Mostly Cloudy
4778,2016-09-14,9:51 PM,75.9,,66.9,74%,30.08,10.0,North,8.1,,N/A,,Mostly Cloudy
4779,2016-09-14,10:51 PM,73.9,,64.0,71%,30.10,10.0,North,9.2,,N/A,,Scattered Clouds
4780,2016-09-14,11:51 PM,70.0,,55.9,61%,30.13,10.0,NNE,18.4,23.0,N/A,,Partly Cloudy
4781,2016-09-18,12:51 AM,71.1,,68.0,90%,30.11,10.0,SSW,10.4,,N/A,,Mostly Cloudy
4782,2016-09-18,1:51 AM,70.0,,66.9,90%,30.10,10.0,SSW,9.2,,N/A,,Mostly Cloudy
4783,2016-09-18,2:51 AM,70.0,,66.0,87%,30.09,10.0,SW,6.9,,N/A,,Scattered Clouds
4784,2016-09-18,3:51 AM,69.1,,66.0,90%,30.08,10.0,SSW,5.8,,N/A,,Scattered Clouds
4785,2016-09-18,4:51 AM,69.1,,66.0,90%,30.07,10.0,SW,5.8,,N/A,,Scattered Clouds
4786,2016-09-18,5:51 AM,70.0,,66.9,90%,30.08,10.0,SW,5.8,,N/A,,Scattered Clouds
4787,2016-09-18,6:51 AM,71.1,,68.0,90%,30.08,10.0,SSW,6.9,,N/A,,Scattered Clouds
4788,2016-09-18,7:51 AM,72.0,,69.1,91%,30.09,10.0,SSW,9.2,,N/A,,Mostly Cloudy
4789,2016-09-18,8:16 AM,73.0,,69.1,87%,30.08,10.0,SSW,10.4,,N/A,,Mostly Cloudy
4790,2016-09-18,8:51 AM,75.0,,69.1,82%,30.09,10.0,SW,9.2,,N/A,,Mostly Cloudy
4791,2016-09-18,9:51 AM,75.0,,69.1,82%,30.10,10.0,SW,9.2,,N/A,,Mostly Cloudy
4792,2016-09-18,10:51 AM,75.9,,70.0,82%,30.09,10.0,SW,5.8,,N/A,,Mostly Cloudy
4793,2016-09-18,11:51 AM,79.0,,70.0,74%,30.08,10.0,SSW,8.1,,N/A,,Mostly Cloudy
4794,2016-09-18,12:51 PM,78.1,,70.0,76%,30.07,10.0,SSW,5.8,,N/A,,Mostly Cloudy
4795,2016-09-18,1:51 PM,79.0,,70.0,74%,30.06,10.0,South,9.2,,N/A,,Mostly Cloudy
4796,2016-09-18,2:51 PM,80.1,83.6,71.1,74%,30.04,10.0,South,11.5,,N/A,,Mostly Cloudy
4797,2016-09-18,3:51 PM,79.0,,71.1,77%,30.03,10.0,South,13.8,,N/A,,Mostly Cloudy
4798,2016-09-18,4:51 PM,78.1,,71.1,79%,30.01,10.0,South,16.1,,N/A,,Overcast
4799,2016-09-18,5:51 PM,77.0,,72.0,84%,30.01,10.0,South,17.3,,N/A,,Overcast
4800,2016-09-18,6:51 PM,75.9,,71.1,85%,30.01,10.0,South,16.1,,N/A,,Mostly Cloudy
4801,2016-09-18,7:51 PM,75.0,,71.1,87%,30.03,10.0,South,17.3,,N/A,,Mostly Cloudy
4802,2016-09-18,8:51 PM,75.0,,71.1,87%,30.04,10.0,South,17.3,,N/A,,Mostly Cloudy
4803,2016-09-18,9:51 PM,75.0,,71.1,87%,30.04,10.0,South,16.1,,N/A,,Mostly Cloudy
4804,2016-09-18,10:51 PM,73.9,,71.1,91%,30.05,10.0,South,12.7,,N/A,,Overcast
4805,2016-09-18,11:51 PM,73.9,,71.1,91%,30.04,10.0,South,11.5,,N/A,,Overcast
4806,2016-09-20,12:51 AM,70.0,,68.0,93%,30.09,10.0,NE,3.5,,N/A,,Overcast
4807,2016-09-20,1:51 AM,70.0,,68.0,93%,30.09,10.0,East,4.6,,N/A,,Mostly Cloudy
4808,2016-09-20,2:51 AM,69.1,,68.0,96%,30.08,9.0,NE,4.6,,N/A,,Overcast
4809,2016-09-20,3:51 AM,69.1,,68.0,96%,30.07,10.0,NE,3.5,,N/A,,Mostly Cloudy
4810,2016-09-20,4:51 AM,69.1,,66.9,93%,30.08,10.0,East,3.5,,N/A,,Overcast
4811,2016-09-20,5:51 AM,69.1,,66.9,93%,30.08,10.0,North,6.9,,N/A,,Overcast
4812,2016-09-20,6:51 AM,69.1,,66.9,93%,30.08,9.0,NNE,4.6,,N/A,,Overcast
4813,2016-09-20,7:26 AM,69.1,,68.0,96%,30.10,7.0,North,4.6,,N/A,,Overcast
4814,2016-09-20,7:51 AM,70.0,,68.0,93%,30.10,8.0,North,6.9,,N/A,,Overcast
4815,2016-09-20,8:24 AM,71.1,,68.0,90%,30.11,10.0,North,11.5,,N/A,,Overcast
4816,2016-09-20,8:51 AM,72.0,,69.1,91%,30.12,10.0,North,9.2,,N/A,,Overcast
4817,2016-09-20,9:51 AM,73.0,,69.1,87%,30.14,10.0,North,10.4,,N/A,,Mostly Cloudy
4818,2016-09-20,10:27 AM,73.9,,68.0,82%,30.14,10.0,NNE,9.2,,N/A,,Mostly Cloudy
4819,2016-09-20,10:51 AM,75.0,,66.9,76%,30.14,10.0,North,5.8,,N/A,,Mostly Cloudy
4820,2016-09-20,11:51 AM,78.1,,66.9,68%,30.12,10.0,North,5.8,,N/A,,Mostly Cloudy
4821,2016-09-20,12:51 PM,78.1,,66.9,68%,30.12,10.0,Calm,Calm,,N/A,,Mostly Cloudy
4822,2016-09-20,1:51 PM,80.1,82.1,66.0,62%,30.10,10.0,Calm,Calm,,N/A,,Mostly Cloudy
4823,2016-09-20,2:51 PM,78.1,,69.1,74%,30.10,10.0,South,8.1,,N/A,,Mostly Cloudy
4824,2016-09-20,3:51 PM,75.9,,69.1,79%,30.10,10.0,South,9.2,,N/A,,Mostly Cloudy
4825,2016-09-20,4:51 PM,75.0,,69.1,82%,30.10,10.0,South,6.9,,N/A,,Mostly Cloudy
4826,2016-09-20,5:48 PM,73.4,,69.8,88%,30.10,10.0,SE,6.9,,N/A,,Overcast
4827,2016-09-20,5:51 PM,73.9,,69.1,85%,30.10,10.0,SE,5.8,,N/A,,Overcast
4828,2016-09-20,6:51 PM,72.0,,69.1,91%,30.11,10.0,SSW,4.6,,N/A,,Mostly Cloudy
4829,2016-09-20,7:51 PM,71.1,,69.1,93%,30.11,10.0,South,3.5,,N/A,,Mostly Cloudy
4830,2016-09-20,8:51 PM,70.0,,69.1,97%,30.12,10.0,SSW,3.5,,N/A,,Mostly Cloudy
4831,2016-09-20,9:51 PM,70.0,,69.1,97%,30.12,9.0,South,3.5,,N/A,,Mostly Cloudy
4832,2016-09-20,10:51 PM,70.0,,69.1,97%,30.12,8.0,SSW,3.5,,N/A,,Mostly Cloudy
4833,2016-09-20,11:51 PM,70.0,,69.1,97%,30.12,7.0,South,3.5,,N/A,,Overcast
4834,2016-09-21,12:51 AM,70.0,,69.1,97%,30.12,6.0,Calm,Calm,,N/A,,Overcast
4835,2016-09-21,1:51 AM,69.1,,68.0,96%,30.12,6.0,Calm,Calm,,N/A,,Overcast
4836,2016-09-21,2:51 AM,68.0,,66.9,96%,30.12,5.0,Calm,Calm,,N/A,,Overcast
4837,2016-09-21,3:21 AM,66.0,,64.9,96%,30.12,2.5,Calm,Calm,,N/A,,Overcast
4838,2016-09-21,3:51 AM,66.9,,66.0,97%,30.12,1.5,Calm,Calm,,N/A,,Mostly Cloudy
4839,2016-09-21,4:28 AM,66.9,,66.0,97%,30.13,1.5,NE,3.5,,N/A,,Mostly Cloudy
4840,2016-09-21,4:37 AM,66.9,,66.0,97%,30.13,1.5,Calm,Calm,,N/A,,Scattered Clouds
4841,2016-09-21,4:47 AM,66.2,,66.2,100%,30.13,1.5,Calm,Calm,,N/A,,Scattered Clouds
4842,2016-09-21,4:51 AM,66.9,,66.0,97%,30.13,1.5,Calm,Calm,,N/A,,Scattered Clouds
4843,2016-09-21,5:51 AM,66.9,,66.9,100%,30.14,1.5,Calm,Calm,,N/A,,Mostly Cloudy
4844,2016-09-21,6:04 AM,66.9,,66.9,100%,30.14,1.5,Calm,Calm,,N/A,,Mostly Cloudy
4845,2016-09-21,6:30 AM,66.9,,66.9,100%,30.14,6.0,NNE,3.5,,N/A,,Mostly Cloudy
4846,2016-09-21,6:51 AM,66.9,,66.0,97%,30.14,7.0,North,3.5,,N/A,,Mostly Cloudy
4847,2016-09-21,7:51 AM,69.1,,64.0,84%,30.17,10.0,North,6.9,,N/A,,Mostly Cloudy
4848,2016-09-21,8:51 AM,71.1,,62.1,73%,30.17,10.0,North,6.9,,N/A,,Mostly Cloudy
4849,2016-09-21,9:51 AM,75.0,,59.0,57%,30.19,10.0,NNE,8.1,,N/A,,Mostly Cloudy
4850,2016-09-21,10:51 AM,78.1,,52.0,40%,30.19,10.0,North,13.8,,N/A,,Mostly Cloudy
4851,2016-09-21,11:51 AM,79.0,,54.0,42%,30.18,10.0,North,11.5,,N/A,,Mostly Cloudy
4852,2016-09-21,12:51 PM,81.0,80.5,54.0,39%,30.17,10.0,North,8.1,,N/A,,Mostly Cloudy
4853,2016-09-21,1:51 PM,82.9,,46.9,28%,30.16,10.0,ENE,5.8,,N/A,,Mostly Cloudy
4854,2016-09-21,2:51 PM,84.0,,48.0,28%,30.15,10.0,North,6.9,,N/A,,Mostly Cloudy
4855,2016-09-21,3:51 PM,84.0,,43.0,24%,30.15,10.0,NE,5.8,,N/A,,Mostly Cloudy
4856,2016-09-21,4:51 PM,78.1,,55.9,46%,30.14,10.0,South,8.1,,N/A,,Mostly Cloudy
4857,2016-09-21,5:51 PM,77.0,,57.0,50%,30.15,10.0,South,4.6,,N/A,,Mostly Cloudy
4858,2016-09-21,6:51 PM,75.0,,57.0,53%,30.16,10.0,Calm,Calm,,N/A,,Mostly Cloudy
4859,2016-09-21,7:51 PM,75.0,,57.0,53%,30.17,10.0,Calm,Calm,,N/A,,Mostly Cloudy
4860,2016-09-21,8:51 PM,70.0,,61.0,73%,30.18,10.0,SSE,4.6,,N/A,,Mostly Cloudy
4861,2016-09-21,9:51 PM,70.0,,61.0,73%,30.18,10.0,Calm,Calm,,N/A,,Mostly Cloudy
4862,2016-09-21,10:51 PM,71.1,,57.9,63%,30.19,10.0,NNE,4.6,,N/A,,Mostly Cloudy
4863,2016-09-21,11:51 PM,68.0,,57.9,70%,30.18,10.0,NE,4.6,,N/A,,Mostly Cloudy
4864,2016-09-22,12:51 AM,66.9,,59.0,76%,30.17,10.0,NNE,4.6,,N/A,,Mostly Cloudy
4865,2016-09-22,1:51 AM,66.0,,57.9,75%,30.15,10.0,North,6.9,,N/A,,Mostly Cloudy
4866,2016-09-22,2:51 AM,66.0,,57.9,75%,30.15,10.0,NNE,6.9,,N/A,,Scattered Clouds
4867,2016-09-22,3:51 AM,64.9,,59.0,81%,30.16,10.0,NNE,4.6,,N/A,,Scattered Clouds
4868,2016-09-22,4:51 AM,64.0,,59.0,84%,30.16,10.0,North,3.5,,N/A,,Scattered Clouds
4869,2016-09-22,5:51 AM,64.9,,59.0,81%,30.17,10.0,North,3.5,,N/A,,Scattered Clouds
4870,2016-09-22,6:51 AM,64.0,,57.0,78%,30.17,10.0,North,5.8,,N/A,,Scattered Clouds
4871,2016-09-22,7:51 AM,68.0,,57.9,70%,30.17,10.0,NE,3.5,,N/A,,Partly Cloudy
4872,2016-09-22,8:51 AM,72.0,,57.0,59%,30.17,10.0,ENE,5.8,,N/A,,Partly Cloudy
4873,2016-09-22,9:51 AM,75.9,,55.0,48%,30.19,10.0,East,6.9,,N/A,,Partly Cloudy
4874,2016-09-22,10:51 AM,80.1,79.9,53.1,39%,30.19,10.0,East,5.8,,N/A,,Partly Cloudy
4875,2016-09-22,11:51 AM,81.0,,50.0,34%,30.17,10.0,East,5.8,,N/A,,Partly Cloudy
4876,2016-09-22,12:51 PM,82.0,,48.9,31%,30.16,10.0,SE,12.7,,N/A,,Partly Cloudy
4877,2016-09-22,1:51 PM,82.0,,48.0,30%,30.14,10.0,East,9.2,,N/A,,Partly Cloudy
4878,2016-09-22,2:51 PM,82.0,,44.1,26%,30.12,10.0,SE,10.4,,N/A,,Partly Cloudy
4879,2016-09-22,3:51 PM,81.0,,48.9,33%,30.12,10.0,SSE,11.5,,N/A,,Partly Cloudy
4880,2016-09-22,4:51 PM,80.1,,48.0,32%,30.12,10.0,ESE,10.4,,N/A,,Partly Cloudy
4881,2016-09-22,5:51 PM,78.1,,48.9,36%,30.10,10.0,ESE,10.4,,N/A,,Partly Cloudy
4882,2016-09-22,6:51 PM,73.0,,48.9,42%,30.11,10.0,East,4.6,,N/A,,Partly Cloudy
4883,2016-09-22,7:51 PM,71.1,,54.0,55%,30.12,10.0,East,5.8,,N/A,,Partly Cloudy
4884,2016-09-22,8:51 PM,68.0,,55.0,63%,30.12,10.0,East,5.8,,N/A,,Partly Cloudy
4885,2016-09-22,9:51 PM,66.9,,55.9,68%,30.11,10.0,East,4.6,,N/A,,Partly Cloudy
4886,2016-09-22,10:51 PM,68.0,,57.9,70%,30.10,10.0,East,3.5,,N/A,,Clear
4887,2016-09-22,11:51 PM,66.9,,59.0,76%,30.09,10.0,NE,3.5,,N/A,,Clear
4888,2016-10-11,12:51 AM,48.0,,34.0,58%,30.41,10.0,North,5.8,,N/A,,Clear
4889,2016-10-11,1:51 AM,48.0,,33.1,56%,30.42,10.0,North,5.8,,N/A,,Clear
4890,2016-10-11,2:51 AM,46.9,,34.0,61%,30.42,10.0,North,8.1,,N/A,,Clear
4891,2016-10-11,3:51 AM,46.9,,34.0,61%,30.43,10.0,North,6.9,,N/A,,Clear
4892,2016-10-11,4:51 AM,46.0,41.9,34.0,63%,30.43,10.0,North,8.1,,N/A,,Clear
4893,2016-10-11,5:51 AM,46.0,42.5,34.0,63%,30.45,10.0,North,6.9,,N/A,,Clear
4894,2016-10-11,6:51 AM,45.0,41.2,35.1,68%,30.45,10.0,North,6.9,,N/A,,Clear
4895,2016-10-11,7:51 AM,48.0,,37.0,66%,30.46,10.0,North,6.9,,N/A,,Clear
4896,2016-10-11,8:51 AM,52.0,,37.0,57%,30.48,10.0,NE,8.1,,N/A,,Partly Cloudy
4897,2016-10-11,9:51 AM,55.0,,39.0,55%,30.48,10.0,NE,10.4,,N/A,,Partly Cloudy
4898,2016-10-11,10:51 AM,57.9,,39.0,49%,30.49,10.0,NE,6.9,,N/A,,Partly Cloudy
4899,2016-10-11,11:51 AM,60.1,,39.0,46%,30.48,10.0,Variable,4.6,,N/A,,Partly Cloudy
4900,2016-10-11,12:51 PM,63.0,,39.9,43%,30.48,10.0,ESE,8.1,,N/A,,Partly Cloudy
4901,2016-10-11,1:51 PM,61.0,,39.9,46%,30.45,10.0,SSE,8.1,,N/A,,Partly Cloudy
4902,2016-10-11,2:51 PM,61.0,,46.0,58%,30.44,10.0,SE,10.4,,N/A,,Scattered Clouds
4903,2016-10-11,3:51 PM,61.0,,46.9,60%,30.43,10.0,Variable,5.8,,N/A,,Scattered Clouds
4904,2016-10-11,4:51 PM,61.0,,45.0,56%,30.43,10.0,SSE,8.1,,N/A,,Scattered Clouds
4905,2016-10-11,5:51 PM,59.0,,45.0,60%,30.43,10.0,SE,4.6,,N/A,,Mostly Cloudy
4906,2016-10-11,6:51 PM,57.0,,45.0,64%,30.43,10.0,ESE,3.5,,N/A,,Mostly Cloudy
4907,2016-10-11,7:51 PM,55.9,,46.9,72%,30.43,10.0,East,4.6,,N/A,,Mostly Cloudy
4908,2016-10-11,8:51 PM,53.1,,46.0,77%,30.42,10.0,East,4.6,,N/A,,Mostly Cloudy
4909,2016-10-11,9:51 PM,54.0,,48.0,80%,30.43,10.0,ENE,5.8,,N/A,,Mostly Cloudy
4910,2016-10-11,10:51 PM,53.1,,48.0,83%,30.42,10.0,ENE,4.6,,N/A,,Overcast
4911,2016-10-11,11:51 PM,52.0,,46.9,83%,30.42,10.0,ENE,3.5,,N/A,,Mostly Cloudy
4912,2016-10-15,12:51 AM,48.9,,39.0,69%,30.39,10.0,NNE,3.5,,N/A,,Partly Cloudy
4913,2016-10-15,1:51 AM,46.9,,37.9,71%,30.38,10.0,North,3.5,,N/A,,Partly Cloudy
4914,2016-10-15,2:51 AM,46.0,41.9,37.9,73%,30.38,10.0,North,8.1,,N/A,,Partly Cloudy
4915,2016-10-15,3:51 AM,46.9,,39.0,74%,30.37,10.0,North,4.6,,N/A,,Partly Cloudy
4916,2016-10-15,4:51 AM,46.0,43.9,39.0,76%,30.39,10.0,North,4.6,,N/A,,Partly Cloudy
4917,2016-10-15,5:51 AM,46.9,,41.0,80%,30.40,10.0,NNE,4.6,,N/A,,Clear
4918,2016-10-15,6:51 AM,46.9,,42.1,83%,30.41,10.0,North,6.9,,N/A,,Partly Cloudy
4919,2016-10-15,7:51 AM,48.9,,43.0,80%,30.44,10.0,NNE,8.1,,N/A,,Partly Cloudy
4920,2016-10-15,8:51 AM,53.1,,45.0,74%,30.46,10.0,NE,8.1,,N/A,,Partly Cloudy
4921,2016-10-15,9:51 AM,57.0,,45.0,64%,30.46,10.0,ENE,6.9,,N/A,,Partly Cloudy
4922,2016-10-15,10:51 AM,61.0,,44.1,54%,30.46,10.0,ESE,4.6,,N/A,,Partly Cloudy
4923,2016-10-15,11:51 AM,61.0,,43.0,52%,30.44,10.0,SE,4.6,,N/A,,Partly Cloudy
4924,2016-10-15,12:51 PM,62.1,,46.0,56%,30.43,10.0,Variable,4.6,,N/A,,Scattered Clouds
4925,2016-10-15,1:51 PM,62.1,,45.0,53%,30.41,10.0,South,6.9,,N/A,,Scattered Clouds
4926,2016-10-15,2:51 PM,64.0,,46.0,52%,30.40,10.0,ESE,9.2,,N/A,,Scattered Clouds
4927,2016-10-15,3:51 PM,62.1,,44.1,52%,30.38,10.0,SE,8.1,,N/A,,Partly Cloudy
4928,2016-10-15,4:51 PM,62.1,,42.1,48%,30.37,10.0,SSE,9.2,,N/A,,Partly Cloudy
4929,2016-10-15,5:51 PM,60.1,,43.0,53%,30.36,10.0,SSE,8.1,,N/A,,Partly Cloudy
4930,2016-10-15,6:51 PM,57.0,,44.1,62%,30.36,10.0,SSE,6.9,,N/A,,Scattered Clouds
4931,2016-10-15,7:51 PM,57.0,,45.0,64%,30.35,10.0,SSE,5.8,,N/A,,Scattered Clouds
4932,2016-10-15,8:51 PM,57.0,,46.0,67%,30.34,10.0,South,9.2,,N/A,,Scattered Clouds
4933,2016-10-15,9:51 PM,57.9,,48.0,70%,30.34,10.0,SSW,11.5,,N/A,,Scattered Clouds
4934,2016-10-15,10:51 PM,57.0,,48.9,74%,30.34,10.0,SW,9.2,,N/A,,Partly Cloudy
4935,2016-10-15,11:51 PM,55.0,,48.9,80%,30.33,10.0,SW,8.1,,N/A,,Partly Cloudy
4936,2016-10-19,12:51 AM,68.0,,63.0,84%,29.89,10.0,SW,10.4,,N/A,,Clear
4937,2016-10-19,1:51 AM,68.0,,63.0,84%,29.89,10.0,SW,8.1,,N/A,,Clear
4938,2016-10-19,2:51 AM,66.9,,63.0,87%,29.89,10.0,SW,8.1,,N/A,,Partly Cloudy
4939,2016-10-19,3:51 AM,66.9,,63.0,87%,29.89,10.0,SW,3.5,,N/A,,Partly Cloudy
4940,2016-10-19,4:51 AM,64.9,,61.0,87%,29.89,10.0,SSW,6.9,,N/A,,Partly Cloudy
4941,2016-10-19,5:51 AM,66.9,,62.1,84%,29.90,10.0,SSW,9.2,,N/A,,Scattered Clouds
4942,2016-10-19,6:51 AM,66.9,,63.0,87%,29.92,10.0,SW,8.1,,N/A,,Partly Cloudy
4943,2016-10-19,7:51 AM,66.0,,63.0,90%,29.94,9.0,SSW,6.9,,N/A,,Scattered Clouds
4944,2016-10-19,8:51 AM,73.0,,64.0,73%,29.96,10.0,West,6.9,,N/A,,Scattered Clouds
4945,2016-10-19,9:51 AM,78.1,,64.0,62%,29.97,10.0,WNW,5.8,,N/A,,Scattered Clouds
4946,2016-10-19,10:51 AM,80.1,81.7,64.0,58%,29.99,10.0,WNW,8.1,,N/A,,Mostly Cloudy
4947,2016-10-19,11:51 AM,78.1,,63.0,60%,29.98,10.0,West,6.9,,N/A,,Mostly Cloudy
4948,2016-10-19,12:51 PM,82.9,84.0,63.0,51%,29.98,10.0,SW,6.9,,N/A,,Partly Cloudy
4949,2016-10-19,1:51 PM,82.9,84.0,63.0,51%,29.96,10.0,SW,9.2,,N/A,,Partly Cloudy
4950,2016-10-19,2:51 PM,82.9,84.0,63.0,51%,29.96,10.0,SW,10.4,,N/A,,Scattered Clouds
4951,2016-10-19,3:51 PM,84.9,85.0,61.0,44%,29.97,10.0,West,9.2,,N/A,,Scattered Clouds
4952,2016-10-19,4:51 PM,77.0,,63.0,62%,29.99,10.0,South,8.1,,N/A,,Partly Cloudy
4953,2016-10-19,5:51 PM,73.0,,63.0,71%,30.01,10.0,South,6.9,,N/A,,Scattered Clouds
4954,2016-10-19,6:51 PM,78.1,,52.0,40%,30.04,10.0,North,11.5,,N/A,,Mostly Cloudy
4955,2016-10-19,7:51 PM,75.9,,48.9,38%,30.07,10.0,North,10.4,,N/A,,Mostly Cloudy
4956,2016-10-19,8:51 PM,73.9,,45.0,35%,30.09,10.0,North,11.5,,N/A,,Scattered Clouds
4957,2016-10-19,9:51 PM,71.1,,48.9,45%,30.12,10.0,NNE,11.5,,N/A,,Scattered Clouds
4958,2016-10-19,10:51 PM,68.0,,50.0,52%,30.14,10.0,NNE,9.2,,N/A,,Partly Cloudy
4959,2016-10-19,11:51 PM,66.9,,50.0,54%,30.14,10.0,NNE,8.1,,N/A,,Partly Cloudy
4960,2016-10-25,12:51 AM,48.9,,30.0,48%,30.14,10.0,NW,11.5,,N/A,,Partly Cloudy
4961,2016-10-25,1:51 AM,48.9,,30.0,48%,30.15,10.0,WNW,11.5,,N/A,,Partly Cloudy
4962,2016-10-25,2:51 AM,48.0,,30.0,50%,30.16,10.0,NW,11.5,21.9,N/A,,Scattered Clouds
4963,2016-10-25,3:51 AM,48.9,,30.0,48%,30.16,10.0,WNW,16.1,24.2,N/A,,Partly Cloudy
4964,2016-10-25,4:51 AM,48.9,,30.9,50%,30.17,10.0,NW,12.7,19.6,N/A,,Partly Cloudy
4965,2016-10-25,5:51 AM,48.9,,30.9,50%,30.19,10.0,NW,13.8,,N/A,,Mostly Cloudy
4966,2016-10-25,6:51 AM,48.0,,30.9,52%,30.20,10.0,WNW,11.5,,N/A,,Mostly Cloudy
4967,2016-10-25,7:51 AM,48.9,,30.0,48%,30.22,10.0,NW,13.8,21.9,N/A,,Mostly Cloudy
4968,2016-10-25,8:51 AM,48.9,,32.0,52%,30.23,10.0,NW,16.1,,N/A,,Mostly Cloudy
4969,2016-10-25,9:51 AM,50.0,,30.9,48%,30.22,10.0,WNW,12.7,,N/A,,Mostly Cloudy
4970,2016-10-25,10:51 AM,50.0,,30.9,48%,30.22,10.0,NW,16.1,25.3,N/A,,Mostly Cloudy
4971,2016-10-25,11:51 AM,51.1,,30.0,44%,30.22,10.0,NW,19.6,26.5,0.00,,Mostly Cloudy
4972,2016-10-25,12:51 PM,51.1,,28.9,43%,30.22,10.0,WNW,17.3,31.1,N/A,,Mostly Cloudy
4973,2016-10-25,1:51 PM,52.0,,26.1,37%,30.21,10.0,WNW,20.7,33.4,N/A,,Mostly Cloudy
4974,2016-10-25,2:51 PM,54.0,,26.1,34%,30.20,10.0,WNW,25.3,33.4,N/A,,Scattered Clouds
4975,2016-10-25,3:51 PM,54.0,,28.0,37%,30.21,10.0,WNW,19.6,29.9,N/A,,Scattered Clouds
4976,2016-10-25,4:51 PM,53.1,,24.1,32%,30.22,10.0,NW,24.2,33.4,N/A,,Scattered Clouds
4977,2016-10-25,5:51 PM,51.1,,24.1,35%,30.24,10.0,WNW,23.0,28.8,N/A,,Scattered Clouds
4978,2016-10-25,6:51 PM,50.0,,23.0,35%,30.27,10.0,NW,16.1,25.3,N/A,,Partly Cloudy
4979,2016-10-25,7:51 PM,48.9,,23.0,36%,30.30,10.0,NW,15.0,,N/A,,Partly Cloudy
4980,2016-10-25,8:51 PM,48.9,,21.9,35%,30.32,10.0,NW,19.6,27.6,N/A,,Partly Cloudy
4981,2016-10-25,9:51 PM,46.9,,21.0,36%,30.34,10.0,NNW,20.7,,N/A,,Partly Cloudy
4982,2016-10-25,10:51 PM,46.0,39.6,21.0,37%,30.35,10.0,NNW,15.0,,N/A,,Partly Cloudy
4983,2016-10-25,11:51 PM,45.0,38.9,21.0,39%,30.36,10.0,NW,12.7,,N/A,,Clear
4984,2016-10-26,12:51 AM,44.1,37.4,21.9,42%,30.37,10.0,NW,13.8,,N/A,,Partly Cloudy
4985,2016-10-26,1:51 AM,43.0,36.4,23.0,45%,30.38,10.0,NW,12.7,,N/A,,Partly Cloudy
4986,2016-10-26,2:51 AM,42.1,36.6,24.1,49%,30.38,10.0,NW,9.2,,N/A,,Clear
4987,2016-10-26,3:51 AM,42.1,36.1,25.0,51%,30.37,10.0,NW,10.4,,N/A,,Clear
4988,2016-10-26,4:51 AM,41.0,34.3,25.0,53%,30.38,10.0,NW,11.5,,N/A,,Clear
4989,2016-10-26,5:51 AM,41.0,35.2,25.0,53%,30.39,10.0,NW,9.2,,N/A,,Clear
4990,2016-10-26,6:51 AM,41.0,34.7,26.1,55%,30.41,10.0,WNW,10.4,,N/A,,Partly Cloudy
4991,2016-10-26,7:51 AM,41.0,34.7,26.1,55%,30.42,10.0,NW,10.4,,N/A,,Partly Cloudy
4992,2016-10-26,8:51 AM,44.1,37.7,26.1,49%,30.43,10.0,NW,12.7,,N/A,,Partly Cloudy
4993,2016-10-26,9:51 AM,46.9,,25.0,42%,30.43,10.0,NW,11.5,,N/A,,Partly Cloudy
4994,2016-10-26,10:51 AM,48.0,,23.0,37%,30.43,10.0,NNW,16.1,,N/A,,Partly Cloudy
4995,2016-10-26,11:51 AM,50.0,,24.1,36%,30.42,10.0,North,17.3,21.9,N/A,,Scattered Clouds
4996,2016-10-26,12:51 PM,48.9,,23.0,36%,30.40,10.0,NW,17.3,,N/A,,Scattered Clouds
4997,2016-10-26,1:51 PM,51.1,,23.0,33%,30.39,10.0,North,8.1,,N/A,,Mostly Cloudy
4998,2016-10-26,2:51 PM,51.1,,23.0,33%,30.39,10.0,NNW,6.9,,N/A,,Mostly Cloudy
4999,2016-10-26,3:51 PM,52.0,,24.1,34%,30.39,10.0,NNW,10.4,,N/A,,Mostly Cloudy
5000,2016-10-26,4:51 PM,50.0,,23.0,35%,30.39,10.0,North,11.5,,N/A,,Mostly Cloudy
5001,2016-10-26,5:51 PM,48.9,,21.0,33%,30.39,10.0,North,8.1,,N/A,,Mostly Cloudy
5002,2016-10-26,6:51 PM,48.0,,21.9,36%,30.41,10.0,NNW,11.5,,N/A,,Mostly Cloudy
5003,2016-10-26,7:51 PM,48.0,,21.9,36%,30.43,10.0,NNW,10.4,,N/A,,Mostly Cloudy
5004,2016-10-26,8:51 PM,46.9,,23.0,39%,30.44,10.0,NNW,13.8,20.7,N/A,,Mostly Cloudy
5005,2016-10-26,9:51 PM,45.0,39.7,23.0,42%,30.46,10.0,NNE,10.4,,N/A,,Mostly Cloudy
5006,2016-10-26,10:51 PM,45.0,39.7,23.0,42%,30.46,10.0,NNE,10.4,,N/A,,Mostly Cloudy
5007,2016-10-26,11:51 PM,45.0,40.1,23.0,42%,30.47,10.0,NNE,9.2,,N/A,,Overcast
5008,2016-10-27,12:51 AM,45.0,40.1,23.0,42%,30.47,10.0,NNE,9.2,,N/A,,Overcast
5009,2016-10-27,1:51 AM,44.1,40.1,24.1,45%,30.46,10.0,NE,6.9,,N/A,,Overcast
5010,2016-10-27,2:51 AM,44.1,39.5,25.0,47%,30.46,10.0,NNE,8.1,,N/A,,Overcast
5011,2016-10-27,3:51 AM,44.1,39.5,25.0,47%,30.44,10.0,ENE,8.1,,N/A,,Overcast
5012,2016-10-27,4:51 AM,44.1,40.1,26.1,49%,30.44,10.0,ENE,6.9,,N/A,,Overcast
5013,2016-10-27,5:51 AM,44.1,40.1,27.0,51%,30.45,10.0,East,6.9,,N/A,,Overcast
5014,2016-10-27,6:51 AM,44.1,39.5,26.1,49%,30.45,10.0,ENE,8.1,,N/A,,Mostly Cloudy
5015,2016-10-27,7:51 AM,44.1,37.7,27.0,51%,30.45,10.0,ENE,12.7,,0.00,Ra,Light Ra
5016,2016-10-27,8:51 AM,43.0,37.7,30.9,62%,30.47,10.0,NE,9.2,,0.00,Ra,Light Ra
5017,2016-10-27,9:51 AM,43.0,37.2,33.1,68%,30.44,10.0,ENE,10.4,,0.00,Ra,Light Ra
5018,2016-10-27,10:38 AM,42.1,35.7,34.0,73%,30.43,8.0,NE,11.5,,0.01,Ra,Light Ra
5019,2016-10-27,10:51 AM,42.1,35.2,34.0,73%,30.43,8.0,NE,12.7,,0.02,Ra,Light Ra
5020,2016-10-27,11:51 AM,42.1,34.9,36.0,79%,30.40,10.0,ENE,13.8,,0.02,Ra,Light Ra
5021,2016-10-27,12:51 PM,43.0,35.7,37.9,82%,30.32,10.0,East,15.0,24.2,0.01,Ra,Light Ra
5022,2016-10-27,1:51 PM,44.1,38.1,39.0,82%,30.31,10.0,East,11.5,,0.00,Ra,Light Ra
5023,2016-10-27,2:51 PM,45.0,40.1,41.0,86%,30.26,10.0,ENE,9.2,,0.03,Ra,Light Ra
5024,2016-10-27,3:37 PM,52.0,,46.0,80%,30.25,10.0,SE,12.7,,0.02,Ra,Light Ra
5025,2016-10-27,3:51 PM,53.1,,46.0,77%,30.25,10.0,SSE,15.0,,0.02,Ra,Light Ra
5026,2016-10-27,4:51 PM,54.0,,46.9,77%,30.20,7.0,SSE,17.3,28.8,0.05,Ra,Light Ra
5027,2016-10-27,5:51 PM,55.0,,48.9,80%,30.17,5.0,SE,18.4,,0.08,Ra,Light Ra
5028,2016-10-27,6:51 PM,55.9,,52.0,87%,30.14,8.0,SSE,20.7,28.8,0.13,Ra,Light Ra
5029,2016-10-27,7:23 PM,57.0,,53.1,87%,30.12,7.0,SE,19.6,,0.06,Ra,Light Ra
5030,2016-10-27,7:51 PM,57.9,,53.1,84%,30.11,5.0,SSE,19.6,28.8,0.08,Ra,Ra
5031,2016-10-27,8:51 PM,60.1,,55.9,86%,30.06,7.0,South,21.9,,0.03,Ra,Light Ra
5032,2016-10-27,9:51 PM,61.0,,57.9,90%,30.03,7.0,South,18.4,27.6,0.03,Ra,Light Ra
5033,2016-10-27,10:51 PM,61.0,,57.9,90%,30.01,10.0,SSW,15.0,,0.03,,Overcast
5034,2016-10-27,11:51 PM,60.1,,57.0,90%,30.00,10.0,WSW,9.2,,0.01,Ra,Light Ra
5035,2016-10-28,12:35 AM,59.0,,55.9,90%,30.00,8.0,West,15.0,,0.00,Ra,Light Ra
5036,2016-10-28,12:51 AM,57.9,,55.0,90%,30.00,10.0,WNW,13.8,,0.00,,Overcast
5037,2016-10-28,1:12 AM,57.0,,53.1,87%,30.00,10.0,WNW,11.5,,N/A,,Mostly Cloudy
5038,2016-10-28,1:51 AM,55.0,,51.1,86%,30.01,10.0,NW,11.5,,N/A,,Mostly Cloudy
5039,2016-10-28,2:51 AM,51.1,,46.9,86%,30.02,10.0,NW,11.5,,N/A,,Mostly Cloudy
5040,2016-10-28,3:51 AM,48.0,,44.1,86%,30.03,10.0,NW,9.2,,N/A,,Mostly Cloudy
5041,2016-10-28,4:51 AM,48.0,,44.1,86%,30.04,10.0,WNW,10.4,,N/A,,Scattered Clouds
5042,2016-10-28,5:51 AM,48.0,,42.1,80%,30.05,10.0,WNW,12.7,,N/A,,Scattered Clouds
5043,2016-10-28,6:51 AM,48.0,,39.9,74%,30.07,10.0,NW,19.6,26.5,N/A,,Scattered Clouds
5044,2016-10-28,7:51 AM,46.9,,36.0,66%,30.09,10.0,NW,20.7,28.8,N/A,,Mostly Cloudy
5045,2016-10-28,8:51 AM,48.0,,35.1,61%,30.12,10.0,WNW,18.4,,N/A,,Scattered Clouds
5046,2016-10-28,9:51 AM,48.0,,32.0,54%,30.12,10.0,NW,26.5,36.8,N/A,,Scattered Clouds
5047,2016-10-28,10:51 AM,48.9,,30.9,50%,30.12,10.0,NW,26.5,36.8,N/A,,Scattered Clouds
5048,2016-10-28,11:51 AM,48.0,,28.9,48%,30.12,10.0,NW,27.6,35.7,N/A,,Mostly Cloudy
5049,2016-10-28,12:51 PM,48.0,,28.0,46%,30.12,10.0,WNW,27.6,33.4,N/A,,Mostly Cloudy
5050,2016-10-28,1:51 PM,48.9,,28.9,46%,30.11,10.0,WNW,31.1,38.0,N/A,,Mostly Cloudy
5051,2016-10-28,2:51 PM,50.0,,28.9,44%,30.10,10.0,NW,31.1,40.3,N/A,,Mostly Cloudy
5052,2016-10-28,3:51 PM,48.9,,28.9,46%,30.12,10.0,WNW,21.9,35.7,N/A,,Mostly Cloudy
5053,2016-10-28,4:51 PM,48.9,,28.9,46%,30.13,10.0,NW,28.8,34.5,N/A,,Scattered Clouds
5054,2016-10-28,5:51 PM,46.9,,28.9,50%,30.15,10.0,NW,19.6,33.4,N/A,,Partly Cloudy
5055,2016-10-28,6:51 PM,46.0,38.5,30.0,54%,30.19,10.0,NW,19.6,28.8,N/A,,Partly Cloudy
5056,2016-10-28,7:51 PM,46.0,38.3,30.0,54%,30.20,10.0,NW,20.7,29.9,N/A,,Partly Cloudy
5057,2016-10-28,8:51 PM,46.0,38.5,30.9,56%,30.21,10.0,NW,19.6,,N/A,,Partly Cloudy
5058,2016-10-28,9:51 PM,45.0,38.2,30.9,58%,30.21,10.0,NW,15.0,,N/A,,Scattered Clouds
5059,2016-10-28,10:51 PM,44.1,37.7,30.9,60%,30.21,10.0,NNW,12.7,,N/A,,Scattered Clouds
5060,2016-10-28,11:51 PM,44.1,36.8,30.9,60%,30.22,10.0,NNW,16.1,,N/A,,Mostly Cloudy
5061,2016-10-29,12:51 AM,44.1,38.1,30.9,60%,30.22,10.0,NW,11.5,,N/A,,Scattered Clouds
5062,2016-10-29,1:51 AM,42.1,36.6,30.9,65%,30.21,10.0,NW,9.2,,N/A,,Scattered Clouds
5063,2016-10-29,2:51 AM,43.0,38.8,32.0,65%,30.21,10.0,WNW,6.9,,N/A,,Scattered Clouds
5064,2016-10-29,3:51 AM,42.1,38.4,30.9,65%,30.20,10.0,NNW,5.8,,N/A,,Partly Cloudy
5065,2016-10-29,4:51 AM,43.0,,32.0,65%,30.21,10.0,Calm,Calm,,N/A,,Partly Cloudy
5066,2016-10-29,5:51 AM,41.0,,32.0,70%,30.21,10.0,Calm,Calm,,N/A,,Partly Cloudy
5067,2016-10-29,6:51 AM,41.0,35.8,33.1,73%,30.21,10.0,West,8.1,,N/A,,Partly Cloudy
5068,2016-10-29,7:51 AM,43.0,38.8,34.0,71%,30.21,10.0,West,6.9,,N/A,,Partly Cloudy
5069,2016-10-29,8:51 AM,46.9,,35.1,63%,30.20,10.0,SW,4.6,,N/A,,Mostly Cloudy
5070,2016-10-29,9:51 AM,48.9,,34.0,56%,30.18,10.0,SSW,6.9,,N/A,,Mostly Cloudy
5071,2016-10-29,10:51 AM,51.1,,36.0,56%,30.15,10.0,SW,11.5,,N/A,,Mostly Cloudy
5072,2016-10-29,11:51 AM,53.1,,36.0,52%,30.11,10.0,SW,13.8,,N/A,,Mostly Cloudy
5073,2016-10-29,12:51 PM,55.9,,37.0,49%,30.07,10.0,SSW,13.8,,N/A,,Mostly Cloudy
5074,2016-10-29,1:51 PM,60.1,,37.9,44%,30.02,10.0,SW,10.4,,N/A,,Mostly Cloudy
5075,2016-10-29,2:51 PM,61.0,,39.9,46%,29.98,10.0,SW,11.5,,N/A,,Mostly Cloudy
5076,2016-10-29,3:51 PM,62.1,,43.0,50%,29.96,10.0,SSW,8.1,,N/A,,Mostly Cloudy
5077,2016-10-29,4:51 PM,62.1,,46.0,56%,29.94,10.0,South,5.8,,N/A,,Mostly Cloudy
5078,2016-10-29,5:51 PM,61.0,,46.9,60%,29.91,10.0,SSW,6.9,,N/A,,Mostly Cloudy
5079,2016-10-29,6:51 PM,62.1,,48.0,60%,29.93,10.0,SW,9.2,,N/A,,Mostly Cloudy
5080,2016-10-29,7:51 PM,62.1,,48.0,60%,29.92,10.0,SW,12.7,,N/A,,Mostly Cloudy
5081,2016-10-29,8:51 PM,62.1,,48.0,60%,29.93,10.0,SW,15.0,,N/A,,Mostly Cloudy
5082,2016-10-29,9:51 PM,62.1,,48.9,62%,29.94,10.0,WSW,11.5,,N/A,,Mostly Cloudy
5083,2016-10-29,10:51 PM,62.1,,50.0,65%,29.93,10.0,WSW,13.8,,N/A,,Mostly Cloudy
5084,2016-10-29,11:51 PM,62.1,,51.1,67%,29.92,10.0,WSW,10.4,,N/A,,Mostly Cloudy
5085,2016-10-31,12:51 AM,55.9,,50.0,80%,29.96,10.0,NNW,13.8,,N/A,,Mostly Cloudy
5086,2016-10-31,1:51 AM,55.0,,44.1,67%,29.99,10.0,NNW,23.0,28.8,N/A,,Mostly Cloudy
5087,2016-10-31,2:51 AM,51.1,,39.0,63%,30.01,10.0,NNW,17.3,26.5,N/A,,Mostly Cloudy
5088,2016-10-31,3:51 AM,50.0,,37.0,61%,30.03,10.0,NNW,19.6,,N/A,,Mostly Cloudy
5089,2016-10-31,4:51 AM,48.0,,36.0,63%,30.06,10.0,North,16.1,,N/A,,Partly Cloudy
5090,2016-10-31,5:51 AM,48.0,,36.0,63%,30.09,10.0,NNW,13.8,23.0,N/A,,Mostly Cloudy
5091,2016-10-31,6:51 AM,46.9,,34.0,61%,30.11,10.0,NNW,16.1,,N/A,,Scattered Clouds
5092,2016-10-31,7:51 AM,46.9,,33.1,59%,30.14,10.0,NNW,16.1,,N/A,,Mostly Cloudy
5093,2016-10-31,8:51 AM,46.9,,34.0,61%,30.17,10.0,NNW,16.1,,N/A,,Mostly Cloudy
5094,2016-10-31,9:51 AM,48.0,,33.1,56%,30.18,10.0,North,16.1,,N/A,,Scattered Clouds
5095,2016-10-31,10:51 AM,50.0,,32.0,50%,30.19,10.0,North,15.0,,N/A,,Scattered Clouds
5096,2016-10-31,11:51 AM,51.1,,30.9,46%,30.20,10.0,NNW,12.7,20.7,N/A,,Partly Cloudy
5097,2016-10-31,12:51 PM,54.0,,30.0,40%,30.20,10.0,NNW,13.8,,N/A,,Partly Cloudy
5098,2016-10-31,1:51 PM,54.0,,28.9,38%,30.19,10.0,NNW,10.4,,N/A,,Partly Cloudy
5099,2016-10-31,2:51 PM,55.0,,28.9,37%,30.19,10.0,NNW,11.5,,N/A,,Partly Cloudy
5100,2016-10-31,3:51 PM,55.9,,28.9,36%,30.19,10.0,NNW,6.9,18.4,N/A,,Partly Cloudy
5101,2016-10-31,4:51 PM,55.9,,28.9,36%,30.19,10.0,North,12.7,,N/A,,Scattered Clouds
5102,2016-10-31,5:51 PM,52.0,,30.9,45%,30.21,10.0,NNE,5.8,,N/A,,Scattered Clouds
5103,2016-10-31,6:51 PM,51.1,,30.9,46%,30.22,10.0,NNE,4.6,,N/A,,Mostly Cloudy
5104,2016-10-31,7:51 PM,48.9,,33.1,54%,30.24,10.0,ENE,4.6,,N/A,,Mostly Cloudy
5105,2016-10-31,8:51 PM,48.0,,34.0,58%,30.26,10.0,East,3.5,,N/A,,Mostly Cloudy
5106,2016-10-31,9:51 PM,46.0,43.1,33.1,61%,30.27,10.0,North,5.8,,N/A,,Mostly Cloudy
5107,2016-10-31,10:51 PM,46.9,,34.0,61%,30.30,10.0,North,8.1,,N/A,,Mostly Cloudy
5108,2016-10-31,11:51 PM,45.0,41.2,34.0,65%,30.31,10.0,North,6.9,,N/A,,Scattered Clouds
5109,2016-11-01,12:51 AM,44.1,41.5,35.1,71%,30.32,10.0,North,4.6,,N/A,,Scattered Clouds
5110,2016-11-01,1:51 AM,44.1,40.8,35.1,71%,30.33,10.0,NNE,5.8,,N/A,,Partly Cloudy
5111,2016-11-01,2:51 AM,42.8,39.3,33.8,70%,30.33,10.0,NE,5.8,,N/A,,Scattered Clouds
5112,2016-11-01,3:51 AM,41.0,36.4,34.0,76%,30.34,10.0,NNE,6.9,,N/A,,Partly Cloudy
5113,2016-11-01,4:51 AM,41.0,36.4,35.1,79%,30.35,10.0,NE,6.9,,N/A,,Partly Cloudy
5114,2016-11-01,5:51 AM,39.9,35.8,35.1,83%,30.36,10.0,NE,5.8,,N/A,,Partly Cloudy
5115,2016-11-01,6:51 AM,39.9,36.7,35.1,83%,30.36,10.0,NE,4.6,,N/A,,Partly Cloudy
5116,2016-11-01,7:51 AM,42.1,37.7,36.0,79%,30.37,10.0,NE,6.9,,N/A,,Scattered Clouds
5117,2016-11-01,8:51 AM,46.0,41.4,39.0,76%,30.39,10.0,NE,9.2,,N/A,,Scattered Clouds
5118,2016-11-01,9:51 AM,51.1,,39.9,66%,30.39,10.0,ENE,6.9,,N/A,,Scattered Clouds
5119,2016-11-01,10:51 AM,55.0,,42.1,62%,30.39,10.0,SE,4.6,,N/A,,Partly Cloudy
5120,2016-11-01,11:51 AM,57.0,,42.1,57%,30.39,10.0,Variable,3.5,,N/A,,Scattered Clouds
5121,2016-11-01,12:51 PM,57.9,,39.9,51%,30.38,10.0,West,6.9,,N/A,,Scattered Clouds
5122,2016-11-01,1:51 PM,57.0,,39.0,51%,30.36,10.0,SSE,3.5,,N/A,,Scattered Clouds
5123,2016-11-01,2:51 PM,57.9,,41.0,53%,30.34,10.0,South,5.8,,N/A,,Mostly Cloudy
5124,2016-11-01,3:51 PM,57.9,,42.1,56%,30.33,10.0,South,6.9,,N/A,,Mostly Cloudy
5125,2016-11-01,4:51 PM,57.0,,42.1,57%,30.32,10.0,SSE,9.2,,N/A,,Mostly Cloudy
5126,2016-11-01,5:51 PM,55.9,,42.1,60%,30.33,10.0,South,8.1,,N/A,,Mostly Cloudy
5127,2016-11-01,6:51 PM,55.0,,44.1,67%,30.32,10.0,South,6.9,,N/A,,Mostly Cloudy
5128,2016-11-01,7:51 PM,55.9,,46.0,69%,30.32,10.0,South,12.7,,N/A,,Mostly Cloudy
5129,2016-11-01,8:51 PM,55.9,,46.9,72%,30.32,10.0,SSW,13.8,,N/A,,Mostly Cloudy
5130,2016-11-01,9:51 PM,55.9,,48.0,75%,30.33,10.0,SW,11.5,,N/A,,Mostly Cloudy
5131,2016-11-01,10:51 PM,55.9,,46.9,72%,30.32,10.0,SSW,15.0,,N/A,,Overcast
5132,2016-11-01,11:51 PM,55.9,,46.9,72%,30.32,10.0,SSW,12.7,,N/A,,Overcast
5133,2016-11-05,12:51 AM,48.9,,24.1,38%,30.24,10.0,NNW,11.5,,N/A,,Clear
5134,2016-11-05,1:51 AM,48.0,,27.0,44%,30.24,10.0,NNW,12.7,,N/A,,Clear
5135,2016-11-05,2:51 AM,46.9,,28.0,48%,30.24,10.0,NNW,9.2,,N/A,,Clear
5136,2016-11-05,3:51 AM,45.0,42.6,28.9,53%,30.22,10.0,NW,4.6,,N/A,,Clear
5137,2016-11-05,4:51 AM,46.0,43.9,28.9,51%,30.23,10.0,North,4.6,,N/A,,Scattered Clouds
5138,2016-11-05,5:51 AM,46.9,,30.9,54%,30.24,10.0,West,10.4,,N/A,,Partly Cloudy
5139,2016-11-05,6:51 AM,46.9,,30.9,54%,30.24,10.0,West,10.4,,N/A,,Partly Cloudy
5140,2016-11-05,7:51 AM,46.0,42.5,33.1,61%,30.25,10.0,West,6.9,,N/A,,Partly Cloudy
5141,2016-11-05,8:51 AM,50.0,,35.1,57%,30.24,10.0,West,9.2,,N/A,,Partly Cloudy
5142,2016-11-05,9:51 AM,52.0,,35.1,53%,30.24,10.0,West,12.7,,N/A,,Partly Cloudy
5143,2016-11-05,10:51 AM,54.0,,36.0,51%,30.23,10.0,WSW,11.5,,N/A,,Partly Cloudy
5144,2016-11-05,11:51 AM,57.9,,36.0,44%,30.22,10.0,WNW,13.8,,N/A,,Partly Cloudy
5145,2016-11-05,12:51 PM,61.0,,37.9,42%,30.19,10.0,NW,8.1,,N/A,,Scattered Clouds
5146,2016-11-05,1:51 PM,63.0,,39.9,43%,30.16,10.0,NW,15.0,,N/A,,Mostly Cloudy
5147,2016-11-05,2:51 PM,63.0,,39.9,43%,30.15,10.0,West,13.8,,N/A,,Mostly Cloudy
5148,2016-11-05,3:51 PM,64.0,,39.0,40%,30.15,10.0,WNW,12.7,23.0,N/A,,Mostly Cloudy
5149,2016-11-05,4:51 PM,62.1,,39.0,43%,30.16,10.0,NW,13.8,,N/A,,Mostly Cloudy
5150,2016-11-05,5:51 PM,62.1,,39.9,44%,30.16,10.0,WNW,13.8,,N/A,,Mostly Cloudy
5151,2016-11-05,6:51 PM,61.0,,39.9,46%,30.16,10.0,NW,12.7,,N/A,,Mostly Cloudy
5152,2016-11-05,7:51 PM,59.0,,39.9,49%,30.17,10.0,West,9.2,,N/A,,Scattered Clouds
5153,2016-11-05,8:51 PM,59.0,,41.0,51%,30.17,10.0,West,6.9,,N/A,,Clear
5154,2016-11-05,9:51 PM,54.0,,42.1,64%,30.17,10.0,WSW,5.8,,N/A,,Partly Cloudy
5155,2016-11-05,10:51 PM,53.1,,43.0,69%,30.16,10.0,WSW,8.1,,N/A,,Mostly Cloudy
5156,2016-11-05,11:51 PM,55.0,,46.9,74%,30.14,10.0,WSW,10.4,,N/A,,Scattered Clouds
5157,2016-11-06,12:51 AM,54.0,,46.0,75%,30.13,10.0,WSW,10.4,,N/A,,Mostly Cloudy
5158,2016-11-06,1:51 AM,55.9,,43.0,62%,30.12,10.0,West,11.5,,N/A,,Mostly Cloudy
5159,2016-11-06,1:51 AM,55.9,,42.1,60%,30.11,10.0,West,10.4,,N/A,,Mostly Cloudy
5160,2016-11-06,2:51 AM,57.0,,43.0,59%,30.11,10.0,West,11.5,,N/A,,Mostly Cloudy
5161,2016-11-06,3:51 AM,57.9,,43.0,58%,30.10,10.0,WNW,18.4,,N/A,,Scattered Clouds
5162,2016-11-06,4:51 AM,55.9,,43.0,62%,30.12,10.0,WNW,19.6,,N/A,,Partly Cloudy
5163,2016-11-06,5:51 AM,55.9,,42.1,60%,30.13,10.0,NW,20.7,,N/A,,Scattered Clouds
5164,2016-11-06,6:51 AM,55.0,,39.9,57%,30.16,10.0,NW,19.6,25.3,N/A,,Scattered Clouds
5165,2016-11-06,7:51 AM,55.9,,37.0,49%,30.18,10.0,NW,16.1,,N/A,,Scattered Clouds
5166,2016-11-06,8:51 AM,57.0,,36.0,45%,30.19,10.0,NW,18.4,26.5,N/A,,Scattered Clouds
5167,2016-11-06,9:51 AM,57.9,,35.1,42%,30.20,10.0,NNW,17.3,25.3,N/A,,Scattered Clouds
5168,2016-11-06,10:51 AM,60.1,,33.1,36%,30.21,10.0,NNW,19.6,24.2,N/A,,Mostly Cloudy
5169,2016-11-06,11:51 AM,59.0,,32.0,36%,30.20,10.0,NW,18.4,23.0,N/A,,Mostly Cloudy
5170,2016-11-06,12:51 PM,60.1,,30.9,33%,30.20,10.0,North,13.8,19.6,N/A,,Mostly Cloudy
5171,2016-11-06,1:51 PM,60.1,,30.9,33%,30.21,10.0,North,18.4,25.3,0.00,,Mostly Cloudy
5172,2016-11-06,2:51 PM,57.0,,30.9,37%,30.23,10.0,NNE,19.6,27.6,N/A,,Scattered Clouds
5173,2016-11-06,3:51 PM,54.0,,30.0,40%,30.26,10.0,North,16.1,29.9,N/A,,Partly Cloudy
5174,2016-11-06,4:51 PM,52.0,,26.1,37%,30.29,10.0,North,17.3,26.5,N/A,,Partly Cloudy
5175,2016-11-06,5:51 PM,51.1,,27.0,39%,30.32,10.0,NNE,18.4,24.2,N/A,,Partly Cloudy
5176,2016-11-06,6:51 PM,50.0,,26.1,39%,30.35,10.0,NNE,13.8,,N/A,,Partly Cloudy
5177,2016-11-06,7:51 PM,48.9,,27.0,43%,30.36,10.0,North,11.5,,N/A,,Partly Cloudy
5178,2016-11-06,8:51 PM,48.0,,26.1,42%,30.38,10.0,NNE,13.8,,N/A,,Partly Cloudy
5179,2016-11-06,9:51 PM,46.9,,26.1,44%,30.40,10.0,NNE,13.8,,N/A,,Clear
5180,2016-11-06,10:51 PM,46.0,40.6,26.1,46%,30.40,10.0,North,11.5,20.7,N/A,,Clear
5181,2016-11-07,12:51 AM,44.1,38.6,27.0,51%,30.40,10.0,North,10.4,,N/A,,Scattered Clouds
5182,2016-11-07,1:51 AM,44.1,39.0,26.1,49%,30.41,10.0,North,9.2,,N/A,,Scattered Clouds
5183,2016-11-07,2:51 AM,43.0,38.2,26.1,51%,30.42,10.0,North,8.1,,N/A,,Partly Cloudy
5184,2016-11-07,3:51 AM,43.0,37.7,26.1,51%,30.43,10.0,North,9.2,,N/A,,Partly Cloudy
5185,2016-11-07,4:51 AM,42.1,38.4,27.0,55%,30.44,10.0,North,5.8,,N/A,,Partly Cloudy
5186,2016-11-07,5:51 AM,42.1,35.2,28.0,58%,30.45,10.0,North,12.7,,N/A,,Partly Cloudy
5187,2016-11-07,6:51 AM,42.1,35.7,30.0,62%,30.47,10.0,North,11.5,,N/A,,Partly Cloudy
5188,2016-11-07,7:51 AM,45.0,39.3,28.9,53%,30.48,10.0,NNE,11.5,,N/A,,Partly Cloudy
5189,2016-11-07,8:51 AM,46.9,,28.0,48%,30.49,10.0,NNE,12.7,,N/A,,Partly Cloudy
5190,2016-11-07,9:51 AM,48.9,,27.0,43%,30.49,10.0,NE,16.1,,N/A,,Scattered Clouds
5191,2016-11-07,10:51 AM,50.0,,24.1,36%,30.49,10.0,NNE,13.8,,N/A,,Scattered Clouds
5192,2016-11-07,11:51 AM,51.1,,24.1,35%,30.46,10.0,NNE,6.9,,N/A,,Partly Cloudy
5193,2016-11-07,12:51 PM,53.1,,25.0,34%,30.43,10.0,NW,10.4,,N/A,,Partly Cloudy
5194,2016-11-07,1:51 PM,53.1,,26.1,35%,30.41,10.0,NNW,8.1,,N/A,,Clear
5195,2016-11-07,2:51 PM,54.0,,26.1,34%,30.40,10.0,North,9.2,,N/A,,Clear
5196,2016-11-07,3:51 PM,53.1,,26.1,35%,30.39,10.0,North,10.4,,N/A,,Clear
5197,2016-11-07,4:51 PM,51.1,,26.1,38%,30.38,10.0,North,5.8,,N/A,,Clear
5198,2016-11-07,5:51 PM,51.1,,25.0,36%,30.37,10.0,North,10.4,,N/A,,Clear
5199,2016-11-07,6:51 PM,50.0,,24.1,36%,30.37,10.0,North,9.2,,N/A,,Clear
5200,2016-11-07,7:51 PM,51.1,,24.1,35%,30.37,10.0,North,9.2,,N/A,,Clear
5201,2016-11-07,8:51 PM,50.0,,25.0,38%,30.35,10.0,North,6.9,,N/A,,Clear
5202,2016-11-07,9:51 PM,48.0,,27.0,44%,30.34,10.0,NNW,6.9,,N/A,,Clear
5203,2016-11-07,10:51 PM,46.0,,28.9,51%,30.33,10.0,Calm,Calm,,N/A,,Clear
5204,2016-11-07,11:51 PM,45.0,41.8,30.0,56%,30.31,10.0,NNW,5.8,,N/A,,Clear
5205,2016-11-08,12:51 AM,45.0,41.8,28.9,53%,30.30,10.0,NNW,5.8,,N/A,,Clear
5206,2016-11-08,1:51 AM,45.0,41.8,28.0,52%,30.28,10.0,NNW,5.8,,N/A,,Clear
5207,2016-11-08,2:51 AM,43.0,40.3,30.0,60%,30.27,10.0,North,4.6,,N/A,,Clear
5208,2016-11-08,3:51 AM,42.1,38.4,30.9,65%,30.26,10.0,NNW,5.8,,N/A,,Clear
5209,2016-11-08,4:51 AM,43.0,,30.9,62%,30.25,10.0,Calm,Calm,,N/A,,Clear
5210,2016-11-08,5:51 AM,44.1,42.5,32.0,63%,30.24,10.0,NW,3.5,,N/A,,Clear
5211,2016-11-08,6:51 AM,46.0,41.9,33.1,61%,30.22,10.0,NW,8.1,,N/A,,Partly Cloudy
5212,2016-11-08,7:51 AM,50.0,,33.1,52%,30.22,10.0,NNW,4.6,,N/A,,Partly Cloudy
5213,2016-11-08,8:51 AM,54.0,,30.9,41%,30.20,10.0,NW,3.5,,N/A,,Scattered Clouds
5214,2016-11-08,9:51 AM,57.9,,32.0,37%,30.19,10.0,West,4.6,,N/A,,Scattered Clouds
5215,2016-11-08,10:51 AM,60.1,,33.1,36%,30.17,10.0,Variable,5.8,,N/A,,Scattered Clouds
5216,2016-11-08,11:51 AM,63.0,,32.0,31%,30.13,10.0,WSW,4.6,,N/A,,Scattered Clouds
5217,2016-11-08,12:51 PM,66.0,,28.0,24%,30.10,10.0,West,5.8,,N/A,,Partly Cloudy
5218,2016-11-08,1:51 PM,64.9,,33.1,31%,30.07,10.0,SSW,8.1,,N/A,,Partly Cloudy
5219,2016-11-08,2:51 PM,64.0,,39.9,41%,30.05,10.0,South,8.1,,N/A,,Scattered Clouds
5220,2016-11-08,3:51 PM,62.1,,42.1,48%,30.04,10.0,SSW,6.9,,N/A,,Mostly Cloudy
5221,2016-11-08,4:51 PM,55.9,,43.0,62%,30.02,10.0,SSW,8.1,,N/A,,Mostly Cloudy
5222,2016-11-08,5:51 PM,53.1,,45.0,74%,30.01,10.0,SSW,8.1,,N/A,,Mostly Cloudy
5223,2016-11-08,6:51 PM,54.0,,46.0,75%,30.00,10.0,SSW,4.6,,N/A,,Mostly Cloudy
5224,2016-11-08,7:51 PM,55.0,,45.0,69%,29.99,10.0,WSW,4.6,,N/A,,Mostly Cloudy
5225,2016-11-08,8:51 PM,53.1,,45.0,74%,29.97,10.0,SW,6.9,,N/A,,Mostly Cloudy
5226,2016-11-08,9:51 PM,51.1,,41.0,68%,29.95,10.0,SW,8.1,,N/A,,Mostly Cloudy
5227,2016-11-08,10:51 PM,51.1,,42.1,71%,29.93,10.0,SW,5.8,,N/A,,Mostly Cloudy
5228,2016-11-08,11:51 PM,53.1,,42.1,66%,29.92,10.0,SW,5.8,,N/A,,Overcast
5229,2016-11-10,12:51 AM,50.0,,37.9,63%,29.95,10.0,North,19.6,32.2,N/A,,Overcast
5230,2016-11-10,1:51 AM,48.0,,36.0,63%,29.96,10.0,North,18.4,,N/A,,Overcast
5231,2016-11-10,2:51 AM,46.9,,36.0,66%,29.97,10.0,North,12.7,,N/A,,Mostly Cloudy
5232,2016-11-10,3:49 AM,44.6,38.1,33.8,66%,29.98,10.0,NNW,13.8,,N/A,,Scattered Clouds
5233,2016-11-10,3:51 AM,45.0,38.2,33.1,63%,29.98,10.0,NNW,15.0,,N/A,,Scattered Clouds
5234,2016-11-10,4:51 AM,43.0,36.4,30.9,62%,30.00,10.0,NNW,12.7,,N/A,,Scattered Clouds
5235,2016-11-10,5:51 AM,41.0,37.1,30.9,67%,30.02,10.0,North,5.8,,N/A,,Partly Cloudy
5236,2016-11-10,6:51 AM,41.0,36.4,33.1,73%,30.04,10.0,North,6.9,,N/A,,Partly Cloudy
5237,2016-11-10,7:51 AM,44.1,37.4,32.0,63%,30.04,10.0,North,13.8,,N/A,,Partly Cloudy
5238,2016-11-10,8:51 AM,46.0,40.6,32.0,58%,30.05,10.0,NNW,11.5,,N/A,,Partly Cloudy
5239,2016-11-10,9:51 AM,48.9,,30.0,48%,30.04,10.0,NNW,11.5,,N/A,,Scattered Clouds
5240,2016-11-10,10:51 AM,51.1,,24.1,35%,30.03,10.0,NNW,10.4,,N/A,,Scattered Clouds
5241,2016-11-10,11:51 AM,53.1,,24.1,32%,29.99,10.0,WNW,5.8,,N/A,,Mostly Cloudy
5242,2016-11-10,12:51 PM,55.9,,21.0,26%,29.96,10.0,WNW,9.2,,N/A,,Mostly Cloudy
5243,2016-11-10,1:51 PM,55.9,,25.0,30%,29.93,10.0,West,11.5,,N/A,,Mostly Cloudy
5244,2016-11-10,2:51 PM,57.0,,30.0,36%,29.91,10.0,WSW,11.5,,N/A,,Mostly Cloudy
5245,2016-11-10,3:51 PM,55.9,,30.9,39%,29.90,10.0,WSW,12.7,,N/A,,Mostly Cloudy
5246,2016-11-10,4:51 PM,54.0,,35.1,49%,29.88,10.0,WSW,15.0,,N/A,,Mostly Cloudy
5247,2016-11-10,5:51 PM,54.0,,33.1,45%,29.87,10.0,WSW,13.8,,N/A,,Mostly Cloudy
5248,2016-11-10,6:51 PM,54.0,,34.0,47%,29.85,10.0,SW,18.4,,N/A,,Mostly Cloudy
5249,2016-11-10,7:51 PM,53.1,,37.9,57%,29.83,10.0,SW,15.0,,N/A,,Mostly Cloudy
5250,2016-11-10,8:51 PM,51.1,,37.0,59%,29.81,10.0,SW,12.7,,N/A,,Scattered Clouds
5251,2016-11-10,9:51 PM,50.0,,37.9,63%,29.78,10.0,SW,11.5,,N/A,,Partly Cloudy
5252,2016-11-10,10:51 PM,53.1,,37.9,57%,29.75,10.0,WSW,19.6,,N/A,,Partly Cloudy
5253,2016-11-10,11:51 PM,52.0,,37.9,59%,29.73,10.0,WSW,15.0,,N/A,,Clear
5254,2016-11-11,12:51 AM,52.0,,35.1,53%,29.69,10.0,WSW,13.8,,N/A,,Clear
5255,2016-11-11,1:51 AM,51.1,,37.0,59%,29.69,10.0,WSW,15.0,,N/A,,Clear
5256,2016-11-11,2:51 AM,52.0,,35.1,53%,29.68,10.0,WSW,16.1,,N/A,,Clear
5257,2016-11-11,3:51 AM,52.0,,35.1,53%,29.67,10.0,WSW,18.4,,N/A,,Clear
5258,2016-11-11,4:51 AM,51.1,,33.1,50%,29.67,10.0,WSW,15.0,,N/A,,Clear
5259,2016-11-11,5:51 AM,51.1,,33.1,50%,29.67,10.0,WSW,19.6,,N/A,,Clear
5260,2016-11-11,6:51 AM,51.1,,34.0,52%,29.68,10.0,West,16.1,,N/A,,Partly Cloudy
5261,2016-11-11,7:51 AM,53.1,,35.1,50%,29.70,10.0,West,13.8,,N/A,,Partly Cloudy
5262,2016-11-11,8:51 AM,57.0,,36.0,45%,29.70,10.0,West,16.1,23.0,N/A,,Partly Cloudy
5263,2016-11-11,9:51 AM,60.1,,37.0,42%,29.70,10.0,West,16.1,23.0,N/A,,Partly Cloudy
5264,2016-11-11,10:51 AM,64.0,,34.0,33%,29.70,10.0,NW,28.8,38.0,N/A,,Partly Cloudy
5265,2016-11-11,11:51 AM,64.9,,32.0,29%,29.70,10.0,NW,25.3,34.5,N/A,,Partly Cloudy
5266,2016-11-11,12:51 PM,64.0,,35.1,34%,29.73,10.0,NW,20.7,29.9,N/A,,Scattered Clouds
5267,2016-11-11,1:51 PM,63.0,,27.0,26%,29.75,10.0,NW,31.1,38.0,N/A,,Scattered Clouds
5268,2016-11-11,2:51 PM,59.0,,30.0,33%,29.79,10.0,NNW,29.9,40.3,N/A,,Scattered Clouds
5269,2016-11-11,3:51 PM,55.0,,21.0,27%,29.85,10.0,NNW,24.2,39.1,N/A,,Partly Cloudy
5270,2016-11-11,4:51 PM,53.1,,21.9,30%,29.91,10.0,NNW,19.6,29.9,N/A,,Partly Cloudy
5271,2016-11-11,5:51 PM,51.1,,21.0,31%,29.97,10.0,NW,25.3,33.4,N/A,,Partly Cloudy
5272,2016-11-11,6:51 PM,48.0,,19.0,32%,30.02,10.0,NW,26.5,35.7,N/A,,Scattered Clouds
5273,2016-11-11,7:51 PM,46.0,38.0,19.0,34%,30.06,10.0,NNW,21.9,34.5,N/A,,Scattered Clouds
5274,2016-11-11,8:51 PM,46.0,38.0,19.0,34%,30.11,10.0,NW,21.9,29.9,N/A,,Scattered Clouds
5275,2016-11-11,9:51 PM,44.1,35.9,19.0,37%,30.13,10.0,NNW,19.6,27.6,N/A,,Partly Cloudy
5276,2016-11-11,10:51 PM,43.0,35.4,19.0,38%,30.15,10.0,NNW,16.1,26.5,N/A,,Partly Cloudy
5277,2016-11-11,11:51 PM,43.0,34.2,18.0,37%,30.16,10.0,NNW,20.7,31.1,N/A,,Partly Cloudy
5278,2016-11-12,12:51 AM,41.0,32.8,17.1,38%,30.18,10.0,NNW,16.1,28.8,N/A,,Partly Cloudy
5279,2016-11-12,1:51 AM,41.0,32.8,16.0,36%,30.20,10.0,NNW,16.1,,N/A,,Partly Cloudy
5280,2016-11-12,2:51 AM,39.9,31.1,17.1,40%,30.21,10.0,NNW,17.3,,N/A,,Clear
5281,2016-11-12,3:51 AM,39.0,32.8,18.0,43%,30.23,10.0,NNW,9.2,,N/A,,Clear
5282,2016-11-12,4:51 AM,37.9,30.0,18.0,45%,30.26,10.0,NNW,12.7,,N/A,,Clear
5283,2016-11-12,5:51 AM,37.9,28.9,18.0,45%,30.28,10.0,NNW,16.1,,N/A,,Clear
5284,2016-11-12,6:51 AM,37.9,29.6,19.0,47%,30.32,10.0,NNW,13.8,,N/A,,Partly Cloudy
5285,2016-11-12,7:51 AM,39.9,33.9,19.9,45%,30.32,10.0,North,9.2,,N/A,,Partly Cloudy
5286,2016-11-12,9:51 AM,44.1,37.4,18.0,35%,30.35,10.0,NW,13.8,,N/A,,Partly Cloudy
5287,2016-11-12,10:51 AM,46.0,,18.0,33%,30.34,10.0,Calm,Calm,,N/A,,Partly Cloudy
5288,2016-11-12,11:51 AM,48.0,,17.1,29%,30.32,10.0,NW,12.7,20.7,N/A,,Partly Cloudy
5289,2016-11-12,12:51 PM,48.9,,17.1,28%,30.29,10.0,WNW,12.7,,N/A,,Scattered Clouds
5290,2016-11-12,1:51 PM,50.0,,17.1,27%,30.26,10.0,WNW,6.9,,N/A,,Mostly Cloudy
5291,2016-11-12,2:51 PM,51.1,,18.0,27%,30.25,10.0,West,6.9,,N/A,,Mostly Cloudy
5292,2016-11-12,3:51 PM,51.1,,19.9,29%,30.24,10.0,WSW,11.5,,N/A,,Mostly Cloudy
5293,2016-11-12,4:51 PM,48.9,,21.9,35%,30.22,10.0,West,11.5,,N/A,,Mostly Cloudy
5294,2016-11-12,5:51 PM,48.9,,21.0,33%,30.22,10.0,West,10.4,,N/A,,Scattered Clouds
5295,2016-11-12,6:51 PM,48.0,,26.1,42%,30.23,10.0,WSW,11.5,,N/A,,Scattered Clouds
5296,2016-11-12,7:51 PM,48.9,,24.1,38%,30.22,10.0,West,12.7,,N/A,,Mostly Cloudy
5297,2016-11-12,8:51 PM,46.9,,25.0,42%,30.22,10.0,West,12.7,,N/A,,Scattered Clouds
5298,2016-11-12,9:51 PM,46.9,,25.0,42%,30.21,10.0,West,12.7,,N/A,,Clear
5299,2016-11-12,10:51 PM,46.0,40.6,25.0,44%,30.19,10.0,WSW,11.5,,N/A,,Partly Cloudy
5300,2016-11-12,11:51 PM,45.0,38.9,26.1,48%,30.19,10.0,West,12.7,,N/A,,Scattered Clouds
5301,2016-11-13,12:51 AM,44.1,37.7,25.0,47%,30.18,10.0,WSW,12.7,,N/A,,Partly Cloudy
5302,2016-11-13,1:51 AM,42.1,37.1,26.1,53%,30.18,10.0,WSW,8.1,,N/A,,Partly Cloudy
5303,2016-11-13,2:51 AM,41.0,35.2,27.0,57%,30.17,10.0,WSW,9.2,,N/A,,Partly Cloudy
5304,2016-11-13,3:51 AM,42.1,35.2,27.0,55%,30.16,10.0,WSW,12.7,,N/A,,Partly Cloudy
5305,2016-11-13,4:51 AM,42.1,35.7,28.0,58%,30.17,10.0,WSW,11.5,,N/A,,Mostly Cloudy
5306,2016-11-13,5:51 AM,42.1,35.7,28.0,58%,30.17,10.0,WSW,11.5,,N/A,,Scattered Clouds
5307,2016-11-13,6:51 AM,42.1,36.1,28.0,58%,30.17,10.0,West,10.4,,N/A,,Mostly Cloudy
5308,2016-11-13,7:51 AM,44.1,38.6,28.9,55%,30.18,10.0,WSW,10.4,,N/A,,Mostly Cloudy
5309,2016-11-13,8:51 AM,46.0,40.6,30.0,54%,30.18,10.0,West,11.5,,N/A,,Mostly Cloudy
5310,2016-11-13,9:51 AM,48.0,,30.0,50%,30.17,10.0,WSW,10.4,,N/A,,Mostly Cloudy
5311,2016-11-13,10:51 AM,52.0,,27.0,38%,30.15,10.0,WSW,11.5,,N/A,,Scattered Clouds
5312,2016-11-13,11:51 AM,55.0,,27.0,34%,30.12,10.0,West,10.4,,N/A,,Partly Cloudy
5313,2016-11-13,12:51 PM,57.9,,28.0,32%,30.09,10.0,WSW,13.8,,N/A,,Partly Cloudy
5314,2016-11-13,1:51 PM,60.1,,33.1,36%,30.06,10.0,WSW,13.8,,N/A,,Partly Cloudy
5315,2016-11-13,2:51 PM,61.0,,32.0,34%,30.05,10.0,SW,12.7,,N/A,,Partly Cloudy
5316,2016-11-13,3:51 PM,60.1,,25.0,26%,30.05,10.0,WSW,12.7,,N/A,,Partly Cloudy
5317,2016-11-13,4:51 PM,57.0,,25.0,29%,30.06,10.0,WSW,11.5,,N/A,,Partly Cloudy
5318,2016-11-13,5:51 PM,57.0,,21.9,26%,30.06,10.0,West,16.1,,N/A,,Partly Cloudy
5319,2016-11-13,6:51 PM,54.0,,28.9,38%,30.07,10.0,WSW,10.4,,N/A,,Clear
5320,2016-11-13,7:51 PM,54.0,,26.1,34%,30.07,10.0,WSW,11.5,,N/A,,Clear
5321,2016-11-13,8:51 PM,51.1,,28.9,43%,30.07,10.0,WSW,11.5,,N/A,,Clear
5322,2016-11-13,9:51 PM,51.1,,28.9,43%,30.06,10.0,West,10.4,,N/A,,Clear
5323,2016-11-13,10:51 PM,48.9,,28.9,46%,30.06,10.0,WSW,10.4,,N/A,,Clear
5324,2016-11-13,11:51 PM,50.0,,30.0,46%,30.07,10.0,WSW,11.5,,N/A,,Clear
5325,2016-11-14,12:51 AM,46.0,41.4,30.9,56%,30.07,10.0,WSW,9.2,,N/A,,Clear
5326,2016-11-14,1:51 AM,44.1,38.1,30.9,60%,30.07,10.0,SW,11.5,,N/A,,Clear
5327,2016-11-14,2:51 AM,45.0,41.2,27.0,49%,30.07,10.0,WSW,6.9,,N/A,,Clear
5328,2016-11-14,3:51 AM,46.0,41.0,21.9,39%,30.06,10.0,West,10.4,,N/A,,Clear
5329,2016-11-14,4:51 AM,46.9,,21.0,36%,30.05,10.0,West,6.9,,N/A,,Clear
5330,2016-11-14,5:51 AM,41.0,36.4,26.1,55%,30.04,10.0,WSW,6.9,,N/A,,Clear
5331,2016-11-14,6:51 AM,43.0,36.8,27.0,53%,30.06,10.0,WSW,11.5,,N/A,,Partly Cloudy
5332,2016-11-14,7:51 AM,48.9,,27.0,43%,30.07,10.0,SW,9.2,,N/A,,Partly Cloudy
5333,2016-11-14,8:51 AM,51.1,,30.9,46%,30.06,10.0,WSW,8.1,,N/A,,Partly Cloudy
5334,2016-11-14,9:51 AM,53.1,,27.0,37%,30.07,10.0,SSW,6.9,,N/A,,Partly Cloudy
5335,2016-11-14,10:51 AM,55.9,,26.1,32%,30.07,10.0,South,5.8,,N/A,,Partly Cloudy
5336,2016-11-14,11:51 AM,57.0,,30.0,36%,30.04,10.0,SSW,8.1,,N/A,,Scattered Clouds
5337,2016-11-14,12:51 PM,57.0,,23.0,27%,30.03,10.0,SSW,10.4,,N/A,,Mostly Cloudy
5338,2016-11-14,1:51 PM,57.9,,28.0,32%,30.02,10.0,SSW,8.1,,N/A,,Mostly Cloudy
5339,2016-11-14,2:51 PM,55.9,,36.0,47%,30.02,10.0,Calm,Calm,,N/A,,Mostly Cloudy
5340,2016-11-14,3:51 PM,55.0,,39.0,55%,30.03,10.0,South,4.6,,N/A,,Mostly Cloudy
5341,2016-11-14,4:51 PM,54.0,,43.0,66%,30.02,10.0,South,3.5,,N/A,,Mostly Cloudy
5342,2016-11-14,5:51 PM,55.0,,37.9,53%,30.03,10.0,SW,6.9,,N/A,,Overcast
5343,2016-11-14,6:51 PM,55.0,,34.0,45%,30.04,10.0,SSW,6.9,,N/A,,Overcast
5344,2016-11-14,7:51 PM,55.0,,33.1,43%,30.04,10.0,South,8.1,,N/A,,Overcast
5345,2016-11-14,8:51 PM,55.0,,36.0,49%,30.03,10.0,South,4.6,,N/A,,Overcast
5346,2016-11-14,9:51 PM,53.1,,37.0,55%,30.02,10.0,SSE,3.5,,N/A,,Mostly Cloudy
5347,2016-11-14,10:51 PM,53.1,,41.0,64%,30.01,10.0,Calm,Calm,,N/A,,Overcast
5348,2016-11-14,11:51 PM,54.0,,43.0,66%,29.99,10.0,Calm,Calm,,N/A,,Overcast
5349,2016-11-16,12:51 AM,48.0,,42.1,80%,29.75,10.0,West,11.5,,N/A,,Scattered Clouds
5350,2016-11-16,1:51 AM,46.9,,39.9,77%,29.76,10.0,West,10.4,,N/A,,Partly Cloudy
5351,2016-11-16,2:51 AM,46.9,,39.0,74%,29.76,10.0,West,13.8,,N/A,,Partly Cloudy
5352,2016-11-16,3:51 AM,46.9,,39.0,74%,29.77,10.0,West,12.7,,N/A,,Partly Cloudy
5353,2016-11-16,4:51 AM,46.9,,39.0,74%,29.76,10.0,WSW,11.5,,N/A,,Partly Cloudy
5354,2016-11-16,5:51 AM,45.0,40.1,37.9,76%,29.76,10.0,WSW,9.2,,N/A,,Partly Cloudy
5355,2016-11-16,6:51 AM,46.9,,37.9,71%,29.78,10.0,WSW,13.8,,N/A,,Partly Cloudy
5356,2016-11-16,7:51 AM,50.0,,37.0,61%,29.80,10.0,West,12.7,,N/A,,Partly Cloudy
5357,2016-11-16,8:51 AM,52.0,,36.0,54%,29.80,10.0,West,12.7,,N/A,,Partly Cloudy
5358,2016-11-16,9:51 AM,55.0,,36.0,49%,29.79,10.0,West,15.0,,N/A,,Partly Cloudy
5359,2016-11-16,10:51 AM,57.0,,35.1,44%,29.78,10.0,WSW,9.2,,N/A,,Partly Cloudy
5360,2016-11-16,11:51 AM,57.9,,37.9,47%,29.77,10.0,SW,15.0,,N/A,,Partly Cloudy
5361,2016-11-16,12:51 PM,60.1,,36.0,41%,29.77,10.0,SW,13.8,,N/A,,Partly Cloudy
5362,2016-11-16,1:51 PM,61.0,,37.9,42%,29.76,10.0,SW,13.8,,N/A,,Partly Cloudy
5363,2016-11-16,2:51 PM,61.0,,37.9,42%,29.76,10.0,WSW,10.4,,N/A,,Partly Cloudy
5364,2016-11-16,3:51 PM,60.1,,39.0,46%,29.77,10.0,SW,12.7,,N/A,,Scattered Clouds
5365,2016-11-16,4:51 PM,57.0,,39.9,53%,29.78,10.0,WSW,13.8,,N/A,,Scattered Clouds
5366,2016-11-16,5:51 PM,57.0,,37.9,49%,29.81,10.0,WSW,11.5,,N/A,,Scattered Clouds
5367,2016-11-16,6:51 PM,55.9,,37.9,51%,29.82,10.0,West,11.5,,N/A,,Scattered Clouds
5368,2016-11-16,7:51 PM,55.9,,37.0,49%,29.84,10.0,WNW,10.4,,N/A,,Scattered Clouds
5369,2016-11-16,8:51 PM,55.0,,37.0,51%,29.86,10.0,WNW,8.1,,N/A,,Scattered Clouds
5370,2016-11-16,9:51 PM,52.0,,36.0,54%,29.87,10.0,NW,8.1,,N/A,,Scattered Clouds
5371,2016-11-16,10:51 PM,52.0,,36.0,54%,29.89,10.0,NW,8.1,,N/A,,Mostly Cloudy
5372,2016-11-16,11:51 PM,53.1,,37.0,55%,29.90,10.0,WNW,8.1,,N/A,,Overcast
5373,2016-11-18,12:51 AM,48.9,,37.9,66%,30.09,10.0,NNW,12.7,,N/A,,Clear
5374,2016-11-18,1:51 AM,48.0,,37.9,68%,30.10,10.0,North,8.1,,N/A,,Clear
5375,2016-11-18,2:51 AM,48.0,,37.9,68%,30.10,10.0,North,9.2,,N/A,,Clear
5376,2016-11-18,3:51 AM,46.9,,37.9,71%,30.11,10.0,NNW,8.1,,N/A,,Clear
5377,2016-11-18,4:51 AM,46.0,44.8,37.9,73%,30.14,10.0,NNE,3.5,,N/A,,Clear
5378,2016-11-18,5:51 AM,46.0,41.9,37.9,73%,30.14,10.0,North,8.1,,N/A,,Clear
5379,2016-11-18,6:51 AM,46.0,41.4,39.0,76%,30.15,10.0,NNW,9.2,,N/A,,Clear
5380,2016-11-18,7:51 AM,48.0,,39.9,74%,30.15,10.0,North,6.9,,N/A,,Clear
5381,2016-11-18,8:51 AM,51.1,,39.0,63%,30.14,10.0,North,9.2,,N/A,,Clear
5382,2016-11-18,9:51 AM,54.0,,39.0,57%,30.14,10.0,NW,8.1,,N/A,,Clear
5383,2016-11-18,10:51 AM,57.0,,39.0,51%,30.12,10.0,NNW,6.9,,N/A,,Clear
5384,2016-11-18,11:51 AM,60.1,,36.0,41%,30.10,10.0,NNW,6.9,,N/A,,Partly Cloudy
5385,2016-11-18,12:51 PM,63.0,,35.1,35%,30.08,10.0,NNW,8.1,,N/A,,Partly Cloudy
5386,2016-11-18,2:51 PM,66.9,,34.0,30%,30.05,10.0,NW,8.1,,N/A,,Partly Cloudy
5387,2016-11-18,3:51 PM,64.9,,34.0,32%,30.06,10.0,NW,6.9,,N/A,,Partly Cloudy
5388,2016-11-18,4:51 PM,55.0,,42.1,62%,30.06,10.0,WSW,9.2,,N/A,,Partly Cloudy
5389,2016-11-18,5:51 PM,57.9,,41.0,53%,30.05,10.0,West,6.9,,N/A,,Partly Cloudy
5390,2016-11-18,6:51 PM,60.1,,37.9,44%,30.05,10.0,WNW,4.6,,N/A,,Partly Cloudy
5391,2016-11-18,7:51 PM,55.0,,39.0,55%,30.06,10.0,Calm,Calm,,N/A,,Partly Cloudy
5392,2016-11-18,8:51 PM,57.0,,37.9,49%,30.05,10.0,NNE,4.6,,N/A,,Partly Cloudy
5393,2016-11-18,9:51 PM,51.1,,37.0,59%,30.06,10.0,North,5.8,,N/A,,Partly Cloudy
5394,2016-11-18,10:51 PM,53.1,,35.1,50%,30.06,10.0,NNE,5.8,,N/A,,Partly Cloudy
5395,2016-11-18,11:51 PM,53.1,,34.0,48%,30.05,10.0,North,5.8,,N/A,,Partly Cloudy
5396,2016-11-19,12:51 AM,51.1,,35.1,54%,30.04,10.0,NNE,6.9,,N/A,,Partly Cloudy
5397,2016-11-19,1:51 AM,48.0,,34.0,58%,30.04,10.0,NNE,3.5,,N/A,,Partly Cloudy
5398,2016-11-19,2:51 AM,46.0,44.8,35.1,66%,30.03,10.0,North,3.5,,N/A,,Clear
5399,2016-11-19,3:51 AM,46.0,,35.1,66%,30.03,10.0,Calm,Calm,,N/A,,Clear
5400,2016-11-19,4:51 AM,45.0,43.5,36.0,71%,30.02,10.0,North,3.5,,N/A,,Clear
5401,2016-11-19,5:51 AM,46.9,,37.0,68%,30.01,10.0,NE,5.8,,N/A,,Clear
5402,2016-11-19,6:51 AM,46.0,44.8,37.9,73%,30.00,10.0,NE,3.5,,N/A,,Clear
5403,2016-11-19,7:51 AM,48.9,,39.9,71%,30.00,10.0,ENE,5.8,,N/A,,Clear
5404,2016-11-19,8:51 AM,55.0,,43.0,64%,29.98,10.0,East,6.9,,N/A,,Clear
5405,2016-11-19,9:51 AM,57.9,,43.0,58%,29.95,10.0,East,10.4,,N/A,,Clear
5406,2016-11-19,10:51 AM,59.0,,44.1,58%,29.91,10.0,ESE,16.1,,N/A,,Clear
5407,2016-11-19,11:51 AM,59.0,,48.0,67%,29.87,10.0,ESE,12.7,,N/A,,Partly Cloudy
5408,2016-11-19,12:51 PM,59.0,,48.9,69%,29.85,10.0,ESE,11.5,,N/A,,Scattered Clouds
5409,2016-11-19,1:26 PM,59.0,,48.9,69%,29.84,10.0,SE,10.4,,N/A,,Mostly Cloudy
5410,2016-11-19,1:40 PM,57.9,,48.9,72%,29.83,10.0,ESE,11.5,,N/A,,Mostly Cloudy
5411,2016-11-19,1:51 PM,57.9,,48.9,72%,29.81,10.0,ESE,11.5,,N/A,,Mostly Cloudy
5412,2016-11-19,2:51 PM,57.9,,48.9,72%,29.79,10.0,SE,10.4,,N/A,,Mostly Cloudy
5413,2016-11-19,3:51 PM,57.0,,50.0,77%,29.75,10.0,ESE,10.4,,N/A,,Mostly Cloudy
5414,2016-11-19,4:51 PM,55.9,,50.0,80%,29.73,10.0,ESE,6.9,,N/A,,Mostly Cloudy
5415,2016-11-19,5:51 PM,55.0,,50.0,83%,29.71,10.0,East,8.1,,N/A,,Overcast
5416,2016-11-19,6:51 PM,54.0,,48.9,83%,29.68,10.0,East,8.1,,N/A,,Mostly Cloudy
5417,2016-11-19,7:51 PM,55.0,,50.0,83%,29.65,10.0,East,8.1,,N/A,,Mostly Cloudy
5418,2016-11-19,8:07 PM,55.0,,50.0,83%,29.64,10.0,East,12.7,,N/A,,Mostly Cloudy
5419,2016-11-19,8:51 PM,55.0,,50.0,83%,29.62,10.0,ENE,8.1,,N/A,,Mostly Cloudy
5420,2016-11-19,9:51 PM,55.0,,51.1,86%,29.57,7.0,NE,10.4,,0.00,Ra,Ra
5421,2016-11-19,10:51 PM,50.0,,44.1,80%,29.57,10.0,WNW,18.4,27.6,0.03,Ra,Light Ra
5422,2016-11-19,11:51 PM,42.1,31.3,36.0,79%,29.56,6.0,WNW,29.9,41.4,0.01,Ra,Ra
5423,2016-11-20,12:51 AM,39.9,29.5,35.1,83%,29.57,4.0,NW,24.2,,0.19,Ra,Ra
5424,2016-11-20,1:51 AM,39.0,29.6,34.0,82%,29.56,10.0,WNW,18.4,,0.07,Ra,Light Ra
5425,2016-11-20,2:51 AM,37.0,26.4,33.1,86%,29.57,10.0,West,20.7,28.8,0.03,Ra,Light Ra
5426,2016-11-20,3:51 AM,39.0,29.9,34.0,82%,29.57,10.0,West,17.3,28.8,0.01,,Overcast
5427,2016-11-20,4:51 AM,39.9,30.5,32.0,73%,29.57,10.0,West,19.6,29.9,N/A,,Overcast
5428,2016-11-20,5:51 AM,39.9,30.5,30.9,70%,29.59,10.0,West,19.6,31.1,N/A,,Mostly Cloudy
5429,2016-11-20,6:51 AM,39.9,29.7,30.0,68%,29.60,10.0,West,23.0,31.1,N/A,,Mostly Cloudy
5430,2016-11-20,7:51 AM,41.0,30.7,28.9,62%,29.61,10.0,West,25.3,29.9,N/A,,Mostly Cloudy
5431,2016-11-20,8:51 AM,41.0,30.5,26.1,55%,29.60,10.0,West,26.5,35.7,N/A,,Mostly Cloudy
5432,2016-11-20,9:51 AM,42.1,33.3,27.0,55%,29.59,10.0,West,19.6,36.8,N/A,,Mostly Cloudy
5433,2016-11-20,10:51 AM,41.0,30.9,27.0,57%,29.58,10.0,West,24.2,34.5,N/A,,Mostly Cloudy
5434,2016-11-20,11:51 AM,43.0,32.5,28.0,56%,29.56,10.0,West,29.9,39.1,N/A,,Mostly Cloudy
5435,2016-11-20,12:51 PM,43.0,32.4,28.0,56%,29.55,10.0,West,31.1,39.1,0.00,,Mostly Cloudy
5436,2016-11-20,1:51 PM,43.0,32.4,27.0,53%,29.54,10.0,West,31.1,42.6,N/A,,Overcast
5437,2016-11-20,2:51 PM,42.1,31.5,28.0,58%,29.55,10.0,West,28.8,39.1,0.00,,Overcast
5438,2016-11-20,3:51 PM,42.1,32.1,24.1,49%,29.56,10.0,WNW,25.3,36.8,N/A,,Overcast
5439,2016-11-20,4:51 PM,41.0,30.7,21.0,45%,29.57,10.0,WNW,25.3,41.4,N/A,,Mostly Cloudy
5440,2016-11-20,5:51 PM,41.0,31.1,23.0,49%,29.58,10.0,West,23.0,36.8,N/A,,Mostly Cloudy
5441,2016-11-20,6:51 PM,41.0,31.4,21.0,45%,29.58,10.0,WNW,21.9,34.5,N/A,,Mostly Cloudy
5442,2016-11-20,7:51 PM,41.0,30.7,21.0,45%,29.58,10.0,West,25.3,38.0,N/A,,Mostly Cloudy
5443,2016-11-20,8:51 PM,41.0,31.1,19.9,43%,29.58,10.0,West,23.0,35.7,N/A,,Mostly Cloudy
5444,2016-11-20,9:51 PM,39.9,29.2,21.0,47%,29.58,10.0,WNW,25.3,36.8,0.00,,Unknown
5445,2016-11-20,10:51 PM,39.9,28.8,19.0,43%,29.59,9.0,WNW,27.6,40.3,0.00,,Unknown
5446,2016-11-20,11:51 PM,39.9,30.0,18.0,41%,29.59,9.0,West,21.9,38.0,0.00,,Unknown
5447,2016-11-21,12:51 AM,39.9,31.1,17.1,40%,29.59,10.0,West,17.3,33.4,0.00,,Mostly Cloudy
5448,2016-11-21,1:51 AM,39.0,27.4,21.0,49%,29.60,10.0,West,28.8,36.8,0.00,,Unknown
5449,2016-11-21,2:51 AM,37.9,27.1,21.9,53%,29.61,9.0,West,23.0,31.1,0.00,Snow,Light Snow
5450,2016-11-21,3:51 AM,37.9,26.3,21.0,51%,29.62,9.0,West,26.5,34.5,0.00,Snow,Light Snow
5451,2016-11-21,4:51 AM,37.9,26.8,16.0,41%,29.62,9.0,WNW,24.2,44.9,0.00,Snow,Light Snow
5452,2016-11-21,5:51 AM,37.9,24.9,15.1,39%,29.64,9.0,WNW,34.5,50.6,0.00,Snow,Light Snow
5453,2016-11-21,6:51 AM,37.9,27.3,15.1,39%,29.65,10.0,WNW,21.9,29.9,0.00,,Mostly Cloudy
5454,2016-11-21,7:51 AM,37.9,27.1,17.1,43%,29.68,10.0,WNW,23.0,35.7,N/A,,Mostly Cloudy
5455,2016-11-21,8:51 AM,39.0,27.4,16.0,39%,29.69,10.0,WNW,28.8,38.0,N/A,,Mostly Cloudy
5456,2016-11-21,9:51 AM,39.0,27.4,18.0,43%,29.70,10.0,WNW,28.8,35.7,0.00,,Unknown
5457,2016-11-21,10:51 AM,39.0,27.6,19.0,45%,29.71,10.0,West,27.6,36.8,0.00,,Unknown
5458,2016-11-21,11:51 AM,39.9,30.0,19.0,43%,29.70,10.0,WNW,21.9,38.0,0.00,,Mostly Cloudy
5459,2016-11-21,12:51 PM,41.0,30.2,18.0,40%,29.69,10.0,West,27.6,35.7,N/A,,Mostly Cloudy
5460,2016-11-21,1:51 PM,42.1,32.3,18.0,38%,29.69,10.0,West,24.2,35.7,N/A,,Mostly Cloudy
5461,2016-11-21,2:51 PM,42.1,32.3,18.0,38%,29.71,10.0,WNW,24.2,35.7,N/A,,Overcast
5462,2016-11-21,3:51 PM,42.1,33.1,18.0,38%,29.74,10.0,WNW,20.7,29.9,N/A,,Mostly Cloudy
5463,2016-11-21,4:51 PM,41.0,30.0,18.0,40%,29.77,10.0,West,28.8,40.3,N/A,,Mostly Cloudy
5464,2016-11-21,5:51 PM,41.0,31.1,17.1,38%,29.79,10.0,WNW,23.0,31.1,N/A,,Mostly Cloudy
5465,2016-11-21,6:51 PM,41.0,31.4,17.1,38%,29.80,10.0,WNW,21.9,38.0,N/A,,Mostly Cloudy
5466,2016-11-21,7:51 PM,41.0,31.6,16.0,36%,29.81,10.0,WNW,20.7,32.2,N/A,,Mostly Cloudy
5467,2016-11-21,8:51 PM,41.0,30.5,16.0,36%,29.82,10.0,WNW,26.5,35.7,N/A,,Mostly Cloudy
5468,2016-11-21,9:51 PM,39.9,30.5,15.1,36%,29.84,10.0,WNW,19.6,38.0,N/A,,Mostly Cloudy
5469,2016-11-21,10:51 PM,39.9,30.0,16.0,38%,29.85,10.0,WNW,21.9,34.5,N/A,,Mostly Cloudy
5470,2016-11-21,11:51 PM,39.0,30.3,16.0,39%,29.87,10.0,WNW,16.1,39.1,N/A,,Mostly Cloudy
5471,2016-11-22,12:51 AM,39.0,29.0,17.1,41%,29.88,10.0,WNW,20.7,28.8,N/A,,Mostly Cloudy
5472,2016-11-22,1:51 AM,39.0,29.0,17.1,41%,29.88,10.0,WNW,20.7,32.2,N/A,,Mostly Cloudy
5473,2016-11-22,2:51 AM,39.0,27.8,17.1,41%,29.89,10.0,WNW,26.5,32.2,N/A,,Mostly Cloudy
5474,2016-11-22,3:51 AM,39.0,28.5,18.0,43%,29.91,10.0,West,23.0,33.4,N/A,,Mostly Cloudy
5475,2016-11-22,4:51 AM,39.0,28.0,19.0,45%,29.93,10.0,WNW,25.3,34.5,N/A,,Mostly Cloudy
5476,2016-11-22,5:51 AM,39.0,28.8,19.9,46%,29.95,10.0,NW,21.9,31.1,N/A,,Mostly Cloudy
5477,2016-11-22,6:51 AM,37.9,27.6,21.9,53%,29.99,10.0,WNW,20.7,28.8,N/A,,Mostly Cloudy
5478,2016-11-22,7:51 AM,37.9,28.2,21.9,53%,30.00,10.0,WNW,18.4,28.8,0.00,Snow,Light Snow
5479,2016-11-22,8:51 AM,39.9,28.8,18.0,41%,30.01,10.0,WNW,27.6,42.6,0.00,,Scattered Clouds
5480,2016-11-22,9:51 AM,42.1,31.9,18.0,38%,30.03,10.0,WNW,26.5,34.5,N/A,,Scattered Clouds
5481,2016-11-22,10:51 AM,43.0,32.9,18.0,37%,30.04,10.0,NW,27.6,38.0,N/A,,Scattered Clouds
5482,2016-11-22,11:51 AM,43.0,33.1,19.0,38%,30.04,10.0,NW,26.5,39.1,N/A,,Scattered Clouds
5483,2016-11-22,12:51 PM,43.0,33.5,19.0,38%,30.05,10.0,NW,24.2,33.4,N/A,,Scattered Clouds
5484,2016-11-22,1:51 PM,43.0,33.3,18.0,37%,30.06,10.0,NW,25.3,36.8,N/A,,Partly Cloudy
5485,2016-11-22,2:51 PM,42.1,31.9,19.0,40%,30.08,10.0,NW,26.5,38.0,N/A,,Scattered Clouds
5486,2016-11-22,3:51 PM,41.0,30.7,19.9,43%,30.10,10.0,NW,25.3,38.0,N/A,,Scattered Clouds
5487,2016-11-22,4:51 PM,39.9,30.0,19.9,45%,30.13,10.0,WNW,21.9,25.3,N/A,,Partly Cloudy
5488,2016-11-22,5:51 PM,39.0,28.0,19.9,46%,30.17,10.0,NW,25.3,36.8,N/A,,Scattered Clouds
5489,2016-11-22,6:51 PM,37.9,27.3,19.9,48%,30.19,10.0,NW,21.9,29.9,N/A,,Mostly Cloudy
5490,2016-11-22,7:51 PM,37.9,27.9,21.0,51%,30.20,10.0,WNW,19.6,31.1,N/A,,Mostly Cloudy
5491,2016-11-22,8:51 PM,39.0,28.0,21.9,50%,30.21,10.0,WNW,25.3,32.2,N/A,,Mostly Cloudy
5492,2016-11-22,9:51 PM,39.0,28.5,23.0,53%,30.22,10.0,NW,23.0,28.8,N/A,,Mostly Cloudy
5493,2016-11-22,10:51 PM,39.9,30.5,24.1,53%,30.22,10.0,NW,19.6,,N/A,,Mostly Cloudy
5494,2016-11-22,11:51 PM,39.0,31.0,23.0,53%,30.21,10.0,NW,13.8,21.9,N/A,,Scattered Clouds
5495,2016-11-23,12:51 AM,37.9,28.9,23.0,55%,30.21,10.0,NW,16.1,,N/A,,Partly Cloudy
5496,2016-11-23,1:51 AM,37.0,28.1,23.0,57%,30.22,10.0,NW,15.0,,N/A,,Scattered Clouds
5497,2016-11-23,2:51 AM,37.9,27.9,21.9,53%,30.23,10.0,NW,19.6,,N/A,,Mostly Cloudy
5498,2016-11-23,3:51 AM,36.0,27.5,21.9,57%,30.24,10.0,NW,12.7,,N/A,,Mostly Cloudy
5499,2016-11-23,4:51 AM,36.0,29.0,21.9,57%,30.25,10.0,NW,9.2,,N/A,,Mostly Cloudy
5500,2016-11-23,5:51 AM,36.0,26.7,21.9,57%,30.27,10.0,NW,15.0,,N/A,,Mostly Cloudy
5501,2016-11-23,6:51 AM,36.0,28.5,21.0,55%,30.29,10.0,NW,10.4,,N/A,,Mostly Cloudy
5502,2016-11-23,7:51 AM,37.9,29.2,21.0,51%,30.31,10.0,NW,15.0,,N/A,,Mostly Cloudy
5503,2016-11-23,8:51 AM,39.0,29.9,19.0,45%,30.30,10.0,NW,17.3,,N/A,,Mostly Cloudy
5504,2016-11-23,9:51 AM,41.0,33.1,19.9,43%,30.31,10.0,NW,15.0,,N/A,,Scattered Clouds
5505,2016-11-23,10:51 AM,42.1,35.7,19.0,40%,30.29,10.0,NW,11.5,21.9,N/A,,Scattered Clouds
5506,2016-11-23,11:51 AM,44.1,37.1,19.0,37%,30.27,10.0,WNW,15.0,,N/A,,Partly Cloudy
5507,2016-11-23,12:51 PM,45.0,37.6,19.9,37%,30.25,10.0,NNW,17.3,,N/A,,Partly Cloudy
5508,2016-11-23,1:51 PM,46.0,40.2,19.9,35%,30.25,10.0,NNW,12.7,,N/A,,Partly Cloudy
5509,2016-11-23,2:51 PM,45.0,40.1,19.9,37%,30.26,10.0,NNW,9.2,,N/A,,Mostly Cloudy
5510,2016-11-23,3:51 PM,44.1,39.0,21.0,40%,30.26,10.0,NNW,9.2,,N/A,,Mostly Cloudy
5511,2016-11-23,4:51 PM,43.0,38.8,21.0,42%,30.27,10.0,North,6.9,,N/A,,Mostly Cloudy
5512,2016-11-23,5:51 PM,43.0,39.5,21.9,43%,30.29,10.0,NNE,5.8,,N/A,,Mostly Cloudy
5513,2016-11-23,6:51 PM,43.0,39.5,23.0,45%,30.30,10.0,NNE,5.8,,N/A,,Mostly Cloudy
5514,2016-11-23,7:51 PM,43.0,38.8,23.0,45%,30.30,10.0,NNE,6.9,,N/A,,Mostly Cloudy
5515,2016-11-23,8:51 PM,42.1,38.4,24.1,49%,30.32,10.0,North,5.8,,N/A,,Mostly Cloudy
5516,2016-11-23,9:51 PM,43.0,37.2,25.0,49%,30.32,10.0,NNE,10.4,,N/A,,Mostly Cloudy
5517,2016-11-23,10:51 PM,42.1,36.6,25.0,51%,30.32,10.0,NNE,9.2,,N/A,,Overcast
5518,2016-11-23,11:51 PM,41.0,36.4,24.1,51%,30.31,10.0,NE,6.9,,N/A,,Overcast
5519,2016-11-24,12:51 AM,39.9,35.1,25.0,55%,30.30,10.0,ENE,6.9,,N/A,,Overcast
5520,2016-11-24,1:51 AM,41.0,39.0,26.1,55%,30.33,10.0,NE,3.5,,N/A,,Overcast
5521,2016-11-24,2:51 AM,41.0,38.0,26.1,55%,30.32,10.0,ENE,4.6,,N/A,,Overcast
5522,2016-11-24,3:51 AM,39.9,36.7,27.0,60%,30.30,10.0,East,4.6,,N/A,,Overcast
5523,2016-11-24,4:51 AM,39.9,35.8,27.0,60%,30.31,10.0,ENE,5.8,,N/A,,Overcast
5524,2016-11-24,5:51 AM,39.9,34.5,27.0,60%,30.32,10.0,NE,8.1,,N/A,,Overcast
5525,2016-11-24,6:51 AM,39.0,33.4,27.0,62%,30.31,10.0,NE,8.1,,N/A,,Overcast
5526,2016-11-24,7:51 AM,39.9,34.5,28.9,65%,30.32,10.0,NE,8.1,,N/A,,Mostly Cloudy
5527,2016-11-24,8:51 AM,42.1,37.7,30.9,65%,30.31,10.0,ENE,6.9,,N/A,,Overcast
5528,2016-11-24,9:51 AM,46.0,41.0,33.1,61%,30.30,10.0,ENE,10.4,,N/A,,Mostly Cloudy
5529,2016-11-24,10:51 AM,48.0,,36.0,63%,30.27,10.0,East,10.4,,N/A,,Mostly Cloudy
5530,2016-11-24,11:51 AM,48.9,,37.9,66%,30.25,10.0,East,8.1,,0.00,Ra,Light Ra
5531,2016-11-24,12:51 PM,48.9,,41.0,74%,30.22,10.0,East,9.2,,0.00,Ra,Light Ra
5532,2016-11-24,1:51 PM,50.0,,41.0,71%,30.21,10.0,East,6.9,,0.00,,Overcast
5533,2016-11-24,2:51 PM,50.0,,41.0,71%,30.19,10.0,East,6.9,,N/A,,Overcast
5534,2016-11-24,3:51 PM,50.0,,41.0,71%,30.19,10.0,ENE,8.1,,N/A,,Overcast
5535,2016-11-24,4:51 PM,50.0,,41.0,71%,30.19,10.0,NE,3.5,,0.00,Ra,Light Ra
5536,2016-11-24,5:51 PM,50.0,,42.1,74%,30.20,10.0,NNE,6.9,,0.00,Ra,Light Ra
5537,2016-11-24,6:51 PM,48.9,,43.0,80%,30.22,10.0,North,10.4,,0.00,,Overcast
5538,2016-11-24,7:51 PM,48.9,,43.0,80%,30.21,10.0,NNE,5.8,,N/A,,Overcast
5539,2016-11-24,8:51 PM,48.9,,43.0,80%,30.22,10.0,NNE,6.9,,N/A,,Overcast
5540,2016-11-24,9:51 PM,48.0,,43.0,83%,30.22,10.0,North,6.9,,N/A,,Mostly Cloudy
5541,2016-11-24,10:51 PM,48.0,,43.0,83%,30.22,10.0,North,4.6,,N/A,,Mostly Cloudy
5542,2016-11-24,11:51 PM,48.0,,43.0,83%,30.23,10.0,NNW,5.8,,N/A,,Mostly Cloudy
5543,2016-11-25,12:51 AM,46.0,41.4,43.0,89%,30.23,9.0,North,9.2,,N/A,,Overcast
5544,2016-11-25,1:51 AM,46.0,41.9,42.1,86%,30.24,9.0,North,8.1,,N/A,,Overcast
5545,2016-11-25,2:51 AM,46.9,,42.1,83%,30.25,10.0,North,5.8,,N/A,,Overcast
5546,2016-11-25,3:51 AM,46.9,,42.1,83%,30.26,10.0,North,4.6,,N/A,,Overcast
5547,2016-11-25,4:51 AM,46.0,43.1,42.1,86%,30.26,10.0,North,5.8,,N/A,,Overcast
5548,2016-11-25,5:51 AM,46.0,44.8,42.1,86%,30.26,10.0,WNW,3.5,,N/A,,Overcast
5549,2016-11-25,6:51 AM,46.0,42.5,41.0,83%,30.26,10.0,ENE,6.9,,N/A,,Overcast
5550,2016-11-25,7:51 AM,46.9,,42.1,83%,30.27,10.0,Calm,Calm,,N/A,,Overcast
5551,2016-11-25,8:51 AM,48.0,,42.1,80%,30.27,10.0,NE,3.5,,N/A,,Overcast
5552,2016-11-25,9:51 AM,48.9,,42.1,77%,30.27,9.0,South,4.6,,N/A,,Overcast
5553,2016-11-25,10:51 AM,52.0,,43.0,71%,30.23,9.0,SSE,5.8,,N/A,,Mostly Cloudy
5554,2016-11-25,11:51 AM,55.0,,43.0,64%,30.20,10.0,Calm,Calm,,N/A,,Mostly Cloudy
5555,2016-11-25,12:51 PM,53.1,,42.1,66%,30.21,10.0,SW,6.9,,N/A,,Mostly Cloudy
5556,2016-11-25,1:51 PM,52.0,,44.1,74%,30.19,9.0,SSW,4.6,,N/A,,Overcast
5557,2016-11-25,2:51 PM,53.1,,43.0,69%,30.19,10.0,SSE,3.5,,0.00,Ra,Light Ra
5558,2016-11-25,3:51 PM,52.0,,44.1,74%,30.19,9.0,SSW,3.5,,0.00,,Overcast
5559,2016-11-25,4:51 PM,51.1,,45.0,80%,30.20,8.0,SSW,3.5,,0.00,Ra,Light Ra
5560,2016-11-25,5:51 PM,51.1,,45.0,80%,30.20,9.0,Calm,Calm,,0.00,,Overcast
5561,2016-11-25,6:51 PM,51.1,,45.0,80%,30.19,10.0,SSE,4.6,,N/A,,Overcast
5562,2016-11-25,7:51 PM,51.1,,45.0,80%,30.19,9.0,South,3.5,,N/A,,Overcast
5563,2016-11-25,8:51 PM,52.0,,45.0,77%,30.19,10.0,Calm,Calm,,N/A,,Overcast
5564,2016-11-25,9:51 PM,52.0,,45.0,77%,30.18,9.0,North,8.1,,N/A,,Overcast
5565,2016-11-25,10:51 PM,51.1,,45.0,80%,30.17,7.0,NNE,3.5,,N/A,,Mostly Cloudy
5566,2016-11-25,11:51 PM,48.9,,44.1,83%,30.14,7.0,Calm,Calm,,N/A,,Mostly Cloudy
5567,2016-11-26,12:51 AM,46.9,,43.0,86%,30.14,7.0,Calm,Calm,,N/A,,Scattered Clouds
5568,2016-11-26,1:51 AM,50.0,,45.0,83%,30.14,7.0,Calm,Calm,,N/A,,Mostly Cloudy
5569,2016-11-26,2:51 AM,50.0,,43.0,77%,30.13,10.0,NNW,5.8,,N/A,,Mostly Cloudy
5570,2016-11-26,3:51 AM,48.0,,39.9,74%,30.12,10.0,North,4.6,,N/A,,Mostly Cloudy
5571,2016-11-26,4:51 AM,48.0,,42.1,80%,30.11,10.0,North,5.8,,N/A,,Mostly Cloudy
5572,2016-11-26,5:51 AM,46.9,,42.1,83%,30.10,10.0,North,5.8,,N/A,,Mostly Cloudy
5573,2016-11-26,6:51 AM,45.0,40.1,41.0,86%,30.10,10.0,North,9.2,,N/A,,Mostly Cloudy
5574,2016-11-26,7:51 AM,46.0,40.6,41.0,83%,30.12,10.0,North,11.5,,N/A,,Mostly Cloudy
5575,2016-11-26,8:51 AM,48.9,,41.0,74%,30.12,10.0,North,10.4,,N/A,,Mostly Cloudy
5576,2016-11-26,9:51 AM,50.0,,39.0,66%,30.12,10.0,North,12.7,,N/A,,Mostly Cloudy
5577,2016-11-26,10:51 AM,51.1,,37.0,59%,30.10,10.0,NNW,19.6,,N/A,,Mostly Cloudy
5578,2016-11-26,11:51 AM,52.0,,37.9,59%,30.08,10.0,NNW,17.3,,N/A,,Mostly Cloudy
5579,2016-11-26,12:51 PM,52.0,,35.1,53%,30.06,10.0,NNW,15.0,,N/A,,Mostly Cloudy
5580,2016-11-26,1:51 PM,50.0,,34.0,54%,30.05,10.0,North,15.0,,N/A,,Mostly Cloudy
5581,2016-11-26,2:51 PM,52.0,,35.1,53%,30.05,10.0,NNW,18.4,,N/A,,Scattered Clouds
5582,2016-11-26,3:51 PM,50.0,,33.1,52%,30.05,10.0,NW,19.6,25.3,N/A,,Scattered Clouds
5583,2016-11-26,4:51 PM,48.0,,32.0,54%,30.07,10.0,NW,19.6,,N/A,,Partly Cloudy
5584,2016-11-26,5:51 PM,46.9,,33.1,59%,30.07,10.0,NNW,12.7,,N/A,,Partly Cloudy
5585,2016-11-26,6:51 PM,46.0,38.5,33.1,61%,30.08,10.0,NW,19.6,,N/A,,Partly Cloudy
5586,2016-11-26,7:51 PM,45.0,38.5,33.1,63%,30.08,10.0,NW,13.8,,N/A,,Partly Cloudy
5587,2016-11-26,8:51 PM,45.0,37.6,33.1,63%,30.09,10.0,NW,17.3,,N/A,,Partly Cloudy
5588,2016-11-26,9:51 PM,44.1,37.7,33.1,65%,30.08,10.0,NW,12.7,,N/A,,Partly Cloudy
5589,2016-11-26,10:51 PM,44.1,38.1,33.1,65%,30.08,10.0,NW,11.5,,N/A,,Scattered Clouds
5590,2016-11-26,11:51 PM,43.0,36.4,33.1,68%,30.08,10.0,NW,12.7,,N/A,,Scattered Clouds
5591,2016-11-27,12:51 AM,42.1,36.1,32.0,67%,30.08,10.0,NW,10.4,,N/A,,Partly Cloudy
5592,2016-11-27,1:51 AM,41.0,34.7,30.9,67%,30.08,10.0,NW,10.4,,N/A,,Partly Cloudy
5593,2016-11-27,2:51 AM,41.0,33.9,30.9,67%,30.09,10.0,NW,12.7,,N/A,,Partly Cloudy
5594,2016-11-27,3:51 AM,41.0,33.9,30.0,65%,30.09,10.0,NW,12.7,,N/A,,Partly Cloudy
5595,2016-11-27,4:51 AM,42.1,34.2,30.0,62%,30.09,10.0,NW,16.1,,N/A,,Partly Cloudy
5596,2016-11-27,5:51 AM,41.0,33.5,30.0,65%,30.10,10.0,NW,13.8,,N/A,,Partly Cloudy
5597,2016-11-27,6:51 AM,41.0,34.7,30.0,65%,30.12,10.0,NW,10.4,,N/A,,Partly Cloudy
5598,2016-11-27,7:51 AM,43.0,38.8,30.9,62%,30.12,10.0,WNW,6.9,,N/A,,Partly Cloudy
5599,2016-11-27,8:51 AM,46.0,39.9,32.0,58%,30.12,10.0,WNW,13.8,21.9,N/A,,Scattered Clouds
5600,2016-11-27,9:51 AM,46.9,,30.9,54%,30.12,10.0,NW,17.3,,N/A,,Mostly Cloudy
5601,2016-11-27,10:51 AM,48.9,,30.9,50%,30.11,10.0,WNW,15.0,,N/A,,Scattered Clouds
5602,2016-11-27,11:51 AM,51.1,,28.0,41%,30.09,10.0,NW,16.1,24.2,N/A,,Scattered Clouds
5603,2016-11-27,12:51 PM,50.0,,26.1,39%,30.07,10.0,WNW,17.3,,N/A,,Scattered Clouds
5604,2016-11-27,1:51 PM,52.0,,25.0,35%,30.07,10.0,WNW,16.1,,N/A,,Mostly Cloudy
5605,2016-11-27,2:51 PM,50.0,,26.1,39%,30.07,10.0,WNW,17.3,,N/A,,Mostly Cloudy
5606,2016-11-27,3:51 PM,48.9,,25.0,39%,30.09,10.0,WNW,16.1,,N/A,,Mostly Cloudy
5607,2016-11-27,4:51 PM,48.0,,25.0,41%,30.10,10.0,NW,13.8,,N/A,,Mostly Cloudy
5608,2016-11-27,5:51 PM,46.9,,24.1,41%,30.12,10.0,WNW,11.5,,N/A,,Scattered Clouds
5609,2016-11-27,6:51 PM,46.9,,26.1,44%,30.13,10.0,WNW,13.8,,N/A,,Scattered Clouds
5610,2016-11-27,7:51 PM,46.9,,26.1,44%,30.13,10.0,WNW,11.5,,N/A,,Scattered Clouds
5611,2016-11-27,8:51 PM,46.0,40.6,27.0,47%,30.14,10.0,West,11.5,,N/A,,Clear
5612,2016-11-27,9:51 PM,44.1,38.6,28.0,53%,30.14,10.0,West,10.4,,N/A,,Clear
5613,2016-11-27,10:51 PM,44.1,38.6,28.0,53%,30.14,10.0,West,10.4,,N/A,,Clear
5614,2016-11-27,11:51 PM,44.1,38.1,28.0,53%,30.14,10.0,NW,11.5,,N/A,,Clear
5615,2016-11-28,12:51 AM,43.0,37.7,27.0,53%,30.15,10.0,WNW,9.2,,N/A,,Clear
5616,2016-11-28,1:51 AM,41.0,35.8,28.0,60%,30.17,10.0,West,8.1,,N/A,,Clear
5617,2016-11-28,2:51 AM,41.0,34.7,28.0,60%,30.17,10.0,West,10.4,,N/A,,Clear
5618,2016-11-28,3:51 AM,39.9,35.1,28.0,63%,30.17,10.0,NW,6.9,,N/A,,Clear
5619,2016-11-28,4:51 AM,39.9,34.5,28.0,63%,30.18,10.0,WNW,8.1,,N/A,,Clear
5620,2016-11-28,5:51 AM,39.9,37.8,28.0,63%,30.19,10.0,North,3.5,,N/A,,Clear
5621,2016-11-28,6:51 AM,39.0,35.7,28.9,67%,30.21,10.0,West,4.6,,N/A,,Partly Cloudy
5622,2016-11-28,7:51 AM,42.1,40.2,30.9,65%,30.22,10.0,WNW,3.5,,N/A,,Partly Cloudy
5623,2016-11-28,8:51 AM,46.0,,32.0,58%,30.23,10.0,Calm,Calm,,N/A,,Partly Cloudy
5624,2016-11-28,9:51 AM,48.0,,30.9,52%,30.23,10.0,West,3.5,,N/A,,Partly Cloudy
5625,2016-11-28,10:51 AM,48.9,,30.9,50%,30.23,10.0,WSW,6.9,,N/A,,Partly Cloudy
5626,2016-11-28,11:51 AM,50.0,,30.0,46%,30.19,10.0,South,8.1,,N/A,,Scattered Clouds
5627,2016-11-28,12:51 PM,51.1,,28.9,43%,30.17,10.0,SSW,6.9,,N/A,,Scattered Clouds
5628,2016-11-28,1:51 PM,51.1,,28.0,41%,30.17,10.0,SSW,10.4,,N/A,,Scattered Clouds
5629,2016-11-28,2:51 PM,50.0,,30.0,46%,30.16,10.0,South,10.4,,N/A,,Mostly Cloudy
5630,2016-11-28,3:51 PM,48.9,,30.9,50%,30.15,10.0,SE,8.1,,N/A,,Mostly Cloudy
5631,2016-11-28,4:51 PM,46.9,,33.1,59%,30.15,10.0,South,5.8,,N/A,,Scattered Clouds
5632,2016-11-28,5:51 PM,48.0,,36.0,63%,30.16,10.0,South,11.5,,N/A,,Scattered Clouds
5633,2016-11-28,6:51 PM,48.0,,37.0,66%,30.17,10.0,SSW,13.8,,N/A,,Mostly Cloudy
5634,2016-11-28,7:51 PM,48.0,,37.9,68%,30.17,10.0,SSW,13.8,,N/A,,Mostly Cloudy
5635,2016-11-28,8:51 PM,48.9,,37.9,66%,30.18,10.0,South,13.8,,N/A,,Mostly Cloudy
5636,2016-11-28,9:51 PM,50.0,,39.0,66%,30.17,10.0,South,10.4,,N/A,,Mostly Cloudy
5637,2016-11-28,10:51 PM,51.1,,39.9,66%,30.17,10.0,South,13.8,,N/A,,Overcast
5638,2016-11-28,11:51 PM,52.0,,41.0,66%,30.16,10.0,South,11.5,,N/A,,Overcast
5639,2016-12-01,12:21 AM,55.9,,54.0,93%,29.53,0.0,SSW,9.2,,0.00,"Fog
	,
Ra",Light Ra
5640,2016-12-01,12:51 AM,57.0,,55.0,93%,29.49,0.0,South,11.5,,0.01,"Fog
	,
Ra",Light Ra
5641,2016-12-01,1:51 AM,57.0,,55.0,93%,29.49,0.0,South,23.0,33.4,0.01,,Overcast
5642,2016-12-01,2:51 AM,55.9,,55.0,97%,29.47,0.0,South,6.9,,N/A,,Overcast
5643,2016-12-01,3:34 AM,55.9,,54.0,93%,29.47,0.0,WSW,10.4,,0.00,,Overcast
5644,2016-12-01,3:51 AM,55.9,,54.0,93%,29.48,0.0,WSW,11.5,,0.00,,Overcast
5645,2016-12-01,3:55 AM,55.9,,54.0,93%,29.49,7.0,WSW,12.7,,N/A,,Overcast
5646,2016-12-01,4:31 AM,55.0,,52.0,89%,29.52,10.0,WSW,13.8,,0.00,Ra,Light Ra
5647,2016-12-01,4:51 AM,55.9,,51.1,84%,29.54,10.0,West,12.7,26.5,0.01,Ra,Light Ra
5648,2016-12-01,5:51 AM,54.0,,46.9,77%,29.57,10.0,West,12.7,,0.00,,Mostly Cloudy
5649,2016-12-01,6:51 AM,54.0,,46.9,77%,29.60,10.0,West,10.4,,N/A,,Scattered Clouds
5650,2016-12-01,7:51 AM,54.0,,46.0,75%,29.62,10.0,West,12.7,,N/A,,Scattered Clouds
5651,2016-12-01,8:51 AM,54.0,,41.0,62%,29.64,10.0,West,19.6,25.3,N/A,,Partly Cloudy
5652,2016-12-01,9:51 AM,55.0,,37.0,51%,29.66,10.0,WNW,20.7,27.6,N/A,,Partly Cloudy
5653,2016-12-01,10:51 AM,55.9,,37.0,49%,29.65,10.0,West,17.3,25.3,N/A,,Partly Cloudy
5654,2016-12-01,11:51 AM,57.0,,35.1,44%,29.64,10.0,West,15.0,,N/A,,Partly Cloudy
5655,2016-12-01,12:51 PM,55.9,,34.0,44%,29.65,10.0,WNW,18.4,,N/A,,Partly Cloudy
5656,2016-12-01,1:51 PM,53.1,,34.0,48%,29.67,10.0,West,26.5,,N/A,,Mostly Cloudy
5657,2016-12-01,2:51 PM,52.0,,32.0,47%,29.70,10.0,West,19.6,32.2,N/A,,Mostly Cloudy
5658,2016-12-01,3:51 PM,51.1,,30.0,44%,29.71,10.0,WNW,19.6,29.9,N/A,,Mostly Cloudy
5659,2016-12-01,4:51 PM,51.1,,28.9,43%,29.74,10.0,West,23.0,35.7,N/A,,Overcast
5660,2016-12-01,5:51 PM,50.0,,28.0,43%,29.76,10.0,West,19.6,31.1,N/A,,Overcast
5661,2016-12-01,6:51 PM,50.0,,28.0,43%,29.79,10.0,West,24.2,31.1,N/A,,Overcast
5662,2016-12-01,7:51 PM,48.0,,26.1,42%,29.80,10.0,West,20.7,29.9,N/A,,Mostly Cloudy
5663,2016-12-01,8:51 PM,46.9,,26.1,44%,29.82,10.0,West,17.3,28.8,N/A,,Partly Cloudy
5664,2016-12-01,9:51 PM,46.0,39.0,27.0,47%,29.83,10.0,West,17.3,24.2,N/A,,Partly Cloudy
5665,2016-12-01,10:51 PM,45.0,37.9,27.0,49%,29.84,10.0,West,16.1,25.3,N/A,,Partly Cloudy
5666,2016-12-01,11:51 PM,44.1,36.2,27.0,51%,29.85,10.0,West,18.4,24.2,N/A,,Clear
5667,2016-12-02,12:51 AM,43.0,35.1,28.0,56%,29.87,10.0,WSW,17.3,,N/A,,Clear
5668,2016-12-02,1:51 AM,43.0,35.1,28.0,56%,29.88,10.0,West,17.3,,N/A,,Clear
5669,2016-12-02,2:51 AM,42.1,34.2,27.0,55%,29.89,10.0,West,16.1,21.9,N/A,,Clear
5670,2016-12-02,3:51 AM,43.0,35.7,27.0,53%,29.89,10.0,West,15.0,,N/A,,Clear
5671,2016-12-02,4:51 AM,42.1,34.9,28.0,58%,29.90,10.0,West,13.8,,N/A,,Clear
5672,2016-12-02,5:51 AM,41.0,32.8,28.9,62%,29.90,10.0,WSW,16.1,,N/A,,Partly Cloudy
5673,2016-12-02,6:51 AM,42.1,34.2,28.9,60%,29.92,10.0,West,16.1,,N/A,,Mostly Cloudy
5674,2016-12-02,7:51 AM,43.0,34.8,28.9,58%,29.93,10.0,West,18.4,,N/A,,Mostly Cloudy
5675,2016-12-02,8:51 AM,45.0,37.4,28.9,53%,29.93,10.0,West,18.4,,N/A,,Mostly Cloudy
5676,2016-12-02,9:51 AM,46.9,,30.0,52%,29.94,10.0,West,16.1,,N/A,,Mostly Cloudy
5677,2016-12-02,10:51 AM,48.9,,30.0,48%,29.91,10.0,West,18.4,24.2,N/A,,Mostly Cloudy
5678,2016-12-02,11:51 AM,51.1,,30.0,44%,29.89,10.0,West,17.3,,N/A,,Mostly Cloudy
5679,2016-12-02,12:51 PM,52.0,,28.9,41%,29.87,10.0,West,20.7,27.6,N/A,,Mostly Cloudy
5680,2016-12-02,1:51 PM,52.0,,27.0,38%,29.86,10.0,WNW,18.4,27.6,N/A,,Mostly Cloudy
5681,2016-12-02,2:51 PM,52.0,,26.1,37%,29.88,10.0,West,21.9,27.6,N/A,,Mostly Cloudy
5682,2016-12-02,3:51 PM,51.1,,27.0,39%,29.88,10.0,West,16.1,,N/A,,Mostly Cloudy
5683,2016-12-02,4:51 PM,50.0,,28.0,43%,29.89,10.0,West,16.1,,N/A,,Mostly Cloudy
5684,2016-12-02,5:51 PM,48.9,,26.1,41%,29.89,10.0,West,21.9,28.8,N/A,,Scattered Clouds
5685,2016-12-02,6:51 PM,48.9,,27.0,43%,29.91,10.0,West,16.1,27.6,N/A,,Scattered Clouds
5686,2016-12-02,7:51 PM,48.0,,27.0,44%,29.91,10.0,West,23.0,29.9,N/A,,Scattered Clouds
5687,2016-12-02,8:51 PM,46.9,,28.0,48%,29.91,10.0,West,21.9,32.2,N/A,,Mostly Cloudy
5688,2016-12-02,9:51 PM,46.0,37.8,28.0,50%,29.92,10.0,West,23.0,32.2,N/A,,Scattered Clouds
5689,2016-12-02,10:51 PM,45.0,36.9,28.9,53%,29.92,10.0,West,20.7,,N/A,,Mostly Cloudy
5690,2016-12-02,11:51 PM,45.0,37.4,28.9,53%,29.93,10.0,West,18.4,,N/A,,Mostly Cloudy
5691,2016-12-03,12:51 AM,45.0,37.6,30.0,56%,29.92,10.0,West,17.3,25.3,N/A,,Mostly Cloudy
5692,2016-12-03,1:51 AM,45.0,37.1,30.0,56%,29.94,10.0,West,19.6,27.6,N/A,,Mostly Cloudy
5693,2016-12-03,2:51 AM,45.0,37.6,30.9,58%,29.95,10.0,West,17.3,,0.00,,Mostly Cloudy
5694,2016-12-03,3:51 AM,44.1,35.4,30.0,58%,29.94,10.0,WNW,21.9,27.6,0.00,,Scattered Clouds
5695,2016-12-03,4:51 AM,43.0,34.0,26.1,51%,29.96,10.0,WNW,21.9,29.9,N/A,,Scattered Clouds
5696,2016-12-03,5:51 AM,42.1,34.2,26.1,53%,29.97,10.0,WNW,16.1,26.5,N/A,,Scattered Clouds
5697,2016-12-03,6:51 AM,42.1,34.5,25.0,51%,29.99,10.0,NW,15.0,,N/A,,Scattered Clouds
5698,2016-12-03,7:51 AM,44.1,36.8,25.0,47%,30.01,10.0,WNW,16.1,28.8,N/A,,Scattered Clouds
5699,2016-12-03,8:51 AM,44.1,35.0,25.0,47%,30.03,10.0,NW,24.2,31.1,N/A,,Mostly Cloudy
5700,2016-12-03,9:51 AM,46.0,37.8,24.1,42%,30.04,10.0,NW,23.0,31.1,N/A,,Mostly Cloudy
5701,2016-12-03,10:51 AM,48.0,,25.0,41%,30.04,10.0,NW,18.4,26.5,N/A,,Mostly Cloudy
5702,2016-12-03,11:51 AM,46.9,,25.0,42%,30.03,10.0,NW,15.0,,N/A,,Mostly Cloudy
5703,2016-12-03,12:51 PM,48.0,,25.0,41%,30.04,10.0,NW,21.9,,N/A,,Mostly Cloudy
5704,2016-12-03,1:51 PM,48.9,,24.1,38%,30.03,10.0,NW,19.6,32.2,N/A,,Mostly Cloudy
5705,2016-12-03,2:51 PM,48.9,,24.1,38%,30.03,10.0,NW,24.2,31.1,N/A,,Mostly Cloudy
5706,2016-12-03,3:51 PM,46.9,,23.0,39%,30.08,10.0,WNW,24.2,41.4,N/A,,Partly Cloudy
5707,2016-12-03,4:51 PM,46.0,38.5,26.1,46%,30.09,10.0,NW,19.6,,N/A,,Partly Cloudy
5708,2016-12-03,5:51 PM,45.0,37.9,26.1,48%,30.12,10.0,WNW,16.1,24.2,N/A,,Scattered Clouds
5709,2016-12-03,6:51 PM,45.0,37.9,26.1,48%,30.12,10.0,NW,16.1,,N/A,,Scattered Clouds
5710,2016-12-03,7:51 PM,44.1,35.2,26.1,49%,30.10,10.0,NNW,23.0,29.9,N/A,,Scattered Clouds
5711,2016-12-03,8:51 PM,44.1,36.2,26.1,49%,30.13,10.0,NNW,18.4,25.3,N/A,,Scattered Clouds
5712,2016-12-03,9:51 PM,44.1,36.2,26.1,49%,30.14,10.0,WNW,18.4,,N/A,,Mostly Cloudy
5713,2016-12-03,10:51 PM,44.1,37.7,25.0,47%,30.16,10.0,NW,12.7,25.3,N/A,,Mostly Cloudy
5714,2016-12-03,11:51 PM,44.1,36.8,24.1,45%,30.17,10.0,NW,16.1,,N/A,,Mostly Cloudy
5715,2016-12-04,12:51 AM,43.0,35.4,23.0,45%,30.18,10.0,NW,16.1,,N/A,,Mostly Cloudy
5716,2016-12-04,1:51 AM,43.0,35.4,24.1,47%,30.20,10.0,WNW,16.1,,N/A,,Mostly Cloudy
5717,2016-12-04,2:51 AM,43.0,36.0,24.1,47%,30.20,10.0,NW,13.8,,N/A,,Mostly Cloudy
5718,2016-12-04,3:51 AM,42.1,34.5,24.1,49%,30.20,10.0,NW,15.0,,N/A,,Mostly Cloudy
5719,2016-12-04,4:51 AM,42.1,34.5,23.0,47%,30.20,10.0,NW,15.0,,N/A,,Mostly Cloudy
5720,2016-12-04,5:51 AM,41.0,33.1,21.9,47%,30.20,10.0,NW,15.0,,N/A,,Mostly Cloudy
5721,2016-12-04,6:51 AM,39.9,33.4,21.9,49%,30.22,10.0,NNW,10.4,,N/A,,Scattered Clouds
5722,2016-12-04,7:51 AM,41.0,34.3,21.0,45%,30.24,10.0,NW,11.5,,N/A,,Scattered Clouds
5723,2016-12-04,8:51 AM,41.0,32.5,19.9,43%,30.25,10.0,NW,17.3,21.9,N/A,,Mostly Cloudy
5724,2016-12-04,9:51 AM,43.0,36.0,21.0,42%,30.24,10.0,NW,13.8,,N/A,,Scattered Clouds
5725,2016-12-04,10:51 AM,44.1,36.5,21.0,40%,30.23,10.0,NNW,17.3,23.0,N/A,,Scattered Clouds
5726,2016-12-04,11:51 AM,46.0,39.0,21.0,37%,30.22,10.0,NW,17.3,,N/A,,Scattered Clouds
5727,2016-12-04,12:51 PM,46.9,,19.9,34%,30.20,10.0,NNW,13.8,,N/A,,Mostly Cloudy
5728,2016-12-04,1:51 PM,46.9,,19.9,34%,30.20,10.0,NNW,12.7,,N/A,,Mostly Cloudy
5729,2016-12-04,2:51 PM,46.9,,19.0,33%,30.20,10.0,North,12.7,,N/A,,Mostly Cloudy
5730,2016-12-04,3:51 PM,45.0,40.6,19.9,37%,30.20,10.0,NNE,8.1,,N/A,,Mostly Cloudy
5731,2016-12-04,4:51 PM,42.1,38.4,19.9,41%,30.20,10.0,NE,5.8,,N/A,,Mostly Cloudy
5732,2016-12-04,5:51 PM,41.0,38.0,21.0,45%,30.21,10.0,East,4.6,,N/A,,Mostly Cloudy
5733,2016-12-04,6:51 PM,39.9,35.8,21.9,49%,30.20,10.0,East,5.8,,N/A,,Mostly Cloudy
5734,2016-12-04,7:51 PM,39.9,35.1,21.9,49%,30.20,10.0,ENE,6.9,,N/A,,Mostly Cloudy
5735,2016-12-04,8:51 PM,39.9,35.8,23.0,51%,30.19,10.0,ENE,5.8,,N/A,,Mostly Cloudy
5736,2016-12-04,9:51 PM,39.9,36.7,23.0,51%,30.18,10.0,East,4.6,,N/A,,Mostly Cloudy
5737,2016-12-04,10:51 PM,39.9,35.1,23.0,51%,30.16,10.0,East,6.9,,N/A,,Overcast
5738,2016-12-04,11:51 PM,41.0,37.1,24.1,51%,30.14,10.0,East,5.8,,N/A,,Overcast
5739,2016-12-05,12:51 AM,41.0,35.8,25.0,53%,30.12,10.0,East,8.1,,N/A,,Overcast
5740,2016-12-05,1:51 AM,42.1,38.4,28.0,58%,30.08,10.0,ESE,5.8,,N/A,,Overcast
5741,2016-12-05,2:51 AM,46.0,41.0,30.9,56%,30.09,10.0,SSE,10.4,,N/A,,Overcast
5742,2016-12-05,3:37 AM,45.0,38.9,35.1,68%,30.06,8.0,South,12.7,,0.01,Ra,Light Ra
5743,2016-12-05,3:51 AM,44.1,37.4,36.0,73%,30.05,7.0,SSW,13.8,,0.04,Ra,Light Ra
5744,2016-12-05,4:51 AM,41.0,34.3,36.0,82%,30.04,7.0,WSW,11.5,,0.05,Ra,Light Ra
5745,2016-12-05,5:33 AM,39.9,34.5,36.0,86%,30.03,9.0,WSW,8.1,,0.04,Ra,Light Ra
5746,2016-12-05,5:51 AM,39.9,35.1,37.0,89%,30.03,7.0,West,6.9,,0.04,Ra,Light Ra
5747,2016-12-05,6:28 AM,39.9,35.8,37.0,89%,30.03,5.0,West,5.8,,0.03,Ra,Light Ra
5748,2016-12-05,6:51 AM,41.0,37.1,37.0,86%,30.03,6.0,West,5.8,,0.05,Ra,Light Ra
5749,2016-12-05,7:51 AM,41.0,35.8,37.9,89%,30.03,5.0,West,8.1,,0.02,Ra,Light Ra
5750,2016-12-05,8:17 AM,41.0,35.8,37.9,89%,30.02,5.0,WSW,8.1,,0.01,Ra,Light Ra
5751,2016-12-05,8:51 AM,43.0,36.8,39.9,89%,30.02,10.0,SW,11.5,,0.02,,Mostly Cloudy
5752,2016-12-05,9:13 AM,44.1,38.1,39.9,85%,30.01,10.0,SW,11.5,,N/A,,Mostly Cloudy
5753,2016-12-05,9:51 AM,45.0,38.2,39.9,82%,30.02,10.0,WSW,15.0,,N/A,,Mostly Cloudy
5754,2016-12-05,10:07 AM,45.0,37.1,39.9,82%,30.02,10.0,WSW,19.6,,N/A,,Overcast
5755,2016-12-05,10:51 AM,45.0,38.9,39.9,82%,29.99,10.0,WSW,12.7,,N/A,,Mostly Cloudy
5756,2016-12-05,11:28 AM,46.9,,39.9,77%,29.98,10.0,West,17.3,,N/A,,Scattered Clouds
5757,2016-12-05,11:51 AM,48.0,,39.0,71%,29.97,10.0,West,15.0,21.9,N/A,,Scattered Clouds
5758,2016-12-05,12:51 PM,50.0,,37.9,63%,29.95,10.0,WNW,17.3,,N/A,,Partly Cloudy
5759,2016-12-05,1:51 PM,51.1,,35.1,54%,29.97,10.0,WNW,24.2,,N/A,,Partly Cloudy
5760,2016-12-05,2:51 PM,50.0,,33.1,52%,29.99,10.0,WNW,16.1,,N/A,,Partly Cloudy
5761,2016-12-05,3:51 PM,48.9,,30.9,50%,30.00,10.0,WNW,13.8,,N/A,,Mostly Cloudy
5762,2016-12-05,4:51 PM,46.9,,30.9,54%,30.03,10.0,WNW,10.4,,N/A,,Scattered Clouds
5763,2016-12-05,5:51 PM,46.9,,32.0,56%,30.03,10.0,NW,11.5,,N/A,,Scattered Clouds
5764,2016-12-05,6:51 PM,46.0,41.9,32.0,58%,30.04,10.0,NNW,8.1,,N/A,,Mostly Cloudy
5765,2016-12-05,7:51 PM,46.0,41.4,30.9,56%,30.07,10.0,NW,9.2,,N/A,,Mostly Cloudy
5766,2016-12-05,8:51 PM,46.0,40.6,30.0,54%,30.09,10.0,WNW,11.5,,N/A,,Mostly Cloudy
5767,2016-12-05,9:51 PM,45.0,40.1,28.9,53%,30.10,10.0,NW,9.2,,N/A,,Mostly Cloudy
5768,2016-12-05,10:51 PM,43.0,38.8,28.9,58%,30.11,10.0,NNW,6.9,,N/A,,Mostly Cloudy
5769,2016-12-05,11:51 PM,44.1,38.6,28.9,55%,30.11,10.0,NW,10.4,,N/A,,Scattered Clouds
5770,2016-12-06,12:51 AM,43.0,37.7,27.0,53%,30.12,10.0,NW,9.2,,N/A,,Scattered Clouds
5771,2016-12-06,1:51 AM,41.0,37.1,27.0,57%,30.13,10.0,NW,5.8,,N/A,,Scattered Clouds
5772,2016-12-06,2:51 AM,39.0,34.8,26.1,60%,30.13,10.0,NW,5.8,,N/A,,Scattered Clouds
5773,2016-12-06,3:51 AM,37.9,32.7,26.1,62%,30.14,10.0,NNW,6.9,,N/A,,Partly Cloudy
5774,2016-12-06,4:51 AM,39.0,34.0,27.0,62%,30.13,10.0,NNW,6.9,,N/A,,Scattered Clouds
5775,2016-12-06,5:51 AM,37.9,,27.0,65%,30.15,10.0,Calm,Calm,,N/A,,Mostly Cloudy
5776,2016-12-06,6:51 AM,37.9,33.5,27.0,65%,30.15,10.0,North,5.8,,N/A,,Mostly Cloudy
5777,2016-12-06,7:51 AM,37.9,32.7,28.0,68%,30.14,10.0,NNE,6.9,,N/A,,Mostly Cloudy
5778,2016-12-06,8:51 AM,42.1,,30.0,62%,30.16,10.0,Calm,Calm,,N/A,,Mostly Cloudy
5779,2016-12-06,9:51 AM,45.0,39.3,28.9,53%,30.15,10.0,NNE,11.5,,N/A,,Mostly Cloudy
5780,2016-12-06,10:51 AM,46.0,41.0,30.0,54%,30.12,10.0,ENE,10.4,,N/A,,Overcast
5781,2016-12-06,11:51 AM,46.9,,28.9,50%,30.09,10.0,East,10.4,,N/A,,Overcast
5782,2016-12-06,12:51 PM,46.0,41.9,28.9,51%,30.07,10.0,ESE,8.1,,N/A,,Overcast
5783,2016-12-06,1:51 PM,46.0,40.2,30.9,56%,30.02,10.0,East,12.7,,N/A,,Overcast
5784,2016-12-06,2:51 PM,46.0,41.4,30.0,54%,30.01,10.0,East,9.2,,N/A,,Overcast
5785,2016-12-06,3:51 PM,46.0,41.0,30.9,56%,29.97,10.0,East,10.4,,N/A,,Overcast
5786,2016-12-06,4:51 PM,46.0,42.5,32.0,58%,29.98,10.0,ENE,6.9,,N/A,,Overcast
5787,2016-12-06,5:51 PM,46.0,41.0,32.0,58%,29.97,10.0,ENE,10.4,,0.00,,Overcast
5788,2016-12-06,6:51 PM,43.0,37.7,34.0,71%,29.99,10.0,NE,9.2,,0.04,Ra,Light Ra
5789,2016-12-06,7:31 PM,43.0,36.8,36.0,76%,29.96,7.0,NE,11.5,,0.07,Ra,Ra
5790,2016-12-06,7:51 PM,42.1,35.2,36.0,79%,29.94,8.0,NE,12.7,,0.10,Ra,Light Ra
5791,2016-12-06,8:38 PM,41.0,33.1,36.0,82%,29.92,7.0,NNE,15.0,,0.10,Ra,Light Ra
5792,2016-12-06,8:46 PM,42.8,36.6,37.4,81%,29.93,7.0,NNE,11.5,,0.10,Ra,Light Ra
5793,2016-12-06,8:51 PM,42.1,35.7,37.0,82%,29.94,7.0,NE,11.5,,0.11,Ra,Light Ra
5794,2016-12-06,9:51 PM,42.1,34.5,37.0,82%,29.92,8.0,NE,15.0,,0.07,Ra,Light Ra
5795,2016-12-06,10:35 PM,42.1,34.2,37.9,85%,29.87,10.0,NE,16.1,,0.05,Ra,Light Ra
5796,2016-12-06,10:51 PM,42.1,34.2,37.9,85%,29.88,10.0,NE,16.1,,0.05,Ra,Light Ra
5797,2016-12-06,11:51 PM,42.1,35.2,37.9,85%,29.86,10.0,NE,12.7,,0.00,,Overcast
5798,2016-12-07,12:36 AM,42.1,35.2,37.9,85%,29.85,8.0,NE,12.7,,0.01,Ra,Light Ra
5799,2016-12-07,12:51 AM,42.1,34.5,37.9,85%,29.85,8.0,NE,15.0,,0.01,,Overcast
5800,2016-12-07,1:39 AM,42.1,34.9,37.9,85%,29.84,8.0,NE,13.8,,0.01,Ra,Light Ra
5801,2016-12-07,1:51 AM,42.1,35.7,37.9,85%,29.84,8.0,NE,11.5,,0.01,,Overcast
5802,2016-12-07,2:51 AM,43.0,37.2,37.9,82%,29.86,9.0,NNE,10.4,,0.01,Ra,Light Ra
5803,2016-12-07,3:51 AM,42.1,36.6,39.0,89%,29.90,3.0,NNE,9.2,,0.03,Ra,Light Ra
5804,2016-12-07,4:51 AM,43.0,37.7,39.0,86%,29.91,10.0,NNE,9.2,,0.01,,Overcast
5805,2016-12-07,5:51 AM,42.1,35.2,37.9,85%,29.93,10.0,NNE,12.7,,N/A,,Overcast
5806,2016-12-07,6:20 AM,42.1,36.6,37.9,85%,29.94,10.0,NNE,9.2,,N/A,,Overcast
5807,2016-12-07,6:51 AM,42.1,36.1,37.9,85%,29.94,10.0,NNE,10.4,,N/A,,Overcast
5808,2016-12-07,7:51 AM,43.0,37.7,37.9,82%,29.96,10.0,NNE,9.2,,N/A,,Overcast
5809,2016-12-07,8:51 AM,43.0,38.2,39.0,86%,30.00,6.0,North,8.1,,0.00,,Light Drizzle
5810,2016-12-07,9:51 AM,44.1,40.1,39.9,85%,30.01,7.0,North,6.9,,0.00,,Overcast
5811,2016-12-07,10:30 AM,44.1,39.5,39.9,85%,30.01,2.0,North,8.1,,0.00,,Light Drizzle
5812,2016-12-07,10:51 AM,44.1,40.8,39.0,82%,30.00,6.0,NNW,5.8,,0.00,,Light Drizzle
5813,2016-12-07,11:51 AM,44.1,40.1,39.9,85%,29.98,8.0,NNW,6.9,,0.00,,Light Drizzle
5814,2016-12-07,12:51 PM,45.0,,39.0,80%,29.97,7.0,Calm,Calm,,0.00,,Overcast
5815,2016-12-07,1:51 PM,45.0,42.6,39.9,82%,29.98,4.0,NNW,4.6,,0.00,,Light Drizzle
5816,2016-12-07,2:51 PM,46.0,42.5,39.9,79%,30.00,6.0,WSW,6.9,,0.00,,Haze
5817,2016-12-07,3:18 PM,46.0,43.1,39.9,79%,30.00,8.0,WSW,5.8,,N/A,,Overcast
5818,2016-12-07,3:51 PM,46.0,41.9,39.0,76%,30.00,9.0,West,8.1,,N/A,,Overcast
5819,2016-12-07,4:51 PM,46.9,,39.0,74%,30.03,10.0,WNW,5.8,,N/A,,Mostly Cloudy
5820,2016-12-07,5:51 PM,46.9,,37.0,68%,30.04,10.0,North,6.9,,N/A,,Mostly Cloudy
5821,2016-12-07,6:51 PM,46.0,41.9,34.0,63%,30.05,10.0,North,8.1,,N/A,,Mostly Cloudy
5822,2016-12-07,7:51 PM,45.0,43.5,33.1,63%,30.05,10.0,North,3.5,,N/A,,Mostly Cloudy
5823,2016-12-07,8:51 PM,46.0,43.9,32.0,58%,30.04,10.0,NW,4.6,,N/A,,Mostly Cloudy
5824,2016-12-07,9:51 PM,43.0,41.3,33.1,68%,30.04,10.0,SSE,3.5,,N/A,,Mostly Cloudy
5825,2016-12-07,10:51 PM,44.1,41.5,33.1,65%,30.04,10.0,WSW,4.6,,N/A,,Mostly Cloudy
5826,2016-12-07,11:51 PM,42.1,37.7,35.1,76%,30.02,10.0,WSW,6.9,,N/A,,Mostly Cloudy
5827,2016-12-08,12:51 AM,42.1,36.6,34.0,73%,30.01,10.0,WSW,9.2,,N/A,,Scattered Clouds
5828,2016-12-08,1:51 AM,41.0,35.8,33.1,73%,30.01,10.0,West,8.1,,N/A,,Partly Cloudy
5829,2016-12-08,2:51 AM,39.9,35.8,33.1,77%,30.01,10.0,West,5.8,,N/A,,Partly Cloudy
5830,2016-12-08,3:51 AM,39.0,34.0,30.9,73%,30.01,10.0,WSW,6.9,,N/A,,Mostly Cloudy
5831,2016-12-08,4:51 AM,37.9,32.7,30.9,76%,29.99,10.0,WSW,6.9,,N/A,,Mostly Cloudy
5832,2016-12-08,5:51 AM,39.9,33.9,30.9,70%,29.99,10.0,WSW,9.2,,N/A,,Mostly Cloudy
5833,2016-12-08,6:51 AM,41.0,35.2,32.0,70%,30.00,10.0,WSW,9.2,,N/A,,Mostly Cloudy
5834,2016-12-08,7:51 AM,41.0,35.2,30.9,67%,30.00,10.0,WSW,9.2,,N/A,,Mostly Cloudy
5835,2016-12-08,8:51 AM,42.1,35.7,30.9,65%,30.00,10.0,WSW,11.5,,N/A,,Overcast
5836,2016-12-08,9:51 AM,42.1,38.4,30.0,62%,29.98,10.0,West,5.8,,N/A,,Overcast
5837,2016-12-08,10:51 AM,44.1,38.1,28.0,53%,29.97,10.0,West,11.5,,N/A,,Overcast
5838,2016-12-08,11:51 AM,44.1,37.1,26.1,49%,29.94,10.0,WSW,15.0,,N/A,,Overcast
5839,2016-12-08,12:51 PM,44.1,37.4,27.0,51%,29.91,10.0,WSW,13.8,,N/A,,Overcast
5840,2016-12-08,1:51 PM,45.0,37.4,21.0,39%,29.90,10.0,West,18.4,25.3,N/A,,Mostly Cloudy
5841,2016-12-08,2:51 PM,45.0,37.9,18.0,34%,29.90,10.0,WNW,16.1,,N/A,,Mostly Cloudy
5842,2016-12-08,3:51 PM,44.1,37.1,18.0,35%,29.91,10.0,West,15.0,,N/A,,Mostly Cloudy
5843,2016-12-08,4:51 PM,43.0,35.4,16.0,34%,29.93,10.0,West,16.1,21.9,N/A,,Mostly Cloudy
5844,2016-12-08,5:51 PM,42.1,34.2,19.0,40%,29.94,10.0,West,16.1,,N/A,,Mostly Cloudy
5845,2016-12-08,6:51 PM,42.1,34.9,19.0,40%,29.96,10.0,West,13.8,,N/A,,Scattered Clouds
5846,2016-12-08,7:51 PM,39.9,30.8,17.1,40%,29.97,10.0,West,18.4,28.8,N/A,,Scattered Clouds
5847,2016-12-08,8:51 PM,39.0,31.4,16.0,39%,29.98,10.0,West,12.7,25.3,N/A,,Partly Cloudy
5848,2016-12-08,9:51 PM,37.9,27.9,15.1,39%,29.99,10.0,WNW,19.6,,N/A,,Partly Cloudy
5849,2016-12-08,10:51 PM,37.0,27.7,17.1,44%,30.01,10.0,West,16.1,33.4,N/A,,Partly Cloudy
5850,2016-12-08,11:51 PM,36.0,25.3,17.1,46%,30.01,10.0,West,19.6,31.1,N/A,,Partly Cloudy
5851,2016-12-09,12:51 AM,35.1,24.5,17.1,48%,30.01,10.0,West,18.4,,N/A,,Clear
5852,2016-12-09,1:51 AM,34.0,22.7,16.0,48%,30.03,10.0,West,19.6,,N/A,,Partly Cloudy
5853,2016-12-09,2:51 AM,34.0,23.4,16.0,48%,30.05,10.0,West,17.3,27.6,N/A,,Clear
5854,2016-12-09,3:51 AM,33.1,21.5,16.0,50%,30.05,10.0,West,19.6,24.2,N/A,,Clear
5855,2016-12-09,4:51 AM,33.1,22.6,17.1,52%,30.06,10.0,West,16.1,24.2,N/A,,Clear
5856,2016-12-09,5:51 AM,33.1,22.2,17.1,52%,30.07,10.0,West,17.3,23.0,N/A,,Partly Cloudy
5857,2016-12-09,6:51 AM,33.1,21.2,17.1,52%,30.09,10.0,West,20.7,29.9,N/A,,Partly Cloudy
5858,2016-12-09,7:51 AM,34.0,23.8,18.0,52%,30.10,10.0,West,16.1,24.2,N/A,,Partly Cloudy
5859,2016-12-09,8:51 AM,36.0,26.3,19.0,50%,30.12,10.0,West,16.1,25.3,N/A,,Partly Cloudy
5860,2016-12-09,9:51 AM,37.0,27.0,18.0,46%,30.13,10.0,West,18.4,26.5,N/A,,Scattered Clouds
5861,2016-12-09,10:51 AM,39.0,29.3,18.0,43%,30.13,10.0,West,19.6,26.5,N/A,,Mostly Cloudy
5862,2016-12-09,11:51 AM,39.9,30.5,17.1,40%,30.11,10.0,NW,19.6,28.8,N/A,,Scattered Clouds
5863,2016-12-09,12:51 PM,42.1,32.3,15.1,34%,30.10,10.0,WNW,24.2,31.1,N/A,,Mostly Cloudy
5864,2016-12-09,1:51 PM,42.1,32.1,10.9,28%,30.10,10.0,NW,25.3,32.2,N/A,,Scattered Clouds
5865,2016-12-09,2:51 PM,39.9,29.7,10.9,31%,30.12,10.0,WNW,23.0,36.8,N/A,,Mostly Cloudy
5866,2016-12-09,3:51 PM,39.0,27.2,10.9,32%,30.16,10.0,WNW,29.9,36.8,N/A,,Mostly Cloudy
5867,2016-12-09,4:51 PM,37.9,26.6,12.0,35%,30.18,10.0,WNW,25.3,33.4,N/A,,Scattered Clouds
5868,2016-12-09,5:51 PM,37.0,25.4,12.0,36%,30.22,10.0,WNW,25.3,34.5,N/A,,Mostly Cloudy
5869,2016-12-09,6:51 PM,35.1,23.5,10.0,35%,30.25,10.0,WNW,21.9,34.5,N/A,,Partly Cloudy
5870,2016-12-09,7:51 PM,33.1,21.5,10.9,40%,30.27,10.0,NNW,19.6,23.0,N/A,,Partly Cloudy
5871,2016-12-09,8:51 PM,33.1,20.9,9.0,37%,30.28,10.0,NW,21.9,28.8,N/A,,Partly Cloudy
5872,2016-12-09,9:51 PM,32.0,20.1,9.0,38%,30.30,10.0,NW,19.6,28.8,N/A,,Partly Cloudy
5873,2016-12-09,10:51 PM,32.0,20.8,10.0,40%,30.30,10.0,NW,17.3,,N/A,,Partly Cloudy
5874,2016-12-09,11:51 PM,30.9,21.2,10.9,43%,30.30,10.0,NW,12.7,,N/A,,Clear
5875,2016-12-10,12:51 AM,30.9,19.8,12.0,46%,30.30,10.0,WNW,16.1,,N/A,,Partly Cloudy
5876,2016-12-10,1:51 AM,30.9,21.2,12.9,47%,30.32,10.0,WNW,12.7,,N/A,,Partly Cloudy
5877,2016-12-10,2:51 AM,30.9,21.2,14.0,50%,30.34,10.0,WNW,12.7,,N/A,,Clear
5878,2016-12-10,3:51 AM,30.0,21.1,14.0,51%,30.35,10.0,WNW,10.4,,N/A,,Partly Cloudy
5879,2016-12-10,4:51 AM,30.0,21.1,15.1,54%,30.35,10.0,WNW,10.4,,N/A,,Partly Cloudy
5880,2016-12-10,5:51 AM,30.0,19.5,14.0,51%,30.37,10.0,WNW,13.8,,N/A,,Partly Cloudy
5881,2016-12-10,6:51 AM,30.0,20.0,15.1,54%,30.39,10.0,WNW,12.7,,N/A,,Scattered Clouds
5882,2016-12-10,7:51 AM,30.9,22.8,17.1,57%,30.40,10.0,West,9.2,,N/A,,Scattered Clouds
5883,2016-12-10,8:51 AM,32.0,23.6,19.9,61%,30.42,10.0,West,10.4,,N/A,,Mostly Cloudy
5884,2016-12-10,9:51 AM,34.0,25.0,19.9,56%,30.42,10.0,West,12.7,,N/A,,Mostly Cloudy
5885,2016-12-10,10:51 AM,37.0,28.1,19.0,48%,30.40,10.0,West,15.0,21.9,N/A,,Mostly Cloudy
5886,2016-12-10,11:51 AM,37.9,30.5,19.0,47%,30.38,10.0,WNW,11.5,,N/A,,Mostly Cloudy
5887,2016-12-10,12:51 PM,37.9,28.9,17.1,43%,30.35,10.0,West,16.1,,N/A,,Mostly Cloudy
5888,2016-12-10,1:51 PM,37.0,28.5,16.0,42%,30.35,10.0,WNW,13.8,,N/A,,Mostly Cloudy
5889,2016-12-10,2:51 PM,36.0,26.7,15.1,43%,30.36,10.0,WNW,15.0,24.2,N/A,,Mostly Cloudy
5890,2016-12-10,3:51 PM,36.0,26.7,14.0,41%,30.38,10.0,WNW,15.0,23.0,N/A,,Mostly Cloudy
5891,2016-12-10,4:51 PM,36.0,27.5,14.0,41%,30.39,10.0,WNW,12.7,18.4,N/A,,Mostly Cloudy
5892,2016-12-10,5:51 PM,34.0,24.6,15.1,46%,30.42,10.0,West,13.8,,N/A,,Partly Cloudy
5893,2016-12-10,6:51 PM,35.1,26.4,15.1,44%,30.43,10.0,West,12.7,,N/A,,Scattered Clouds
5894,2016-12-10,7:51 PM,35.1,27.4,16.0,46%,30.45,10.0,WNW,10.4,,N/A,,Mostly Cloudy
5895,2016-12-10,8:51 PM,32.0,24.8,17.1,54%,30.45,10.0,NW,8.1,,N/A,,Partly Cloudy
5896,2016-12-10,9:51 PM,33.1,24.9,16.0,50%,30.46,10.0,WNW,10.4,,N/A,,Partly Cloudy
5897,2016-12-10,10:51 PM,32.0,23.6,15.1,50%,30.48,10.0,West,10.4,,N/A,,Partly Cloudy
5898,2016-12-10,11:51 PM,30.9,23.5,15.1,52%,30.47,10.0,NW,8.1,,N/A,,Partly Cloudy
5899,2016-12-11,12:51 AM,30.0,23.2,15.1,54%,30.48,10.0,WNW,6.9,,N/A,,Partly Cloudy
5900,2016-12-11,1:51 AM,30.0,22.4,15.1,54%,30.49,10.0,WNW,8.1,,N/A,,Mostly Cloudy
5901,2016-12-11,2:51 AM,30.0,21.7,15.1,54%,30.51,10.0,West,9.2,,N/A,,Mostly Cloudy
5902,2016-12-11,3:51 AM,30.0,23.2,15.1,54%,30.51,10.0,NW,6.9,,N/A,,Mostly Cloudy
5903,2016-12-11,4:51 AM,30.0,23.2,14.0,51%,30.51,10.0,NW,6.9,,N/A,,Mostly Cloudy
5904,2016-12-11,5:51 AM,28.9,22.8,14.0,54%,30.53,10.0,WNW,5.8,,N/A,,Mostly Cloudy
5905,2016-12-11,6:51 AM,28.9,25.2,14.0,54%,30.54,10.0,North,3.5,,N/A,,Mostly Cloudy
5906,2016-12-11,7:51 AM,30.0,26.5,16.0,56%,30.56,10.0,ENE,3.5,,N/A,,Mostly Cloudy
5907,2016-12-11,8:51 AM,32.0,,16.0,52%,30.58,10.0,Calm,Calm,,N/A,,Mostly Cloudy
5908,2016-12-11,9:51 AM,34.0,28.0,18.0,52%,30.59,10.0,SW,6.9,,N/A,,Mostly Cloudy
5909,2016-12-11,10:51 AM,35.1,30.1,14.0,42%,30.58,10.0,WSW,5.8,,N/A,,Mostly Cloudy
5910,2016-12-11,11:51 AM,35.1,29.3,16.0,46%,30.53,10.0,SSW,6.9,,N/A,,Mostly Cloudy
5911,2016-12-11,12:51 PM,36.0,31.1,14.0,41%,30.48,10.0,SSE,5.8,,N/A,,Overcast
5912,2016-12-11,1:51 PM,36.0,31.1,14.0,41%,30.46,10.0,South,5.8,,N/A,,Overcast
5913,2016-12-11,2:51 PM,36.0,29.0,15.1,43%,30.47,10.0,SW,9.2,,N/A,,Overcast
5914,2016-12-11,3:51 PM,35.1,27.4,18.0,50%,30.46,10.0,SSW,10.4,,N/A,,Overcast
5915,2016-12-11,4:51 PM,33.1,24.9,21.0,61%,30.45,5.0,SSW,10.4,,0.00,Snow,Light Snow
5916,2016-12-11,5:28 PM,32.0,25.6,23.0,69%,30.46,2.5,WSW,6.9,,0.00,Snow,Light Snow
5917,2016-12-11,5:51 PM,32.0,26.4,25.0,75%,30.45,2.0,SW,5.8,,0.01,Snow,Light Snow
5918,2016-12-11,6:01 PM,32.0,25.6,25.0,75%,30.45,3.0,SW,6.9,,0.00,Snow,Light Snow
5919,2016-12-11,6:51 PM,30.9,27.5,26.1,82%,30.43,3.0,SE,3.5,,0.01,Snow,Light Snow
5920,2016-12-11,7:13 PM,32.0,28.7,26.1,79%,30.41,7.0,East,3.5,,0.00,Snow,Light Snow
5921,2016-12-11,7:51 PM,32.0,27.5,27.0,82%,30.39,6.0,ENE,4.6,,0.00,,Haze
5922,2016-12-11,8:51 PM,33.1,30.0,28.0,82%,30.35,6.0,ENE,3.5,,N/A,,Haze
5923,2016-12-11,9:51 PM,33.1,30.0,28.9,85%,30.33,7.0,NE,3.5,,N/A,,Overcast
5924,2016-12-11,10:51 PM,34.0,28.0,28.9,82%,30.29,10.0,NE,6.9,,N/A,,Overcast
5925,2016-12-11,11:51 PM,34.0,27.2,30.0,85%,30.24,10.0,NNE,8.1,,N/A,,Overcast
5926,2016-12-12,12:51 AM,41.0,33.9,34.0,76%,30.17,10.0,SSE,12.7,23.0,N/A,,Overcast
5927,2016-12-12,1:41 AM,44.1,36.8,37.0,76%,30.13,7.0,SSW,16.1,,0.01,Ra,Light Ra
5928,2016-12-12,1:51 AM,44.1,37.4,37.9,79%,30.13,7.0,SSW,13.8,,0.03,Ra,Light Ra
5929,2016-12-12,2:35 AM,44.1,39.5,39.9,85%,30.09,5.0,SSW,8.1,,0.06,Ra,Ra
5930,2016-12-12,2:51 AM,45.0,40.1,41.0,86%,30.07,5.0,South,9.2,,0.09,Ra,Light Ra
5931,2016-12-12,3:51 AM,44.1,41.5,42.1,93%,30.00,7.0,South,4.6,,0.07,Ra,Light Ra
5932,2016-12-12,4:51 AM,45.0,,42.1,90%,29.96,4.0,Calm,Calm,,0.16,Ra,Heavy Ra
5933,2016-12-12,5:10 AM,44.1,40.8,41.0,89%,29.94,3.0,SE,5.8,,0.06,Ra,Ra
5934,2016-12-12,5:51 AM,46.9,,43.0,86%,29.92,5.0,SSW,12.7,,0.13,Ra,Ra
5935,2016-12-12,6:51 AM,46.0,39.9,43.0,89%,29.90,8.0,SW,13.8,,0.06,Ra,Light Ra
5936,2016-12-12,7:51 AM,44.1,37.1,39.9,85%,29.89,7.0,WSW,15.0,,0.04,Ra,Light Ra
5937,2016-12-12,8:21 AM,44.1,36.5,39.9,85%,29.89,10.0,WSW,17.3,,0.01,Ra,Light Ra
5938,2016-12-12,8:51 AM,44.1,37.4,39.9,85%,29.89,10.0,WSW,13.8,,0.02,Ra,Light Ra
5939,2016-12-12,9:51 AM,45.0,37.9,39.9,82%,29.89,10.0,West,16.1,,0.00,,Overcast
5940,2016-12-12,10:16 AM,45.0,37.6,39.9,82%,29.89,10.0,WSW,17.3,,N/A,,Overcast
5941,2016-12-12,10:51 AM,45.0,38.9,41.0,86%,29.86,9.0,WSW,12.7,,N/A,,Overcast
5942,2016-12-12,11:51 AM,45.0,37.4,39.9,82%,29.86,10.0,West,18.4,,N/A,,Overcast
5943,2016-12-12,12:27 PM,45.0,39.3,39.9,82%,29.85,10.0,WSW,11.5,,N/A,,Overcast
5944,2016-12-12,12:51 PM,46.0,41.0,39.9,79%,29.84,9.0,West,10.4,,N/A,,Overcast
5945,2016-12-12,1:51 PM,46.0,39.3,39.0,76%,29.84,10.0,WNW,16.1,,N/A,,Mostly Cloudy
5946,2016-12-12,2:51 PM,48.0,,37.9,68%,29.84,10.0,WNW,8.1,,N/A,,Mostly Cloudy
5947,2016-12-12,3:51 PM,48.0,,37.0,66%,29.85,10.0,West,8.1,,N/A,,Mostly Cloudy
5948,2016-12-12,4:51 PM,46.0,41.0,35.1,66%,29.84,10.0,West,10.4,,N/A,,Scattered Clouds
5949,2016-12-12,5:51 PM,44.1,37.7,35.1,71%,29.88,10.0,West,12.7,,N/A,,Partly Cloudy
5950,2016-12-12,6:51 PM,45.0,38.9,35.1,68%,29.90,10.0,West,12.7,,N/A,,Partly Cloudy
5951,2016-12-12,7:51 PM,43.0,36.0,34.0,71%,29.94,10.0,West,13.8,,N/A,,Partly Cloudy
5952,2016-12-12,8:51 PM,41.0,35.2,33.1,73%,29.96,10.0,WSW,9.2,,N/A,,Scattered Clouds
5953,2016-12-12,9:51 PM,43.0,36.0,32.0,65%,30.01,10.0,West,13.8,,N/A,,Scattered Clouds
5954,2016-12-12,10:51 PM,42.1,34.9,30.0,62%,30.02,10.0,West,13.8,,N/A,,Mostly Cloudy
5955,2016-12-12,11:51 PM,39.9,32.9,28.9,65%,30.03,10.0,West,11.5,,N/A,,Mostly Cloudy
5956,2016-12-13,12:51 AM,39.9,32.1,25.0,55%,30.05,10.0,WNW,13.8,,N/A,,Scattered Clouds
5957,2016-12-13,1:51 AM,39.0,32.3,25.0,57%,30.07,10.0,West,10.4,,N/A,,Scattered Clouds
5958,2016-12-13,2:51 AM,39.9,32.1,21.9,49%,30.09,10.0,NW,13.8,,N/A,,Mostly Cloudy
5959,2016-12-13,3:51 AM,39.0,31.0,21.0,49%,30.11,10.0,NW,13.8,,N/A,,Mostly Cloudy
5960,2016-12-13,4:51 AM,37.9,30.9,21.0,51%,30.13,10.0,NW,10.4,,N/A,,Mostly Cloudy
5961,2016-12-13,5:51 AM,37.9,29.2,19.0,47%,30.17,10.0,NW,15.0,,N/A,,Overcast
5962,2016-12-13,6:51 AM,37.9,32.7,19.9,48%,30.18,10.0,NW,6.9,,N/A,,Mostly Cloudy
5963,2016-12-13,7:51 AM,37.0,31.6,25.0,62%,30.19,10.0,West,6.9,,N/A,,Mostly Cloudy
5964,2016-12-13,8:51 AM,39.9,35.8,25.0,55%,30.19,10.0,West,5.8,,N/A,,Mostly Cloudy
5965,2016-12-13,9:51 AM,41.0,36.4,24.1,51%,30.21,10.0,WSW,6.9,,N/A,,Mostly Cloudy
5966,2016-12-13,10:51 AM,42.1,36.6,21.9,45%,30.19,10.0,WSW,9.2,,N/A,,Mostly Cloudy
5967,2016-12-13,11:51 AM,43.0,38.8,21.0,42%,30.17,10.0,WSW,6.9,,N/A,,Mostly Cloudy
5968,2016-12-13,12:51 PM,44.1,40.1,23.0,43%,30.14,10.0,SW,6.9,,N/A,,Mostly Cloudy
5969,2016-12-13,1:51 PM,43.0,37.2,24.1,47%,30.15,10.0,SSW,10.4,,N/A,,Mostly Cloudy
5970,2016-12-13,2:51 PM,42.1,36.6,21.9,45%,30.15,10.0,SW,9.2,,N/A,,Mostly Cloudy
5971,2016-12-13,3:51 PM,41.0,37.1,23.0,49%,30.14,10.0,SW,5.8,,N/A,,Mostly Cloudy
5972,2016-12-13,4:51 PM,42.1,39.2,25.0,51%,30.12,10.0,South,4.6,,N/A,,Mostly Cloudy
5973,2016-12-13,5:51 PM,42.1,37.1,27.0,55%,30.11,10.0,South,8.1,,N/A,,Mostly Cloudy
5974,2016-12-13,6:51 PM,42.1,36.6,26.1,53%,30.10,10.0,SW,9.2,,N/A,,Overcast
5975,2016-12-13,7:51 PM,43.0,38.8,28.9,58%,30.06,10.0,South,6.9,,N/A,,Overcast
5976,2016-12-13,8:51 PM,42.1,37.7,30.0,62%,30.04,10.0,SW,6.9,,N/A,,Mostly Cloudy
5977,2016-12-13,9:51 PM,42.1,38.4,30.0,62%,30.03,10.0,West,5.8,,N/A,,Overcast
5978,2016-12-13,10:51 PM,42.1,38.4,28.9,60%,30.04,10.0,West,5.8,,N/A,,Overcast
5979,2016-12-13,11:51 PM,42.1,37.1,30.0,62%,30.04,10.0,West,8.1,,N/A,,Overcast
5980,2016-12-14,12:51 AM,42.1,37.1,28.0,58%,30.01,10.0,West,8.1,,N/A,,Overcast
5981,2016-12-14,1:51 AM,42.1,37.7,28.0,58%,30.01,10.0,West,6.9,,N/A,,Overcast
5982,2016-12-14,2:51 AM,39.0,34.0,28.9,67%,29.99,10.0,NW,6.9,,N/A,,Mostly Cloudy
5983,2016-12-14,3:51 AM,39.9,35.1,28.0,63%,29.96,10.0,NW,6.9,,N/A,,Mostly Cloudy
5984,2016-12-14,4:51 AM,37.9,33.5,28.0,68%,29.96,10.0,NNW,5.8,,N/A,,Scattered Clouds
5985,2016-12-14,5:51 AM,39.0,32.8,27.0,62%,29.98,9.0,NW,9.2,,N/A,,Scattered Clouds
5986,2016-12-14,6:51 AM,37.9,29.6,26.1,62%,30.01,10.0,NW,13.8,,N/A,,Partly Cloudy
5987,2016-12-14,7:51 AM,37.9,30.5,26.1,62%,30.01,10.0,NNW,11.5,,N/A,,Partly Cloudy
5988,2016-12-14,8:51 AM,39.9,31.4,23.0,51%,30.04,10.0,NNW,16.1,25.3,N/A,,Partly Cloudy
5989,2016-12-14,9:51 AM,42.1,34.2,23.0,47%,30.04,10.0,NW,16.1,,N/A,,Partly Cloudy
5990,2016-12-14,10:51 AM,43.0,37.2,23.0,45%,30.01,10.0,WNW,10.4,,N/A,,Partly Cloudy
5991,2016-12-14,11:51 AM,44.1,37.4,21.0,40%,30.00,10.0,WNW,13.8,,N/A,,Partly Cloudy
5992,2016-12-14,12:51 PM,45.0,37.6,19.9,37%,29.97,10.0,West,17.3,,N/A,,Scattered Clouds
5993,2016-12-14,1:51 PM,44.1,35.9,17.1,34%,29.97,10.0,West,19.6,24.2,N/A,,Mostly Cloudy
5994,2016-12-14,2:51 PM,44.1,36.5,12.9,28%,29.98,10.0,WNW,17.3,23.0,N/A,,Mostly Cloudy
5995,2016-12-14,3:51 PM,42.1,36.6,10.0,27%,29.98,10.0,West,9.2,,N/A,,Mostly Cloudy
5996,2016-12-14,4:51 PM,39.0,32.3,12.0,33%,29.97,10.0,WSW,10.4,,N/A,,Mostly Cloudy
5997,2016-12-14,5:51 PM,39.0,30.6,12.0,33%,29.97,10.0,WSW,15.0,,N/A,,Overcast
5998,2016-12-14,6:51 PM,39.0,31.0,12.0,33%,29.99,10.0,West,13.8,,N/A,,Overcast
5999,2016-12-14,7:51 PM,37.0,27.4,9.0,31%,29.98,10.0,West,17.3,,N/A,,Mostly Cloudy
6000,2016-12-14,8:51 PM,37.0,27.4,10.0,33%,29.96,10.0,West,17.3,,N/A,,Mostly Cloudy
6001,2016-12-14,9:51 PM,36.0,27.1,10.9,36%,29.94,10.0,West,13.8,,N/A,,Mostly Cloudy
6002,2016-12-14,10:51 PM,35.1,26.9,10.0,35%,29.92,10.0,West,11.5,,N/A,,Mostly Cloudy
6003,2016-12-14,11:51 PM,36.0,28.0,9.0,33%,29.91,10.0,West,11.5,,N/A,,Mostly Cloudy
6004,2016-12-15,12:51 AM,36.0,27.1,10.0,34%,29.89,10.0,West,13.8,,N/A,,Overcast
6005,2016-12-15,1:51 AM,36.0,26.7,8.1,31%,29.86,10.0,West,15.0,,N/A,,Overcast
6006,2016-12-15,2:51 AM,35.1,26.4,9.0,34%,29.83,10.0,WSW,12.7,,N/A,,Mostly Cloudy
6007,2016-12-15,3:51 AM,34.0,23.8,8.1,34%,29.80,10.0,West,16.1,24.2,N/A,,Scattered Clouds
6008,2016-12-15,4:51 AM,33.1,20.1,5.0,31%,29.79,10.0,West,25.3,34.5,N/A,,Scattered Clouds
6009,2016-12-15,5:51 AM,30.9,15.9,1.9,29%,29.80,9.0,WNW,31.1,43.7,N/A,,Partly Cloudy
6010,2016-12-15,6:51 AM,28.9,16.1,1.9,32%,29.84,10.0,West,19.6,33.4,N/A,,Partly Cloudy
6011,2016-12-15,7:51 AM,27.0,11.6,1.0,33%,29.87,10.0,West,26.5,36.8,N/A,,Partly Cloudy
6012,2016-12-15,8:51 AM,28.0,13.9,1.0,31%,29.88,10.0,WNW,23.0,34.5,N/A,,Scattered Clouds
6013,2016-12-15,9:51 AM,28.0,13.9,0.0,30%,29.91,10.0,WNW,23.0,33.4,N/A,,Scattered Clouds
6014,2016-12-15,10:23 AM,24.1,7.7,10.0,55%,29.92,2.5,WNW,26.5,44.9,0.00,Snow,Light Snow
6015,2016-12-15,10:30 AM,24.1,7.7,7.0,48%,29.93,7.0,WNW,26.5,38.0,0.00,Snow,Light Snow
6016,2016-12-15,10:51 AM,26.1,10.1,0.0,32%,29.92,10.0,WNW,27.6,47.2,0.00,,Scattered Clouds
6017,2016-12-15,11:51 AM,25.0,8.9,11.9,19%,29.91,10.0,WNW,26.5,41.4,N/A,,Scattered Clouds
6018,2016-12-15,12:51 PM,26.1,10.1,7.1,23%,29.93,10.0,WNW,27.6,36.8,0.00,,Scattered Clouds
6019,2016-12-15,1:51 PM,25.0,9.5,11.9,19%,29.95,10.0,WNW,24.2,35.7,N/A,,Mostly Cloudy
6020,2016-12-15,2:51 PM,24.1,8.7,13.0,19%,29.99,10.0,WNW,23.0,33.4,N/A,,Mostly Cloudy
6021,2016-12-15,3:51 PM,23.0,6.3,11.9,21%,30.02,10.0,West,26.5,34.5,N/A,,Mostly Cloudy
6022,2016-12-15,4:51 PM,23.0,8.3,11.0,22%,30.05,10.0,West,19.6,28.8,N/A,,Scattered Clouds
6023,2016-12-15,5:51 PM,23.0,7.6,9.9,23%,30.09,10.0,West,21.9,31.1,N/A,,Partly Cloudy
6024,2016-12-15,6:51 PM,23.0,6.3,8.0,25%,30.12,10.0,West,26.5,39.1,N/A,,Partly Cloudy
6025,2016-12-15,7:51 PM,21.9,4.5,7.1,28%,30.15,10.0,West,27.6,36.8,N/A,,Partly Cloudy
6026,2016-12-15,8:51 PM,21.9,5.1,5.1,30%,30.16,10.0,West,25.3,35.7,N/A,,Partly Cloudy
6027,2016-12-15,9:51 PM,21.9,5.5,2.9,34%,30.17,10.0,West,24.2,33.4,N/A,,Partly Cloudy
6028,2016-12-15,10:51 PM,21.0,3.9,2.9,35%,30.19,10.0,West,25.3,38.0,N/A,,Clear
6029,2016-12-15,11:51 PM,21.0,5.4,0.9,38%,30.20,10.0,West,20.7,33.4,N/A,,Clear
6030,2016-12-16,12:51 AM,19.9,4.3,0.9,40%,30.21,10.0,West,19.6,29.9,N/A,,Clear
6031,2016-12-16,1:51 AM,19.9,3.2,0.0,42%,30.24,10.0,West,23.0,29.9,N/A,,Partly Cloudy
6032,2016-12-16,2:51 AM,19.9,5.7,0.0,42%,30.28,10.0,West,16.1,24.2,N/A,,Partly Cloudy
6033,2016-12-16,3:51 AM,19.0,4.5,0.0,43%,30.30,10.0,West,16.1,23.0,N/A,,Partly Cloudy
6034,2016-12-16,4:51 AM,19.0,4.0,1.0,46%,30.33,10.0,West,17.3,,N/A,,Partly Cloudy
6035,2016-12-16,5:51 AM,19.0,3.6,1.0,46%,30.37,10.0,West,18.4,,N/A,,Partly Cloudy
6036,2016-12-16,6:51 AM,19.0,6.1,1.0,46%,30.39,10.0,West,12.7,,N/A,,Partly Cloudy
6037,2016-12-16,7:51 AM,19.0,4.5,1.9,47%,30.42,10.0,West,16.1,,N/A,,Partly Cloudy
6038,2016-12-16,8:51 AM,21.0,8.1,1.9,44%,30.45,10.0,West,13.8,21.9,N/A,,Scattered Clouds
6039,2016-12-16,9:51 AM,21.0,8.6,3.0,46%,30.47,10.0,West,12.7,,N/A,,Mostly Cloudy
6040,2016-12-16,10:51 AM,23.0,10.6,3.0,42%,30.48,10.0,West,13.8,,N/A,,Mostly Cloudy
6041,2016-12-16,11:51 AM,26.1,15.6,3.0,37%,30.45,10.0,West,11.5,,N/A,,Mostly Cloudy
6042,2016-12-16,12:51 PM,27.0,20.5,3.9,37%,30.43,10.0,Variable,5.8,,N/A,,Mostly Cloudy
6043,2016-12-16,1:51 PM,28.0,18.6,3.9,36%,30.43,10.0,WSW,10.4,,N/A,,Mostly Cloudy
6044,2016-12-16,2:51 PM,27.0,18.0,5.0,39%,30.43,10.0,SW,9.2,,N/A,,Mostly Cloudy
6045,2016-12-16,3:51 PM,27.0,18.7,5.0,39%,30.44,10.0,SW,8.1,,N/A,,Mostly Cloudy
6046,2016-12-16,4:51 PM,26.1,15.0,5.0,41%,30.45,10.0,WSW,12.7,,N/A,,Mostly Cloudy
6047,2016-12-16,5:51 PM,27.0,15.6,5.0,39%,30.44,10.0,SW,13.8,,N/A,,Mostly Cloudy
6048,2016-12-16,6:51 PM,27.0,16.1,5.0,39%,30.45,10.0,SW,12.7,,N/A,,Overcast
6049,2016-12-16,7:51 PM,27.0,15.6,3.9,37%,30.45,10.0,SW,13.8,,N/A,,Overcast
6050,2016-12-16,8:51 PM,28.0,18.1,5.0,38%,30.43,10.0,SW,11.5,,N/A,,Overcast
6051,2016-12-16,9:51 PM,28.0,18.6,3.9,36%,30.41,10.0,SW,10.4,,N/A,,Overcast
6052,2016-12-16,10:51 PM,28.0,17.0,3.9,36%,30.41,10.0,SW,13.8,,N/A,,Overcast
6053,2016-12-16,11:51 PM,28.0,17.0,9.0,45%,30.39,10.0,SW,13.8,,N/A,,Overcast
6054,2016-12-17,12:51 AM,28.9,19.2,12.0,49%,30.38,10.0,SW,11.5,,N/A,,Overcast
6055,2016-12-17,1:51 AM,30.0,24.1,12.9,49%,30.35,10.0,SW,5.8,,N/A,,Overcast
6056,2016-12-17,2:51 AM,30.0,22.4,15.1,54%,30.34,10.0,WSW,8.1,,0.00,Snow,Light Snow
6057,2016-12-17,3:03 AM,30.0,21.1,16.0,56%,30.34,1.0,WSW,10.4,,0.00,Snow,Light Snow
6058,2016-12-17,3:51 AM,27.0,18.0,21.9,81%,30.31,1.0,WSW,9.2,,0.04,Snow,Light Snow
6059,2016-12-17,4:51 AM,27.0,21.6,21.9,81%,30.23,1.0,NE,4.6,,0.04,Snow,Light Snow
6060,2016-12-17,5:51 AM,27.0,18.7,23.0,85%,30.18,1.0,ENE,8.1,,0.04,Snow,Light Snow
6061,2016-12-17,6:46 AM,28.4,22.2,23.0,80%,30.14,0.5,ENE,5.8,,0.08,Snow,Light Snow
6062,2016-12-17,6:51 AM,28.0,21.7,24.1,85%,30.14,0.5,ENE,5.8,,0.09,Snow,Light Snow
6063,2016-12-17,7:47 AM,28.4,23.3,24.8,86%,30.09,0.8,East,4.6,,0.10,Snow,Light Snow
6064,2016-12-17,7:51 AM,28.9,23.9,25.0,85%,30.09,0.8,ENE,4.6,,0.10,Snow,Light Snow
6065,2016-12-17,8:34 AM,30.9,24.3,27.0,85%,30.04,1.8,East,6.9,,0.12,Ra,Light Freezg Ra
6066,2016-12-17,8:46 AM,30.2,22.6,26.6,86%,30.04,1.8,ENE,8.1,,0.14,Ra,Light Freezg Ra
6067,2016-12-17,8:51 AM,30.9,22.8,27.0,85%,30.04,1.8,ENE,9.2,,0.15,Ra,Light Freezg Ra
6068,2016-12-17,9:03 AM,32.0,23.6,28.0,85%,30.02,1.8,ENE,10.4,,0.03,Ra,Light Freezg Ra
6069,2016-12-17,9:48 AM,33.8,25.8,28.4,81%,30.03,1.5,NNW,10.4,,0.15,Ra,Light Freezg Ra
6070,2016-12-17,9:51 AM,33.1,25.5,28.9,85%,30.02,1.5,North,9.2,,0.15,Ra,Light Freezg Ra
6071,2016-12-17,10:07 AM,33.1,26.1,28.9,85%,30.01,2.0,North,8.1,,0.04,Ra,Light Freezg Ra
6072,2016-12-17,10:18 AM,33.1,26.1,28.9,85%,30.01,2.0,NNE,8.1,,0.06,Ra,Ra
6073,2016-12-17,10:51 AM,34.0,28.0,30.0,85%,29.99,2.0,North,6.9,,0.11,Ra,Ra
6074,2016-12-17,11:13 AM,34.0,28.8,30.0,85%,29.96,4.0,North,5.8,,0.02,Ra,Light Ra
6075,2016-12-17,11:37 AM,34.0,28.0,30.0,85%,29.96,4.0,NW,6.9,,0.02,Ra,Light Ra
6076,2016-12-17,11:51 AM,35.1,29.3,30.0,82%,29.94,5.0,NNW,6.9,,0.02,,Haze
6077,2016-12-17,12:51 PM,37.0,33.3,30.9,79%,29.93,6.0,West,4.6,,N/A,,Haze
6078,2016-12-17,1:04 PM,37.0,33.3,30.9,79%,29.92,6.0,West,4.6,,N/A,,Haze
6079,2016-12-17,1:51 PM,36.0,30.3,30.9,82%,29.92,4.0,WSW,6.9,,N/A,,Haze
6080,2016-12-17,2:51 PM,37.9,30.5,33.1,83%,29.93,10.0,WSW,11.5,,N/A,,Overcast
6081,2016-12-17,3:37 PM,37.0,29.3,32.0,82%,29.93,10.0,SW,11.5,,N/A,,Overcast
6082,2016-12-17,3:51 PM,37.0,29.3,32.0,82%,29.93,10.0,WSW,11.5,,N/A,,Overcast
6083,2016-12-17,4:51 PM,37.0,28.5,32.0,82%,29.94,10.0,SW,13.8,,N/A,,Overcast
6084,2016-12-17,5:51 PM,37.9,30.5,32.0,79%,29.94,10.0,SW,11.5,,N/A,,Overcast
6085,2016-12-17,6:51 PM,37.9,30.0,32.0,79%,29.96,10.0,SW,12.7,,N/A,,Overcast
6086,2016-12-17,7:51 PM,37.9,31.5,33.1,83%,29.96,10.0,SW,9.2,,N/A,,Mostly Cloudy
6087,2016-12-17,8:51 PM,39.0,32.3,34.0,82%,29.96,10.0,SW,10.4,,N/A,,Mostly Cloudy
6088,2016-12-17,9:42 PM,39.0,32.3,34.0,82%,29.95,10.0,SW,10.4,,N/A,,Mostly Cloudy
6089,2016-12-17,9:51 PM,39.9,33.9,35.1,83%,29.95,10.0,SW,9.2,,N/A,,Mostly Cloudy
6090,2016-12-17,10:51 PM,39.0,33.4,35.1,86%,29.93,5.0,SSW,8.1,,N/A,,Overcast
6091,2016-12-17,11:49 PM,39.2,35.9,37.4,93%,29.92,0.1,West,4.6,,N/A,Fog,Fog
6092,2016-12-17,11:51 PM,39.9,36.7,37.0,89%,29.92,0.1,WSW,4.6,,N/A,Fog,Fog
6093,2016-12-18,12:17 AM,39.9,36.7,37.0,89%,29.91,0.1,West,4.6,,N/A,Fog,Fog
6094,2016-12-18,12:51 AM,39.0,36.8,36.0,89%,29.90,0.1,West,3.5,,N/A,Fog,Fog
6095,2016-12-18,1:51 AM,39.0,,36.0,89%,29.88,0.1,Calm,Calm,,N/A,Fog,Fog
6096,2016-12-18,2:51 AM,45.0,39.3,43.0,93%,29.87,0.1,South,11.5,,N/A,Fog,Fog
6097,2016-12-18,3:27 AM,46.0,40.2,44.1,93%,29.83,0.1,South,12.7,,N/A,Fog,Fog
6098,2016-12-18,3:48 AM,46.4,40.7,44.6,93%,29.83,0.1,SSE,12.7,,N/A,Fog,Fog
6099,2016-12-18,3:51 AM,46.9,,44.1,90%,29.83,0.1,South,12.7,,N/A,Fog,Fog
6100,2016-12-18,4:14 AM,48.0,,45.0,89%,29.80,0.1,SSE,16.1,,0.03,"Fog
	,
Ra",Light Ra
6101,2016-12-18,4:51 AM,48.9,,46.9,93%,29.79,0.1,South,19.6,,0.04,"Fog
	,
Ra",Light Ra
6102,2016-12-18,5:04 AM,48.9,,46.0,90%,29.78,1.0,South,19.6,,0.00,,Overcast
6103,2016-12-18,5:51 AM,48.9,,46.0,90%,29.75,5.0,South,19.6,,0.00,,Mostly Cloudy
6104,2016-12-18,6:32 AM,50.0,,46.9,89%,29.75,5.0,South,17.3,,N/A,,Mostly Cloudy
6105,2016-12-18,6:51 AM,50.0,,46.9,89%,29.75,5.0,South,20.7,,N/A,,Mostly Cloudy
6106,2016-12-18,7:51 AM,51.1,,48.0,89%,29.78,5.0,SW,13.8,,0.00,,Mostly Cloudy
6107,2016-12-18,8:51 AM,55.0,,51.1,86%,29.81,9.0,SW,16.1,,0.01,,Overcast
6108,2016-12-18,9:51 AM,55.9,,52.0,87%,29.80,9.0,SSW,17.3,,N/A,,Mostly Cloudy
6109,2016-12-18,10:51 AM,57.9,,52.0,81%,29.80,10.0,SW,13.8,,N/A,,Overcast
6110,2016-12-18,11:51 AM,57.0,,51.1,81%,29.83,10.0,West,9.2,,N/A,,Overcast
6111,2016-12-18,12:51 PM,59.0,,53.1,81%,29.85,10.0,WSW,13.8,,0.00,,Overcast
6112,2016-12-18,1:51 PM,57.9,,53.1,84%,29.85,10.0,SW,12.7,,0.00,Ra,Light Ra
6113,2016-12-18,2:51 PM,57.0,,51.1,81%,29.92,10.0,WSW,19.6,25.3,0.00,,Overcast
6114,2016-12-18,3:01 PM,52.0,,44.1,74%,29.94,10.0,NW,28.8,48.3,0.00,Ra,Light Ra
6115,2016-12-18,3:37 PM,46.9,,35.1,63%,30.01,10.0,NW,24.2,36.8,0.00,,Overcast
6116,2016-12-18,3:51 PM,46.9,,35.1,63%,30.05,10.0,NW,20.7,31.1,0.00,,Overcast
6117,2016-12-18,4:51 PM,45.0,37.6,30.9,58%,30.13,10.0,NW,17.3,,N/A,,Overcast
6118,2016-12-18,5:51 PM,43.0,33.1,23.0,45%,30.19,10.0,NNW,26.5,33.4,N/A,,Mostly Cloudy
6119,2016-12-18,6:51 PM,41.0,30.7,17.1,38%,30.27,10.0,NW,25.3,32.2,N/A,,Mostly Cloudy
6120,2016-12-18,7:51 PM,39.9,30.8,17.1,40%,30.32,10.0,NW,18.4,,N/A,,Mostly Cloudy
6121,2016-12-18,8:51 PM,37.9,27.1,15.1,39%,30.36,10.0,NNW,23.0,28.8,N/A,,Mostly Cloudy
6122,2016-12-18,9:51 PM,36.0,26.3,14.0,41%,30.41,10.0,NW,16.1,28.8,N/A,,Partly Cloudy
6123,2016-12-18,10:51 PM,35.1,24.5,12.9,40%,30.43,10.0,NNW,18.4,,N/A,,Mostly Cloudy
6124,2016-12-18,11:51 PM,33.1,22.2,12.0,42%,30.48,10.0,NW,17.3,24.2,N/A,,Mostly Cloudy
6125,2016-12-19,12:51 AM,33.1,22.2,10.9,40%,30.50,10.0,NNW,17.3,,N/A,,Mostly Cloudy
6126,2016-12-19,1:51 AM,32.0,23.0,10.0,40%,30.52,10.0,NNW,11.5,,N/A,,Mostly Cloudy
6127,2016-12-19,2:51 AM,30.9,20.7,8.1,38%,30.55,10.0,NNW,13.8,,N/A,,Mostly Cloudy
6128,2016-12-19,3:51 AM,30.0,20.5,9.0,41%,30.59,10.0,NNW,11.5,,N/A,,Mostly Cloudy
6129,2016-12-19,4:51 AM,30.0,21.1,9.0,41%,30.62,10.0,NNW,10.4,,N/A,,Mostly Cloudy
6130,2016-12-19,5:51 AM,28.0,16.1,10.9,49%,30.66,10.0,North,16.1,,N/A,,Overcast
6131,2016-12-19,6:51 AM,27.0,15.6,9.0,47%,30.69,10.0,North,13.8,,N/A,,Overcast
6132,2016-12-19,7:51 AM,26.1,12.3,8.1,47%,30.71,10.0,North,19.6,,N/A,,Mostly Cloudy
6133,2016-12-19,8:51 AM,26.1,14.0,6.1,43%,30.74,10.0,North,15.0,,N/A,,Mostly Cloudy
6134,2016-12-19,9:51 AM,27.0,13.9,3.9,37%,30.75,10.0,NNW,18.4,,N/A,,Scattered Clouds
6135,2016-12-19,10:51 AM,28.9,17.7,3.9,35%,30.73,10.0,NNW,15.0,,N/A,,Scattered Clouds
6136,2016-12-19,11:51 AM,30.0,20.5,1.9,30%,30.71,10.0,NNE,11.5,,N/A,,Mostly Cloudy
6137,2016-12-19,12:51 PM,30.9,20.7,1.0,28%,30.70,10.0,North,13.8,,N/A,,Mostly Cloudy
6138,2016-12-19,1:51 PM,30.9,22.2,1.0,28%,30.69,10.0,NNW,10.4,,N/A,,Mostly Cloudy
6139,2016-12-19,2:51 PM,30.0,21.7,0.0,28%,30.70,10.0,North,9.2,,N/A,,Mostly Cloudy
6140,2016-12-19,3:51 PM,28.9,18.6,1.0,30%,30.70,10.0,North,12.7,,N/A,,Mostly Cloudy
6141,2016-12-19,4:51 PM,28.0,19.3,1.9,33%,30.71,10.0,North,9.2,,N/A,,Mostly Cloudy
6142,2016-12-19,5:51 PM,28.0,18.6,1.0,31%,30.71,10.0,NNE,10.4,,N/A,,Mostly Cloudy
6143,2016-12-19,6:51 PM,28.0,20.0,3.0,34%,30.71,10.0,North,8.1,,N/A,,Mostly Cloudy
6144,2016-12-19,7:51 PM,27.0,17.3,3.0,36%,30.70,10.0,North,10.4,,N/A,,Mostly Cloudy
6145,2016-12-19,8:51 PM,27.0,16.1,3.9,37%,30.69,10.0,North,12.7,,N/A,,Mostly Cloudy
6146,2016-12-19,9:51 PM,27.0,17.3,5.0,39%,30.69,10.0,North,10.4,,N/A,,Mostly Cloudy
6147,2016-12-19,10:51 PM,26.1,15.6,6.1,43%,30.69,10.0,North,11.5,,N/A,,Mostly Cloudy
6148,2016-12-19,11:51 PM,26.1,16.8,5.0,41%,30.69,10.0,North,9.2,,N/A,,Mostly Cloudy
6149,2016-12-20,12:51 AM,25.0,14.8,5.0,43%,30.69,10.0,North,10.4,,N/A,,Mostly Cloudy
6150,2016-12-20,1:51 AM,24.1,14.4,5.0,44%,30.68,10.0,North,9.2,,N/A,,Scattered Clouds
6151,2016-12-20,2:51 AM,23.0,17.0,6.1,48%,30.66,10.0,North,4.6,,N/A,,Partly Cloudy
6152,2016-12-20,3:51 AM,21.0,13.4,7.0,55%,30.65,10.0,North,5.8,,N/A,,Partly Cloudy
6153,2016-12-20,4:51 AM,21.0,13.4,8.1,57%,30.64,10.0,North,5.8,,N/A,,Partly Cloudy
6154,2016-12-20,5:51 AM,21.9,12.5,10.0,60%,30.63,10.0,North,8.1,,N/A,,Partly Cloudy
6155,2016-12-20,6:51 AM,21.9,14.5,8.1,55%,30.62,10.0,NNE,5.8,,N/A,,Partly Cloudy
6156,2016-12-20,7:51 AM,23.0,14.7,8.1,53%,30.61,10.0,North,6.9,,N/A,,Partly Cloudy
6157,2016-12-20,8:51 AM,27.0,19.5,9.0,47%,30.60,10.0,NNE,6.9,,N/A,,Partly Cloudy
6158,2016-12-20,9:51 AM,28.0,21.7,6.1,39%,30.59,10.0,North,5.8,,N/A,,Partly Cloudy
6159,2016-12-20,10:51 AM,30.9,26.2,5.0,33%,30.56,10.0,NNE,4.6,,N/A,,Partly Cloudy
6160,2016-12-20,11:51 AM,32.0,27.5,5.0,32%,30.52,10.0,Variable,4.6,,N/A,,Partly Cloudy
6161,2016-12-20,12:51 PM,30.9,25.2,3.9,32%,30.47,10.0,Variable,5.8,,N/A,,Partly Cloudy
6162,2016-12-20,1:51 PM,33.1,26.1,9.0,37%,30.44,10.0,SW,8.1,,N/A,,Partly Cloudy
6163,2016-12-20,2:51 PM,32.0,26.4,10.0,40%,30.41,10.0,South,5.8,,N/A,,Scattered Clouds
6164,2016-12-20,3:51 PM,32.0,26.4,8.1,37%,30.37,10.0,SW,5.8,,N/A,,Scattered Clouds
6165,2016-12-20,4:51 PM,28.9,22.8,12.0,49%,30.35,10.0,SSW,5.8,,N/A,,Scattered Clouds
6166,2016-12-20,5:51 PM,30.0,24.1,12.0,47%,30.33,10.0,WSW,5.8,,N/A,,Scattered Clouds
6167,2016-12-20,6:51 PM,30.0,22.4,16.0,56%,30.30,10.0,WSW,8.1,,N/A,,Scattered Clouds
6168,2016-12-20,7:51 PM,33.1,24.9,16.0,50%,30.28,10.0,WSW,10.4,,N/A,,Mostly Cloudy
6169,2016-12-20,8:51 PM,34.0,25.5,16.0,48%,30.25,10.0,WSW,11.5,,N/A,,Mostly Cloudy
6170,2016-12-20,9:51 PM,34.0,25.0,15.1,46%,30.25,10.0,WSW,12.7,,N/A,,Overcast
6171,2016-12-20,10:51 PM,33.1,24.9,17.1,52%,30.22,10.0,WSW,10.4,,N/A,,Overcast
6172,2016-12-20,11:51 PM,34.0,23.8,17.1,50%,30.18,10.0,WSW,16.1,,N/A,,Mostly Cloudy
6173,2016-12-21,12:51 AM,33.1,23.4,16.0,50%,30.17,10.0,West,13.8,,N/A,,Mostly Cloudy
6174,2016-12-21,1:51 AM,33.1,24.4,16.0,50%,30.15,10.0,WSW,11.5,,N/A,,Mostly Cloudy
6175,2016-12-21,2:51 AM,32.0,23.0,15.1,50%,30.14,10.0,West,11.5,,N/A,,Mostly Cloudy
6176,2016-12-21,3:51 AM,30.9,25.2,16.0,54%,30.13,10.0,WNW,5.8,,N/A,,Mostly Cloudy
6177,2016-12-21,4:51 AM,32.0,23.6,16.0,52%,30.14,10.0,West,10.4,,N/A,,Mostly Cloudy
6178,2016-12-21,5:51 AM,30.9,22.2,16.0,54%,30.14,10.0,West,10.4,,N/A,,Mostly Cloudy
6179,2016-12-21,6:51 AM,30.9,25.2,17.1,57%,30.16,10.0,West,5.8,,N/A,,Mostly Cloudy
6180,2016-12-21,7:51 AM,32.0,24.2,18.0,56%,30.17,10.0,West,9.2,,N/A,,Mostly Cloudy
6181,2016-12-21,8:51 AM,34.0,27.2,19.0,54%,30.19,10.0,WSW,8.1,,N/A,,Mostly Cloudy
6182,2016-12-21,9:51 AM,36.0,29.6,19.0,50%,30.20,10.0,WSW,8.1,,N/A,,Mostly Cloudy
6183,2016-12-21,10:51 AM,37.9,32.1,18.0,45%,30.20,10.0,West,8.1,,N/A,,Mostly Cloudy
6184,2016-12-21,11:51 AM,39.0,31.8,17.1,41%,30.19,10.0,NNW,11.5,,N/A,,Mostly Cloudy
6185,2016-12-21,12:51 PM,39.9,35.8,17.1,40%,30.18,10.0,WNW,5.8,,N/A,,Overcast
6186,2016-12-21,1:51 PM,41.0,34.7,19.0,41%,30.19,10.0,WSW,10.4,,N/A,,Overcast
6187,2016-12-21,2:51 PM,39.0,33.4,21.0,49%,30.19,10.0,SW,8.1,,N/A,,Mostly Cloudy
6188,2016-12-21,3:51 PM,39.9,33.4,21.0,47%,30.20,10.0,SW,10.4,,N/A,,Overcast
6189,2016-12-21,4:51 PM,39.0,32.3,21.9,50%,30.21,10.0,SW,10.4,,N/A,,Overcast
6190,2016-12-21,5:51 PM,39.0,33.4,21.9,50%,30.22,10.0,WSW,8.1,,N/A,,Overcast
6191,2016-12-21,6:51 PM,39.0,31.8,23.0,53%,30.23,10.0,SW,11.5,,N/A,,Mostly Cloudy
6192,2016-12-21,7:51 PM,39.0,31.8,24.1,55%,30.23,10.0,SW,11.5,,N/A,,Mostly Cloudy
6193,2016-12-21,8:51 PM,37.9,31.5,23.0,55%,30.21,10.0,WSW,9.2,,N/A,,Overcast
6194,2016-12-21,9:51 PM,37.9,32.7,21.9,53%,30.21,10.0,West,6.9,,N/A,,Mostly Cloudy
6195,2016-12-21,10:51 PM,41.0,36.4,19.0,41%,30.20,10.0,West,6.9,,N/A,,Mostly Cloudy
6196,2016-12-21,11:51 PM,37.0,32.4,19.9,50%,30.18,10.0,WSW,5.8,,N/A,,Overcast
6197,2016-12-22,12:51 AM,36.0,32.1,21.9,57%,30.17,10.0,SSW,4.6,,N/A,,Overcast
6198,2016-12-22,1:51 AM,37.0,29.3,25.0,62%,30.16,10.0,SW,11.5,,N/A,,Overcast
6199,2016-12-22,2:51 AM,35.1,30.1,24.1,64%,30.14,10.0,SW,5.8,,N/A,,Overcast
6200,2016-12-22,3:51 AM,34.0,,25.0,70%,30.11,10.0,Calm,Calm,,N/A,,Overcast
6201,2016-12-22,4:51 AM,35.1,31.0,25.0,67%,30.12,10.0,SW,4.6,,N/A,,Overcast
6202,2016-12-22,5:51 AM,41.0,36.4,25.0,53%,30.08,10.0,SW,6.9,,N/A,,Overcast
6203,2016-12-22,6:51 AM,41.0,36.4,27.0,57%,30.07,10.0,SW,6.9,,N/A,,Overcast
6204,2016-12-22,7:51 AM,45.0,38.5,28.0,52%,30.04,10.0,South,13.8,,N/A,,Overcast
6205,2016-12-22,8:51 AM,46.9,,28.0,48%,30.01,10.0,South,17.3,,N/A,,Overcast
6206,2016-12-22,9:51 AM,48.0,,28.9,48%,29.99,10.0,SSW,21.9,29.9,N/A,,Overcast
6207,2016-12-22,10:51 AM,46.9,,25.0,42%,29.99,10.0,WSW,16.1,,N/A,,Overcast
6208,2016-12-22,11:51 AM,45.0,39.7,25.0,46%,29.95,10.0,WSW,10.4,,N/A,,Mostly Cloudy
6209,2016-12-22,12:51 PM,46.0,40.2,21.9,39%,29.92,10.0,West,12.7,,N/A,,Mostly Cloudy
6210,2016-12-22,1:51 PM,48.0,,21.0,34%,29.91,10.0,West,10.4,,N/A,,Scattered Clouds
6211,2016-12-22,2:51 PM,50.0,,19.9,31%,29.94,10.0,NW,13.8,,N/A,,Partly Cloudy
6212,2016-12-22,3:51 PM,48.9,,19.0,31%,29.97,10.0,NNW,17.3,24.2,N/A,,Scattered Clouds
6213,2016-12-22,4:51 PM,46.9,,19.0,33%,30.01,10.0,NNW,21.9,29.9,N/A,,Mostly Cloudy
6214,2016-12-22,5:51 PM,45.0,37.1,21.0,39%,30.06,10.0,NW,19.6,32.2,N/A,,Mostly Cloudy
6215,2016-12-22,6:51 PM,44.1,35.0,21.0,40%,30.09,10.0,WNW,24.2,33.4,N/A,,Mostly Cloudy
6216,2016-12-22,7:51 PM,43.0,33.5,21.0,42%,30.10,10.0,NW,24.2,29.9,N/A,,Partly Cloudy
6217,2016-12-22,8:51 PM,43.0,34.8,21.9,43%,30.13,10.0,NW,18.4,25.3,N/A,,Partly Cloudy
6218,2016-12-22,9:51 PM,42.1,34.9,23.0,47%,30.15,10.0,NW,13.8,,N/A,,Scattered Clouds
6219,2016-12-22,10:51 PM,42.1,34.9,24.1,49%,30.19,10.0,NW,13.8,19.6,N/A,,Scattered Clouds
6220,2016-12-22,11:51 PM,41.0,33.1,23.0,49%,30.22,10.0,NW,15.0,,N/A,,Scattered Clouds
6221,2016-12-23,12:51 AM,41.0,33.9,23.0,49%,30.24,10.0,NW,12.7,28.8,N/A,,Scattered Clouds
6222,2016-12-23,1:51 AM,42.1,33.9,21.9,45%,30.27,10.0,NW,17.3,,N/A,,Partly Cloudy
6223,2016-12-23,2:51 AM,42.1,34.9,21.0,43%,30.29,10.0,NW,13.8,,N/A,,Partly Cloudy
6224,2016-12-23,3:51 AM,41.0,33.5,21.0,45%,30.31,10.0,WNW,13.8,,N/A,,Partly Cloudy
6225,2016-12-23,4:51 AM,41.0,33.1,21.0,45%,30.33,10.0,WNW,15.0,,N/A,,Partly Cloudy
6226,2016-12-23,5:51 AM,39.9,32.1,19.9,45%,30.36,10.0,WNW,13.8,,N/A,,Partly Cloudy
6227,2016-12-23,6:51 AM,39.0,31.0,21.9,50%,30.40,10.0,West,13.8,,N/A,,Partly Cloudy
6228,2016-12-23,7:51 AM,39.0,33.4,23.0,53%,30.42,10.0,West,8.1,,N/A,,Partly Cloudy
6229,2016-12-23,8:51 AM,43.0,38.2,21.0,42%,30.43,10.0,NW,8.1,,N/A,,Partly Cloudy
6230,2016-12-23,9:51 AM,43.0,36.8,21.9,43%,30.46,10.0,West,11.5,,N/A,,Mostly Cloudy
6231,2016-12-23,10:51 AM,45.0,38.5,21.0,39%,30.44,10.0,West,13.8,,N/A,,Mostly Cloudy
6232,2016-12-23,11:51 AM,46.0,40.6,21.0,37%,30.42,10.0,WSW,11.5,,N/A,,Mostly Cloudy
6233,2016-12-23,12:51 PM,46.0,40.6,21.0,37%,30.41,10.0,West,11.5,,N/A,,Mostly Cloudy
6234,2016-12-23,1:51 PM,46.9,,24.1,41%,30.41,10.0,SW,15.0,,N/A,,Mostly Cloudy
6235,2016-12-23,2:51 PM,45.0,38.5,24.1,44%,30.41,10.0,WSW,13.8,,N/A,,Mostly Cloudy
6236,2016-12-23,3:51 PM,46.0,41.4,23.0,40%,30.41,10.0,WSW,9.2,,N/A,,Mostly Cloudy
6237,2016-12-23,4:51 PM,43.0,37.2,24.1,47%,30.42,10.0,WSW,10.4,,N/A,,Mostly Cloudy
6238,2016-12-23,5:51 PM,43.0,36.0,27.0,53%,30.44,10.0,SW,13.8,,N/A,,Overcast
6239,2016-12-23,6:51 PM,43.0,36.8,25.0,49%,30.43,10.0,WSW,11.5,,N/A,,Overcast
6240,2016-12-23,7:51 PM,41.0,36.4,26.1,55%,30.43,10.0,SW,6.9,,N/A,,Overcast
6241,2016-12-23,8:51 PM,43.0,36.0,24.1,47%,30.43,10.0,SW,13.8,,N/A,,Overcast
6242,2016-12-23,9:51 PM,42.1,38.4,25.0,51%,30.41,10.0,SSW,5.8,,N/A,,Overcast
6243,2016-12-23,10:51 PM,42.1,35.7,24.1,49%,30.40,10.0,SW,11.5,,N/A,,Overcast
6244,2016-12-23,11:51 PM,41.0,33.9,25.0,53%,30.40,10.0,SW,12.7,,N/A,,Overcast
6245,2016-12-24,12:51 AM,41.0,36.4,26.1,55%,30.38,10.0,SW,6.9,,N/A,,Overcast
6246,2016-12-24,1:51 AM,41.0,34.7,27.0,57%,30.37,10.0,SW,10.4,,N/A,,Overcast
6247,2016-12-24,2:51 AM,41.0,34.3,27.0,57%,30.35,10.0,SSW,11.5,,N/A,,Overcast
6248,2016-12-24,3:51 AM,42.1,36.6,27.0,55%,30.31,10.0,South,9.2,,N/A,,Overcast
6249,2016-12-24,4:51 AM,43.0,36.4,26.1,51%,30.30,10.0,SW,12.7,,N/A,,Overcast
6250,2016-12-24,5:51 AM,43.0,37.7,24.1,47%,30.25,10.0,SSW,9.2,,N/A,,Overcast
6251,2016-12-24,6:51 AM,41.0,35.8,30.0,65%,30.28,8.0,West,8.1,,0.00,Ra,Light Ra
6252,2016-12-24,7:51 AM,39.0,35.7,32.0,76%,30.25,6.0,SW,4.6,,0.07,Ra,Light Ra
6253,2016-12-24,8:51 AM,39.9,35.1,34.0,79%,30.22,3.0,WSW,6.9,,0.09,Ra,Ra
6254,2016-12-24,9:17 AM,39.9,34.5,35.1,83%,30.20,3.0,WSW,8.1,,0.05,Ra,Ra
6255,2016-12-24,9:51 AM,41.0,37.1,36.0,82%,30.18,2.5,WSW,5.8,,0.14,Ra,Ra
6256,2016-12-24,10:51 AM,41.0,34.7,37.0,86%,30.14,1.5,West,10.4,,0.15,Ra,Ra
6257,2016-12-24,11:51 AM,41.0,35.2,37.9,89%,30.10,1.5,WSW,9.2,,0.13,Ra,Light Ra
6258,2016-12-24,12:04 PM,42.1,37.1,37.9,85%,30.10,2.0,WSW,8.1,,0.01,Ra,Light Ra
6259,2016-12-24,12:38 PM,42.1,35.2,37.9,85%,30.10,4.0,WSW,12.7,,0.02,Ra,Light Ra
6260,2016-12-24,12:51 PM,43.0,36.8,37.9,82%,30.09,6.0,WSW,11.5,,0.02,Ra,Light Ra
6261,2016-12-24,1:51 PM,44.1,37.4,39.0,82%,30.09,10.0,West,13.8,,0.00,,Overcast
6262,2016-12-24,2:37 PM,45.0,39.3,39.9,82%,30.09,9.0,WSW,11.5,,N/A,,Mostly Cloudy
6263,2016-12-24,2:51 PM,46.0,41.0,39.0,76%,30.09,10.0,West,10.4,,N/A,,Scattered Clouds
6264,2016-12-24,3:16 PM,46.0,40.6,39.9,79%,30.11,10.0,WSW,11.5,,N/A,,Mostly Cloudy
6265,2016-12-24,3:48 PM,46.4,40.7,39.2,76%,30.12,10.0,West,12.7,,N/A,,Scattered Clouds
6266,2016-12-24,3:51 PM,46.0,40.2,39.0,76%,30.12,10.0,WSW,12.7,,N/A,,Scattered Clouds
6267,2016-12-24,4:51 PM,43.0,37.2,37.9,82%,30.13,10.0,WSW,10.4,,N/A,,Partly Cloudy
6268,2016-12-24,5:51 PM,44.1,38.1,37.9,79%,30.15,10.0,WSW,11.5,,N/A,,Partly Cloudy
6269,2016-12-24,6:51 PM,46.0,39.9,39.0,76%,30.18,10.0,West,13.8,,N/A,,Mostly Cloudy
6270,2016-12-24,7:51 PM,46.9,,37.9,71%,30.20,10.0,West,11.5,,N/A,,Mostly Cloudy
6271,2016-12-24,8:51 PM,45.0,38.2,35.1,68%,30.22,10.0,NW,15.0,,N/A,,Scattered Clouds
6272,2016-12-24,9:51 PM,44.1,38.6,33.1,65%,30.25,10.0,NNW,10.4,,N/A,,Scattered Clouds
6273,2016-12-24,10:51 PM,44.1,38.1,32.0,63%,30.27,10.0,NW,11.5,,N/A,,Partly Cloudy
6274,2016-12-24,11:51 PM,42.1,37.1,30.9,65%,30.30,10.0,NNW,8.1,,N/A,,Partly Cloudy
6275,2016-12-25,12:51 AM,42.1,33.9,30.0,62%,30.31,10.0,NW,17.3,,N/A,,Partly Cloudy
6276,2016-12-25,1:51 AM,42.1,35.7,30.0,62%,30.32,10.0,NW,11.5,,N/A,,Mostly Cloudy
6277,2016-12-25,2:51 AM,39.9,33.9,30.0,68%,30.33,10.0,NW,9.2,,N/A,,Mostly Cloudy
6278,2016-12-25,3:51 AM,41.0,35.8,28.9,62%,30.34,10.0,NW,8.1,,N/A,,Mostly Cloudy
6279,2016-12-25,4:51 AM,39.9,32.9,28.9,65%,30.34,10.0,NW,11.5,,N/A,,Partly Cloudy
6280,2016-12-25,5:51 AM,39.9,33.4,28.9,65%,30.37,10.0,NW,10.4,,N/A,,Partly Cloudy
6281,2016-12-25,6:51 AM,39.9,33.9,28.9,65%,30.40,10.0,WNW,9.2,,N/A,,Partly Cloudy
6282,2016-12-25,7:51 AM,42.1,35.7,28.9,60%,30.42,10.0,WNW,11.5,,N/A,,Clear
6283,2016-12-25,8:51 AM,44.1,37.4,28.9,55%,30.44,10.0,WNW,13.8,,N/A,,Clear
6284,2016-12-25,9:51 AM,46.0,40.6,28.9,51%,30.46,10.0,NW,11.5,,N/A,,Clear
6285,2016-12-25,10:51 AM,48.0,,28.9,48%,30.48,10.0,NNW,10.4,,N/A,,Clear
6286,2016-12-25,11:51 AM,50.0,,28.0,43%,30.47,10.0,NNW,9.2,,N/A,,Clear
6287,2016-12-25,12:51 PM,51.1,,28.0,41%,30.47,10.0,North,9.2,,N/A,,Clear
6288,2016-12-25,1:51 PM,52.0,,27.0,38%,30.48,10.0,North,8.1,,N/A,,Clear
6289,2016-12-25,2:51 PM,51.1,,26.1,38%,30.50,10.0,North,10.4,,N/A,,Clear
6290,2016-12-25,3:51 PM,50.0,,26.1,39%,30.52,10.0,NNE,10.4,,N/A,,Partly Cloudy
6291,2016-12-25,4:51 PM,46.9,,25.0,42%,30.55,10.0,NE,9.2,,N/A,,Partly Cloudy
6292,2016-12-25,5:51 PM,45.0,38.9,24.1,44%,30.57,10.0,NE,12.7,,N/A,,Partly Cloudy
6293,2016-12-25,6:51 PM,43.0,37.7,24.1,47%,30.61,10.0,NE,9.2,,N/A,,Partly Cloudy
6294,2016-12-25,7:51 PM,42.1,36.1,24.1,49%,30.64,10.0,NE,10.4,,N/A,,Partly Cloudy
6295,2016-12-25,8:51 PM,39.9,33.9,24.1,53%,30.67,10.0,NNE,9.2,,N/A,,Partly Cloudy
6296,2016-12-25,9:51 PM,37.9,32.1,21.9,53%,30.68,10.0,NE,8.1,,N/A,,Partly Cloudy
6297,2016-12-25,10:51 PM,37.0,29.8,19.0,48%,30.70,10.0,NE,10.4,,N/A,,Partly Cloudy
6298,2016-12-25,11:51 PM,36.0,29.0,17.1,46%,30.71,10.0,NE,9.2,,N/A,,Partly Cloudy
6299,2016-12-26,12:51 AM,34.0,28.0,16.0,48%,30.71,10.0,NE,6.9,,N/A,,Partly Cloudy
6300,2016-12-26,1:51 AM,32.0,26.4,16.0,52%,30.72,10.0,NE,5.8,,N/A,,Clear
6301,2016-12-26,2:51 AM,32.0,25.6,17.1,54%,30.74,10.0,NE,6.9,,N/A,,Partly Cloudy
6302,2016-12-26,3:51 AM,32.0,24.8,17.1,54%,30.74,10.0,NE,8.1,,N/A,,Mostly Cloudy
6303,2016-12-26,4:51 AM,34.0,25.5,16.0,48%,30.73,10.0,NE,11.5,,N/A,,Mostly Cloudy
6304,2016-12-26,5:51 AM,34.0,26.6,16.0,48%,30.74,10.0,NE,9.2,,N/A,,Mostly Cloudy
6305,2016-12-26,6:51 AM,32.0,24.8,17.1,54%,30.74,10.0,NE,8.1,,N/A,,Mostly Cloudy
6306,2016-12-26,7:51 AM,34.0,26.0,19.0,54%,30.73,10.0,NE,10.4,,N/A,,Mostly Cloudy
6307,2016-12-26,8:51 AM,35.1,26.9,21.0,57%,30.72,10.0,ENE,11.5,,N/A,,Mostly Cloudy
6308,2016-12-26,9:51 AM,37.9,31.5,25.0,60%,30.72,10.0,ENE,9.2,,N/A,,Overcast
6309,2016-12-26,10:51 AM,41.0,34.3,27.0,57%,30.68,10.0,East,11.5,,N/A,,Overcast
6310,2016-12-26,11:51 AM,43.0,37.2,28.9,58%,30.64,10.0,ESE,10.4,,N/A,,Overcast
6311,2016-12-26,12:51 PM,43.0,37.7,30.9,62%,30.60,10.0,East,9.2,,N/A,,Overcast
6312,2016-12-26,1:51 PM,45.0,41.2,33.1,63%,30.57,9.0,ESE,6.9,,N/A,,Overcast
6313,2016-12-26,2:51 PM,46.0,41.9,36.0,68%,30.53,10.0,ESE,8.1,,0.00,,Overcast
6314,2016-12-26,3:51 PM,46.9,,39.9,77%,30.48,10.0,SSE,10.4,,0.00,,Overcast
6315,2016-12-26,4:51 PM,48.0,,41.0,77%,30.44,10.0,SSE,12.7,,N/A,,Overcast
6316,2016-12-26,5:08 PM,48.9,,43.0,80%,30.43,10.0,SSE,16.1,23.0,N/A,,Overcast
6317,2016-12-26,5:24 PM,48.0,,43.0,83%,30.42,10.0,South,10.4,,N/A,,Overcast
6318,2016-12-26,5:51 PM,48.0,,44.1,86%,30.41,10.0,South,12.7,,N/A,,Overcast
6319,2016-12-26,6:51 PM,48.9,,45.0,86%,30.38,8.0,South,12.7,,0.00,,Light Drizzle
6320,2016-12-26,7:49 PM,48.2,,46.4,93%,30.33,1.0,SSW,8.1,,0.00,,Light Drizzle
6321,2016-12-26,7:51 PM,48.9,,45.0,86%,30.33,1.0,SSW,8.1,,0.00,,Light Drizzle
6322,2016-12-26,8:20 PM,48.0,,45.0,89%,30.31,1.0,SSW,6.9,,0.00,,Light Drizzle
6323,2016-12-26,8:51 PM,48.0,,45.0,89%,30.27,1.0,South,9.2,,0.00,,Overcast
6324,2016-12-26,9:31 PM,48.0,,45.0,89%,30.22,0.8,SSW,10.4,,N/A,,Overcast
6325,2016-12-26,9:51 PM,48.0,,45.0,89%,30.22,0.8,SSW,12.7,,N/A,,Overcast
6326,2016-12-26,10:51 PM,48.9,,46.0,90%,30.17,0.1,South,11.5,,N/A,Fog,Fog
6327,2016-12-26,11:45 PM,48.2,,46.4,93%,30.13,2.0,South,6.9,,N/A,,Overcast
6328,2016-12-26,11:51 PM,48.0,,46.0,93%,30.13,2.0,SSW,6.9,,N/A,,Overcast
6329,2016-12-27,12:08 AM,48.0,,45.0,89%,30.11,8.0,SSW,6.9,,N/A,,Overcast
6330,2016-12-27,12:34 AM,48.9,,46.0,90%,30.10,10.0,SW,12.7,,N/A,,Overcast
6331,2016-12-27,12:51 AM,51.1,,46.9,86%,30.08,10.0,SSW,15.0,,N/A,,Overcast
6332,2016-12-27,1:51 AM,50.0,,46.0,86%,30.03,10.0,South,13.8,,N/A,,Overcast
6333,2016-12-27,2:51 AM,50.0,,46.0,86%,30.01,10.0,SSW,10.4,,N/A,,Overcast
6334,2016-12-27,3:51 AM,50.0,,46.0,86%,29.95,10.0,South,12.7,,N/A,,Overcast
6335,2016-12-27,4:51 AM,51.1,,46.9,86%,29.92,10.0,SSW,17.3,,N/A,,Overcast
6336,2016-12-27,5:51 AM,55.9,,48.9,77%,29.90,10.0,SW,15.0,,N/A,,Overcast
6337,2016-12-27,6:51 AM,54.0,,48.0,80%,29.87,10.0,SW,12.7,,N/A,,Overcast
6338,2016-12-27,7:51 AM,54.0,,48.9,83%,29.85,10.0,SW,10.4,,N/A,,Mostly Cloudy
6339,2016-12-27,8:51 AM,55.0,,48.9,80%,29.85,10.0,SW,16.1,,N/A,,Overcast
6340,2016-12-27,9:10 AM,55.9,,50.0,80%,29.84,10.0,WSW,13.8,,N/A,,Overcast
6341,2016-12-27,9:35 AM,55.9,,48.9,77%,29.84,10.0,WSW,11.5,,N/A,,Overcast
6342,2016-12-27,9:51 AM,55.9,,48.9,77%,29.85,10.0,WSW,15.0,,N/A,,Overcast
6343,2016-12-27,10:51 AM,57.0,,50.0,77%,29.82,10.0,WSW,16.1,,N/A,,Overcast
6344,2016-12-27,11:51 AM,57.9,,52.0,81%,29.82,8.0,WSW,11.5,,0.00,,Mostly Cloudy
6345,2016-12-27,12:51 PM,60.1,,44.1,55%,29.79,10.0,West,20.7,,N/A,,Mostly Cloudy
6346,2016-12-27,1:51 PM,62.1,,41.0,46%,29.78,10.0,West,19.6,25.3,N/A,,Mostly Cloudy
6347,2016-12-27,2:51 PM,62.1,,37.0,39%,29.77,10.0,West,17.3,24.2,N/A,,Scattered Clouds
6348,2016-12-27,3:51 PM,60.1,,36.0,41%,29.80,10.0,West,16.1,,N/A,,Scattered Clouds
6349,2016-12-27,4:51 PM,57.9,,30.0,35%,29.81,10.0,NW,10.4,,N/A,,Scattered Clouds
6350,2016-12-27,5:51 PM,57.9,,28.9,33%,29.84,10.0,WNW,12.7,,N/A,,Partly Cloudy
6351,2016-12-27,6:51 PM,55.9,,27.0,33%,29.86,10.0,WNW,15.0,,N/A,,Partly Cloudy
6352,2016-12-27,7:45 PM,51.8,,32.0,47%,29.89,10.0,North,13.8,,N/A,,Partly Cloudy
6353,2016-12-27,7:51 PM,51.1,,32.0,48%,29.89,10.0,NNW,12.7,,N/A,,Partly Cloudy
6354,2016-12-27,8:51 PM,48.0,,28.0,46%,29.90,10.0,North,13.8,,N/A,,Partly Cloudy
6355,2016-12-27,9:51 PM,46.0,38.5,27.0,47%,29.92,10.0,NNW,19.6,,N/A,,Clear
6356,2016-12-27,10:51 PM,43.0,36.8,26.1,51%,29.95,10.0,NNW,11.5,,N/A,,Clear
6357,2016-12-27,11:51 PM,41.0,32.8,25.0,53%,29.95,10.0,NNW,16.1,,N/A,,Clear
6358,2016-12-28,12:51 AM,41.0,33.1,25.0,53%,29.95,10.0,NW,15.0,,N/A,,Clear
6359,2016-12-28,1:51 AM,41.0,32.2,24.1,51%,29.97,10.0,NW,18.4,,N/A,,Clear
6360,2016-12-28,2:51 AM,39.9,33.4,24.1,53%,29.99,10.0,WNW,10.4,,N/A,,Clear
6361,2016-12-28,3:51 AM,41.0,32.2,24.1,51%,30.00,10.0,WNW,18.4,23.0,N/A,,Mostly Cloudy
6362,2016-12-28,4:51 AM,41.0,32.8,23.0,49%,30.01,10.0,WNW,16.1,21.9,N/A,,Scattered Clouds
6363,2016-12-28,5:51 AM,39.9,33.9,23.0,51%,30.04,10.0,WNW,9.2,,N/A,,Scattered Clouds
6364,2016-12-28,6:51 AM,41.0,35.2,23.0,49%,30.07,10.0,WNW,9.2,,N/A,,Mostly Cloudy
6365,2016-12-28,7:51 AM,42.1,33.9,21.9,45%,30.09,10.0,NW,17.3,,N/A,,Mostly Cloudy
6366,2016-12-28,8:51 AM,42.1,34.9,21.9,45%,30.11,10.0,WNW,13.8,,N/A,,Mostly Cloudy
6367,2016-12-28,9:51 AM,42.1,34.2,21.0,43%,30.13,10.0,NW,16.1,,N/A,,Mostly Cloudy
6368,2016-12-28,10:51 AM,42.1,36.1,21.0,43%,30.14,10.0,NW,10.4,,N/A,,Mostly Cloudy
6369,2016-12-28,11:51 AM,42.1,33.6,21.9,45%,30.12,10.0,NW,18.4,,N/A,,Mostly Cloudy
6370,2016-12-28,12:51 PM,41.0,32.8,21.9,47%,30.12,10.0,NW,16.1,24.2,N/A,,Mostly Cloudy
6371,2016-12-28,1:51 PM,42.1,33.9,19.9,41%,30.12,10.0,WNW,17.3,,N/A,,Mostly Cloudy
6372,2016-12-28,2:51 PM,41.0,32.2,18.0,40%,30.13,10.0,NW,18.4,25.3,N/A,,Mostly Cloudy
6373,2016-12-28,3:51 PM,39.0,29.0,18.0,43%,30.14,10.0,NW,20.7,,N/A,,Mostly Cloudy
6374,2016-12-28,4:51 PM,39.0,30.6,17.1,41%,30.16,10.0,NW,15.0,,N/A,,Mostly Cloudy
6375,2016-12-28,5:51 PM,39.0,30.3,18.0,43%,30.17,10.0,NW,16.1,,N/A,,Mostly Cloudy
6376,2016-12-28,6:51 PM,37.9,28.9,18.0,45%,30.18,10.0,NW,16.1,,N/A,,Scattered Clouds
6377,2016-12-28,7:51 PM,37.0,30.4,17.1,44%,30.19,10.0,North,9.2,,N/A,,Partly Cloudy
6378,2016-12-28,8:51 PM,36.0,31.1,18.0,48%,30.19,10.0,North,5.8,,N/A,,Scattered Clouds
6379,2016-12-28,9:51 PM,34.0,29.8,18.0,52%,30.17,10.0,ENE,4.6,,N/A,,Scattered Clouds
6380,2016-12-28,10:51 PM,33.1,,19.0,56%,30.17,10.0,Calm,Calm,,N/A,,Scattered Clouds
6381,2016-12-28,11:51 PM,33.1,,19.9,59%,30.16,10.0,Calm,Calm,,N/A,,Scattered Clouds
6382,2016-12-29,12:51 AM,30.9,27.5,21.0,67%,30.11,10.0,East,3.5,,N/A,,Mostly Cloudy
6383,2016-12-29,1:51 AM,28.9,25.2,21.9,75%,30.11,10.0,East,3.5,,N/A,,Mostly Cloudy
6384,2016-12-29,2:51 AM,30.0,25.2,19.9,66%,30.09,10.0,East,4.6,,N/A,,Overcast
6385,2016-12-29,3:51 AM,30.0,23.2,19.9,66%,30.07,10.0,NE,6.9,,N/A,,Overcast
6386,2016-12-29,4:51 AM,32.0,26.4,21.9,66%,30.03,10.0,ENE,5.8,,N/A,,Overcast
6387,2016-12-29,5:51 AM,34.0,28.0,24.1,67%,29.99,10.0,ENE,6.9,,N/A,,Overcast
6388,2016-12-29,6:51 AM,43.0,37.2,30.9,62%,29.99,10.0,SSE,10.4,,N/A,,Overcast
6389,2016-12-29,7:51 AM,44.1,38.1,33.1,65%,29.92,10.0,SE,11.5,,N/A,,Overcast
6390,2016-12-29,8:51 AM,46.0,38.5,34.0,63%,29.90,10.0,SSE,19.6,25.3,0.00,Ra,Light Ra
6391,2016-12-29,9:09 AM,45.0,37.6,35.1,68%,29.88,6.0,SSE,17.3,29.9,0.01,Ra,Light Ra
6392,2016-12-29,9:51 AM,45.0,37.4,37.0,74%,29.86,7.0,South,18.4,,0.06,Ra,Ra
6393,2016-12-29,10:51 AM,46.0,39.0,39.0,76%,29.78,8.0,SSE,17.3,,0.03,Ra,Light Ra
6394,2016-12-29,11:51 AM,46.0,41.4,41.0,83%,29.73,5.0,SE,9.2,,0.06,Ra,Ra
6395,2016-12-29,12:24 PM,46.0,41.9,42.1,86%,29.68,4.0,SE,8.1,,0.05,Ra,Light Ra
6396,2016-12-29,12:43 PM,46.0,41.0,42.1,86%,29.65,5.0,SSE,10.4,,0.07,Ra,Light Ra
6397,2016-12-29,12:51 PM,46.0,41.4,42.1,86%,29.65,5.0,SE,9.2,,0.08,Ra,Light Ra
6398,2016-12-29,1:51 PM,46.9,,43.0,86%,29.58,6.0,ESE,6.9,,0.06,Ra,Light Ra
6399,2016-12-29,2:01 PM,46.9,,43.0,86%,29.57,6.0,ESE,6.9,,0.01,Ra,Light Ra
6400,2016-12-29,2:44 PM,46.9,,43.0,86%,29.55,1.5,East,3.5,,0.05,Ra,Light Ra
6401,2016-12-29,2:51 PM,46.9,,43.0,86%,29.55,1.5,East,3.5,,0.05,Ra,Light Ra
6402,2016-12-29,3:39 PM,46.9,,41.0,80%,29.55,9.0,WNW,21.9,29.9,0.01,Ra,Light Ra
6403,2016-12-29,3:51 PM,46.0,38.5,39.9,79%,29.56,10.0,WNW,19.6,27.6,0.02,Ra,Light Ra
6404,2016-12-29,4:13 PM,46.0,39.3,37.9,73%,29.53,10.0,NW,16.1,,0.00,,Overcast
6405,2016-12-29,4:51 PM,45.0,38.2,36.0,71%,29.55,10.0,NW,15.0,25.3,0.00,,Mostly Cloudy
6406,2016-12-29,5:51 PM,43.0,34.8,32.0,65%,29.55,10.0,NW,18.4,27.6,N/A,,Mostly Cloudy
6407,2016-12-29,6:51 PM,42.1,33.9,30.0,62%,29.56,10.0,WNW,17.3,21.9,N/A,,Scattered Clouds
6408,2016-12-29,7:51 PM,43.0,35.1,28.9,58%,29.57,10.0,West,17.3,,N/A,,Partly Cloudy
6409,2016-12-29,8:51 PM,41.0,33.1,28.0,60%,29.57,10.0,West,15.0,,N/A,,Partly Cloudy
6410,2016-12-29,9:51 PM,39.9,31.4,27.0,60%,29.57,10.0,West,16.1,,N/A,,Partly Cloudy
6411,2016-12-29,10:51 PM,39.0,29.9,27.0,62%,29.57,10.0,West,17.3,25.3,N/A,,Scattered Clouds
6412,2016-12-29,11:51 PM,39.0,29.6,26.1,60%,29.57,10.0,West,18.4,,N/A,,Partly Cloudy
6413,2016-12-30,12:51 AM,37.9,28.2,26.1,62%,29.56,10.0,West,18.4,,N/A,,Clear
6414,2016-12-30,1:51 AM,37.0,28.9,25.0,62%,29.58,10.0,WSW,12.7,,N/A,,Clear
6415,2016-12-30,2:51 AM,37.0,28.1,25.0,62%,29.58,10.0,West,15.0,,N/A,,Clear
6416,2016-12-30,3:51 AM,37.0,28.5,24.1,59%,29.57,10.0,West,13.8,,N/A,,Clear
6417,2016-12-30,4:51 AM,37.0,27.0,24.1,59%,29.58,10.0,WSW,18.4,,N/A,,Clear
6418,2016-12-30,5:51 AM,37.0,27.4,25.0,62%,29.60,10.0,WSW,17.3,,N/A,,Clear
6419,2016-12-30,6:51 AM,36.0,26.3,25.0,64%,29.61,10.0,West,16.1,,N/A,,Partly Cloudy
6420,2016-12-30,7:51 AM,36.0,27.1,25.0,64%,29.63,10.0,West,13.8,,N/A,,Partly Cloudy
6421,2016-12-30,8:51 AM,37.9,28.2,24.1,57%,29.64,10.0,West,18.4,,N/A,,Partly Cloudy
6422,2016-12-30,9:51 AM,39.9,31.1,24.1,53%,29.67,10.0,West,17.3,,N/A,,Partly Cloudy
6423,2016-12-30,10:51 AM,42.1,33.1,23.0,47%,29.67,10.0,West,20.7,27.6,N/A,,Scattered Clouds
6424,2016-12-30,11:51 AM,42.1,33.3,18.0,38%,29.68,10.0,West,19.6,34.5,N/A,,Mostly Cloudy
6425,2016-12-30,12:51 PM,42.1,32.8,19.0,40%,29.68,10.0,West,21.9,,N/A,,Mostly Cloudy
6426,2016-12-30,1:51 PM,42.1,32.8,16.0,35%,29.70,10.0,WNW,21.9,33.4,N/A,,Mostly Cloudy
6427,2016-12-30,2:51 PM,41.0,31.1,17.1,38%,29.72,10.0,West,23.0,35.7,N/A,,Mostly Cloudy
6428,2016-12-30,3:51 PM,41.0,32.2,16.0,36%,29.74,10.0,West,18.4,31.1,N/A,,Scattered Clouds
6429,2016-12-30,4:51 PM,39.9,30.8,17.1,40%,29.78,10.0,West,18.4,,N/A,,Scattered Clouds
6430,2016-12-30,5:32 PM,36.0,25.3,27.0,70%,29.82,6.0,NW,19.6,29.9,0.00,Snow,Light Snow
6431,2016-12-30,5:51 PM,36.0,27.5,27.0,70%,29.83,10.0,NW,12.7,24.2,0.00,,Mostly Cloudy
6432,2016-12-30,6:51 PM,37.9,29.6,23.0,55%,29.86,10.0,West,13.8,23.0,N/A,,Partly Cloudy
6433,2016-12-30,7:51 PM,37.9,29.2,21.0,51%,29.90,10.0,West,15.0,21.9,N/A,,Partly Cloudy
6434,2016-12-30,8:51 PM,37.9,29.2,17.1,43%,29.92,10.0,West,15.0,,N/A,,Partly Cloudy
6435,2016-12-30,9:51 PM,37.0,27.7,17.1,44%,29.96,10.0,West,16.1,26.5,N/A,,Partly Cloudy
6436,2016-12-30,10:51 PM,36.0,25.3,16.0,44%,29.98,10.0,West,19.6,26.5,N/A,,Partly Cloudy
6437,2016-12-30,11:51 PM,35.1,25.9,15.1,44%,30.01,10.0,West,13.8,25.3,N/A,,Partly Cloudy
6438,2016-12-31,12:51 AM,34.0,24.6,16.0,48%,30.02,10.0,West,13.8,,N/A,,Partly Cloudy
6439,2016-12-31,1:51 AM,34.0,23.8,15.1,46%,30.06,10.0,WSW,16.1,,N/A,,Partly Cloudy
6440,2016-12-31,2:51 AM,33.1,22.2,16.0,50%,30.09,10.0,West,17.3,,N/A,,Partly Cloudy
6441,2016-12-31,3:51 AM,33.1,21.5,17.1,52%,30.10,10.0,WSW,19.6,,N/A,,Partly Cloudy
6442,2016-12-31,4:51 AM,34.0,23.4,16.0,48%,30.12,10.0,WSW,17.3,,N/A,,Mostly Cloudy
6443,2016-12-31,5:51 AM,34.0,23.8,17.1,50%,30.15,10.0,WSW,16.1,,N/A,,Mostly Cloudy
6444,2016-12-31,6:51 AM,33.1,23.9,15.1,48%,30.16,10.0,West,12.7,,N/A,,Scattered Clouds
6445,2016-12-31,7:51 AM,34.0,26.6,15.1,46%,30.17,10.0,West,9.2,,N/A,,Scattered Clouds
6446,2016-12-31,8:51 AM,36.0,26.7,19.0,50%,30.18,10.0,SW,15.0,,N/A,,Mostly Cloudy
6447,2016-12-31,9:51 AM,37.9,30.0,19.9,48%,30.18,10.0,SW,12.7,,N/A,,Mostly Cloudy
6448,2016-12-31,10:51 AM,39.9,32.5,19.9,45%,30.15,10.0,SSW,12.7,,N/A,,Mostly Cloudy
6449,2016-12-31,11:51 AM,42.1,33.9,19.0,40%,30.12,10.0,SSW,17.3,,N/A,,Mostly Cloudy
6450,2016-12-31,12:51 PM,42.1,33.1,19.9,41%,30.09,10.0,SSW,20.7,,N/A,,Mostly Cloudy
6451,2016-12-31,1:51 PM,44.1,35.2,21.0,40%,30.06,10.0,South,23.0,,N/A,,Mostly Cloudy
6452,2016-12-31,2:51 PM,43.0,32.4,24.1,47%,30.03,10.0,South,31.1,39.1,N/A,,Mostly Cloudy
6453,2016-12-31,3:51 PM,44.1,33.5,27.0,51%,30.02,10.0,SSW,33.4,41.4,N/A,,Mostly Cloudy
6454,2016-12-31,4:51 PM,45.0,35.2,28.9,53%,30.00,10.0,SSW,29.9,43.7,N/A,,Mostly Cloudy
6455,2016-12-31,5:51 PM,45.0,35.2,26.1,48%,29.99,10.0,SSW,29.9,38.0,N/A,,Overcast
6456,2016-12-31,6:51 PM,45.0,35.1,28.0,52%,29.97,10.0,SSW,31.1,36.8,N/A,,Overcast
6457,2016-12-31,7:51 PM,45.0,37.1,23.0,42%,29.97,10.0,SW,19.6,28.8,N/A,,Overcast
6458,2016-12-31,8:51 PM,44.1,37.4,21.9,42%,29.95,10.0,SSW,13.8,,N/A,,Overcast
6459,2016-12-31,9:51 PM,44.1,37.7,23.0,43%,29.93,10.0,SSW,12.7,,N/A,,Overcast
6460,2016-12-31,10:51 PM,45.0,39.3,23.0,42%,29.94,10.0,SW,11.5,,N/A,,Overcast
6461,2016-12-31,11:51 PM,44.1,38.6,24.1,45%,29.91,10.0,SW,10.4,,N/A,,Overcast
